<?xml version="1.0" encoding="UTF-8"?>
<gpx xmlns="http://www.topografix.com/GPX/1/1" xmlns:gpxtpx="http://www.garmin.com/xmlschemas/TrackPointExtension/v1" xmlns:xsi="http://www.w3.org/2001/XMLSchema-instance" xsi:schemaLocation="http://www.topografix.com/GPX/1/1 http://www.topografix.com/GPX/1/1/gpx.xsd" version="1.1" creator="gpx.py -- https://github.com/tkrajina/gpxpy">
  <trk>
    <name>gpx from keep</name>
    <type>Ride</type>
    <trkseg>
      <trkpt lat="34.83898952057633" lon="113.6475240748122">
        <ele>87.65924072265625</ele>
        <time>2026-08-19T14:13:20Z</time>
      </trkpt>
      <trkpt lat="34.83901054119968" lon="113.64743392822686">
        <ele>87.30548095703125</ele>
        <time>2026-08-19T14:13:22Z</time>
      </trkpt>
      <trkpt lat="34.83901073608528" lon="113.64764695766446">
        <ele>89.25626281742007</ele>
        <time>2026-08-19T14:13:30Z</time>
      </trkpt>
      <trkpt lat="34.83894244486301" lon="113.64776035985794">
        <ele>89.4090280495584</ele>
        <time>2026-08-19T14:13:32Z</time>
      </trkpt>
      <trkpt lat="34.83885581111781" lon="113.64829107460983">
        <ele>91.86362584959716</ele>
        <time>2026-08-19T14:13:45Z</time>
      </trkpt>
      <trkpt lat="34.83884526541702" lon="113.64842374227541">
        <ele>92.98589726909995</ele>
        <time>2026-08-19T14:13:49Z</time>
      </trkpt>
      <trkpt lat="34.83888937539273" lon="113.64871275737435">
        <ele>91.22252547275275</ele>
        <time>2026-08-19T14:13:58Z</time>
      </trkpt>
      <trkpt lat="34.838891023832225" lon="113.64889251561914">
        <ele>89.99833125434816</ele>
        <time>2026-08-19T14:14:05Z</time>
      </trkpt>
      <trkpt lat="34.83891570738259" lon="113.64899581922207">
        <ele>89.29017452802509</ele>
        <time>2026-08-19T14:14:08Z</time>
      </trkpt>
      <trkpt lat="34.839066631307006" lon="113.64923890689431">
        <ele>90.73622709978372</ele>
        <time>2026-08-19T14:14:52Z</time>
      </trkpt>
      <trkpt lat="34.83915570325691" lon="113.64951115016142">
        <ele>90.36348362080753</ele>
        <time>2026-08-19T14:15:04Z</time>
      </trkpt>
      <trkpt lat="34.839136502314034" lon="113.64960763574302">
        <ele>90.58013254310936</ele>
        <time>2026-08-19T14:15:09Z</time>
      </trkpt>
      <trkpt lat="34.8390868094028" lon="113.64969148099968">
        <ele>91.94158467371017</ele>
        <time>2026-08-19T14:15:14Z</time>
      </trkpt>
      <trkpt lat="34.83897395055229" lon="113.64981910802851">
        <ele>90.50607046764344</ele>
        <time>2026-08-19T14:15:20Z</time>
      </trkpt>
      <trkpt lat="34.838886171702505" lon="113.64987987553506">
        <ele>91.1527296602726</ele>
        <time>2026-08-19T14:15:23Z</time>
      </trkpt>
      <trkpt lat="34.83848438963762" lon="113.6500520796641">
        <ele>91.2611351236701</ele>
        <time>2026-08-19T14:15:35Z</time>
      </trkpt>
      <trkpt lat="34.83820681795572" lon="113.65019199183754">
        <ele>89.76892473176122</ele>
        <time>2026-08-19T14:15:43Z</time>
      </trkpt>
      <trkpt lat="34.838142586958554" lon="113.65024329967561">
        <ele>89.47738644015044</ele>
        <time>2026-08-19T14:15:45Z</time>
      </trkpt>
      <trkpt lat="34.83801498762489" lon="113.65037971493835">
        <ele>88.51633782591671</ele>
        <time>2026-08-19T14:15:49Z</time>
      </trkpt>
      <trkpt lat="34.83793781196679" lon="113.65042597454014">
        <ele>88.6769208908081</ele>
        <time>2026-08-19T14:15:51Z</time>
      </trkpt>
      <trkpt lat="34.83784835426224" lon="113.65044691442064">
        <ele>88.75887383706868</ele>
        <time>2026-08-19T14:15:53Z</time>
      </trkpt>
      <trkpt lat="34.837656286977534" lon="113.65053368581043">
        <ele>89.5196534525603</ele>
        <time>2026-08-19T14:15:57Z</time>
      </trkpt>
      <trkpt lat="34.83755046778431" lon="113.65054748754899">
        <ele>89.59232209902257</ele>
        <time>2026-08-19T14:15:59Z</time>
      </trkpt>
      <trkpt lat="34.837337099797885" lon="113.6505127820717">
        <ele>88.635797444731</ele>
        <time>2026-08-19T14:16:03Z</time>
      </trkpt>
      <trkpt lat="34.83704447940955" lon="113.65058641248389">
        <ele>88.12778559606522</ele>
        <time>2026-08-19T14:16:10Z</time>
      </trkpt>
      <trkpt lat="34.836584294093946" lon="113.65084372089925">
        <ele>87.58251284901053</ele>
        <time>2026-08-19T14:16:21Z</time>
      </trkpt>
      <trkpt lat="34.83650936964477" lon="113.65089059131313">
        <ele>87.68271318543702</ele>
        <time>2026-08-19T14:16:23Z</time>
      </trkpt>
      <trkpt lat="34.8363239227592" lon="113.65094018479977">
        <ele>88.26272461935878</ele>
        <time>2026-08-19T14:16:27Z</time>
      </trkpt>
      <trkpt lat="34.83623200506876" lon="113.6509977570968">
        <ele>89.03193329740316</ele>
        <time>2026-08-19T14:16:29Z</time>
      </trkpt>
      <trkpt lat="34.83589740540428" lon="113.6511205776335">
        <ele>89.02994304522872</ele>
        <time>2026-08-19T14:16:38Z</time>
      </trkpt>
      <trkpt lat="34.835831941112914" lon="113.65115932130217">
        <ele>89.46432696096599</ele>
        <time>2026-08-19T14:16:40Z</time>
      </trkpt>
      <trkpt lat="34.83541487973162" lon="113.6512863631463">
        <ele>87.74184254929423</ele>
        <time>2026-08-19T14:16:53Z</time>
      </trkpt>
      <trkpt lat="34.83535880727339" lon="113.6512111835928">
        <ele>88.52396418433636</ele>
        <time>2026-08-19T14:16:57Z</time>
      </trkpt>
      <trkpt lat="34.835277324317765" lon="113.6511987829765">
        <ele>89.53066751267761</ele>
        <time>2026-08-19T14:17:01Z</time>
      </trkpt>
      <trkpt lat="34.83518557171267" lon="113.65124610138079">
        <ele>88.47263292316347</ele>
        <time>2026-08-19T14:17:04Z</time>
      </trkpt>
      <trkpt lat="34.83476119861626" lon="113.65137196750054">
        <ele>87.54778352938592</ele>
        <time>2026-08-19T14:17:19Z</time>
      </trkpt>
      <trkpt lat="34.834352954435595" lon="113.65155415841265">
        <ele>88.81942873355001</ele>
        <time>2026-08-19T14:17:35Z</time>
      </trkpt>
      <trkpt lat="34.833909269176296" lon="113.65174332382482">
        <ele>87.65830787923187</ele>
        <time>2026-08-19T14:17:51Z</time>
      </trkpt>
      <trkpt lat="34.83341150584776" lon="113.65191863743145">
        <ele>87.4914593109861</ele>
        <time>2026-08-19T14:18:10Z</time>
      </trkpt>
      <trkpt lat="34.83331571104797" lon="113.65194945426732">
        <ele>88.02773633319885</ele>
        <time>2026-08-19T14:18:13Z</time>
      </trkpt>
      <trkpt lat="34.83325648358367" lon="113.65203034222691">
        <ele>87.66995482053608</ele>
        <time>2026-08-19T14:18:17Z</time>
      </trkpt>
      <trkpt lat="34.83326357350418" lon="113.65213970693449">
        <ele>87.2791757741943</ele>
        <time>2026-08-19T14:18:21Z</time>
      </trkpt>
      <trkpt lat="34.833199934373994" lon="113.65218654549668">
        <ele>87.84096164349467</ele>
        <time>2026-08-19T14:18:24Z</time>
      </trkpt>
      <trkpt lat="34.83273207644941" lon="113.65236752370677">
        <ele>87.97277738992125</ele>
        <time>2026-08-19T14:18:40Z</time>
      </trkpt>
      <trkpt lat="34.83258519417231" lon="113.6524353090529">
        <ele>88.19593077152967</ele>
        <time>2026-08-19T14:18:45Z</time>
      </trkpt>
      <trkpt lat="34.83214751967997" lon="113.65261046658986">
        <ele>88.3597477413714</ele>
        <time>2026-08-19T14:18:57Z</time>
      </trkpt>
      <trkpt lat="34.831678573953866" lon="113.65278549320368">
        <ele>89.67605765350163</ele>
        <time>2026-08-19T14:19:10Z</time>
      </trkpt>
      <trkpt lat="34.831608314676146" lon="113.65283215333265">
        <ele>90.34648278169334</ele>
        <time>2026-08-19T14:19:13Z</time>
      </trkpt>
      <trkpt lat="34.83141354487661" lon="113.65289283689756">
        <ele>86.19620716571808</ele>
        <time>2026-08-19T14:19:18Z</time>
      </trkpt>
      <trkpt lat="34.831322081200305" lon="113.65294699342621">
        <ele>86.41440580226481</ele>
        <time>2026-08-19T14:19:20Z</time>
      </trkpt>
      <trkpt lat="34.830922820644865" lon="113.65310140341987">
        <ele>85.72920412570238</ele>
        <time>2026-08-19T14:19:30Z</time>
      </trkpt>
      <trkpt lat="34.83074694770672" lon="113.65311536240436">
        <ele>85.92342540808022</ele>
        <time>2026-08-19T14:19:36Z</time>
      </trkpt>
      <trkpt lat="34.83065558609647" lon="113.65309093310306">
        <ele>84.89686488732696</ele>
        <time>2026-08-19T14:19:39Z</time>
      </trkpt>
      <trkpt lat="34.830586591141895" lon="113.65312850680778">
        <ele>86.41282152477652</ele>
        <time>2026-08-19T14:19:43Z</time>
      </trkpt>
      <trkpt lat="34.830545486662714" lon="113.65321264236253">
        <ele>87.69515142403543</ele>
        <time>2026-08-19T14:19:47Z</time>
      </trkpt>
      <trkpt lat="34.83046710752897" lon="113.65349774773043">
        <ele>88.75864038337022</ele>
        <time>2026-08-19T14:19:59Z</time>
      </trkpt>
      <trkpt lat="34.830412806364826" lon="113.6540889527215">
        <ele>91.83281065523624</ele>
        <time>2026-08-19T14:20:17Z</time>
      </trkpt>
      <trkpt lat="34.83041409722144" lon="113.65422023526624">
        <ele>92.90268731303513</ele>
        <time>2026-08-19T14:20:21Z</time>
      </trkpt>
      <trkpt lat="34.83037185754181" lon="113.65465246396242">
        <ele>93.57201184052974</ele>
        <time>2026-08-19T14:20:32Z</time>
      </trkpt>
      <trkpt lat="34.83038728328532" lon="113.65475686176127">
        <ele>92.89001288171858</ele>
        <time>2026-08-19T14:20:35Z</time>
      </trkpt>
      <trkpt lat="34.83034608622575" lon="113.65509240824171">
        <ele>92.98509204387665</ele>
        <time>2026-08-19T14:20:43Z</time>
      </trkpt>
      <trkpt lat="34.830340689268034" lon="113.65530384923736">
        <ele>91.23050873354077</ele>
        <time>2026-08-19T14:20:49Z</time>
      </trkpt>
      <trkpt lat="34.8302831121199" lon="113.65538073471825">
        <ele>91.78759752679616</ele>
        <time>2026-08-19T14:20:56Z</time>
      </trkpt>
      <trkpt lat="34.83006160876075" lon="113.65551822794619">
        <ele>91.83129659295082</ele>
        <time>2026-08-19T14:21:07Z</time>
      </trkpt>
      <trkpt lat="34.82998264240872" lon="113.65553254026514">
        <ele>91.7234136229381</ele>
        <time>2026-08-19T14:21:11Z</time>
      </trkpt>
      <trkpt lat="34.82990289688425" lon="113.65557674271783">
        <ele>91.49853046890348</ele>
        <time>2026-08-19T14:21:15Z</time>
      </trkpt>
      <trkpt lat="34.829819032811486" lon="113.65574309007123">
        <ele>93.10593465063721</ele>
        <time>2026-08-19T14:21:41Z</time>
      </trkpt>
      <trkpt lat="34.82981712984162" lon="113.65585229983466">
        <ele>92.33017280697823</ele>
        <time>2026-08-19T14:21:47Z</time>
      </trkpt>
      <trkpt lat="34.82984174679658" lon="113.65594491574583">
        <ele>91.9059097263962</ele>
        <time>2026-08-19T14:21:53Z</time>
      </trkpt>
      <trkpt lat="34.82977729864877" lon="113.65655172976109">
        <ele>88.44274139683694</ele>
        <time>2026-08-19T14:22:09Z</time>
      </trkpt>
      <trkpt lat="34.82978078708318" lon="113.65677474958541">
        <ele>93.57645996194333</ele>
        <time>2026-08-19T14:22:16Z</time>
      </trkpt>
      <trkpt lat="34.82971168665834" lon="113.6573372465356">
        <ele>90.19843995943666</ele>
        <time>2026-08-19T14:22:33Z</time>
      </trkpt>
      <trkpt lat="34.82968044989707" lon="113.6574500870935">
        <ele>89.15111472830176</ele>
        <time>2026-08-19T14:22:36Z</time>
      </trkpt>
      <trkpt lat="34.82968801196879" lon="113.6575472214115">
        <ele>89.0681951995939</ele>
        <time>2026-08-19T14:22:39Z</time>
      </trkpt>
      <trkpt lat="34.82967553378937" lon="113.65765525421017">
        <ele>87.52937125880271</ele>
        <time>2026-08-19T14:22:42Z</time>
      </trkpt>
      <trkpt lat="34.82965245084227" lon="113.657854109917">
        <ele>87.10516534466296</ele>
        <time>2026-08-19T14:22:49Z</time>
      </trkpt>
      <trkpt lat="34.82969036312513" lon="113.65788677841367">
        <ele>88.59322599042207</ele>
        <time>2026-08-19T14:23:04Z</time>
      </trkpt>
    </trkseg>
  </trk>
</gpx>