<?xml version="1.0" encoding="UTF-8"?>
<gpx xmlns="http://www.topografix.com/GPX/1/1" xmlns:gpxtpx="http://www.garmin.com/xmlschemas/TrackPointExtension/v1" xmlns:xsi="http://www.w3.org/2001/XMLSchema-instance" xsi:schemaLocation="http://www.topografix.com/GPX/1/1 http://www.topografix.com/GPX/1/1/gpx.xsd" version="1.1" creator="gpx.py -- https://github.com/tkrajina/gpxpy">
  <trk>
    <name>gpx from keep</name>
    <type>Walk</type>
    <trkseg>
      <trkpt lat="34.834569526785245" lon="113.65385799754131">
        <ele>91.43359375</ele>
        <time>2026-10-04T01:12:33Z</time>
      </trkpt>
      <trkpt lat="34.834674903750376" lon="113.65381938339823">
        <ele>92.4472371255979</ele>
        <time>2026-10-04T01:12:45Z</time>
      </trkpt>
      <trkpt lat="34.83467931055444" lon="113.65389461590256">
        <ele>92.47177514992654</ele>
        <time>2026-10-04T01:12:48Z</time>
      </trkpt>
      <trkpt lat="34.83496322704509" lon="113.6537398560411">
        <ele>92.20703369937837</ele>
        <time>2026-10-04T01:13:18Z</time>
      </trkpt>
      <trkpt lat="34.835252828441085" lon="113.65363142902237">
        <ele>92.06920044310391</ele>
        <time>2026-10-04T01:13:48Z</time>
      </trkpt>
      <trkpt lat="34.83549920776709" lon="113.65346757419061">
        <ele>89.03716118820012</ele>
        <time>2026-10-04T01:14:15Z</time>
      </trkpt>
      <trkpt lat="34.83582182533641" lon="113.65334207281363">
        <ele>88.76078710425645</ele>
        <time>2026-10-04T01:14:48Z</time>
      </trkpt>
      <trkpt lat="34.83604379891645" lon="113.65325877879">
        <ele>86.74908642284572</ele>
        <time>2026-10-04T01:15:09Z</time>
      </trkpt>
      <trkpt lat="34.83606292573529" lon="113.65318664641676">
        <ele>86.6027367953211</ele>
        <time>2026-10-04T01:15:15Z</time>
      </trkpt>
      <trkpt lat="34.83613943378158" lon="113.65318119799436">
        <ele>87.47586343344301</ele>
        <time>2026-10-04T01:15:24Z</time>
      </trkpt>
      <trkpt lat="34.83618536870048" lon="113.65311037876101">
        <ele>87.69772374257445</ele>
        <time>2026-10-04T01:15:30Z</time>
      </trkpt>
      <trkpt lat="34.836238364087755" lon="113.65307856097346">
        <ele>88.01245306245983</ele>
        <time>2026-10-04T01:15:36Z</time>
      </trkpt>
      <trkpt lat="34.83646437454516" lon="113.65298653064659">
        <ele>91.89438405167311</ele>
        <time>2026-10-04T01:16:00Z</time>
      </trkpt>
      <trkpt lat="34.83672844564087" lon="113.6527719024768">
        <ele>91.98382851667702</ele>
        <time>2026-10-04T01:16:30Z</time>
      </trkpt>
      <trkpt lat="34.837029091663894" lon="113.6525918450976">
        <ele>94.38190266210586</ele>
        <time>2026-10-04T01:17:02Z</time>
      </trkpt>
      <trkpt lat="34.83718700206698" lon="113.65244288070822">
        <ele>93.07670818828046</ele>
        <time>2026-10-04T01:17:20Z</time>
      </trkpt>
      <trkpt lat="34.83724386829955" lon="113.65242418019785">
        <ele>93.62937952391803</ele>
        <time>2026-10-04T01:17:26Z</time>
      </trkpt>
      <trkpt lat="34.83727962405203" lon="113.65238920310361">
        <ele>94.55065620876849</ele>
        <time>2026-10-04T01:17:29Z</time>
      </trkpt>
      <trkpt lat="34.837556849238474" lon="113.65230190552734">
        <ele>96.31036452949047</ele>
        <time>2026-10-04T01:17:59Z</time>
      </trkpt>
      <trkpt lat="34.83785247815189" lon="113.65217873938302">
        <ele>92.78256363142282</ele>
        <time>2026-10-04T01:18:29Z</time>
      </trkpt>
      <trkpt lat="34.838021389572255" lon="113.65205869655634">
        <ele>93.19556666444987</ele>
        <time>2026-10-04T01:18:47Z</time>
      </trkpt>
      <trkpt lat="34.83824662918704" lon="113.65198098071647">
        <ele>94.28139929007739</ele>
        <time>2026-10-04T01:19:10Z</time>
      </trkpt>
      <trkpt lat="34.83835152506263" lon="113.65191547142157">
        <ele>93.15934351552278</ele>
        <time>2026-10-04T01:19:22Z</time>
      </trkpt>
      <trkpt lat="34.838458555953814" lon="113.65186551267423">
        <ele>93.07254454866052</ele>
        <time>2026-10-04T01:19:34Z</time>
      </trkpt>
      <trkpt lat="34.838635624517316" lon="113.65169171737132">
        <ele>92.17059864103794</ele>
        <time>2026-10-04T01:19:52Z</time>
      </trkpt>
      <trkpt lat="34.838922540557036" lon="113.65153039961852">
        <ele>90.58135339524597</ele>
        <time>2026-10-04T01:20:22Z</time>
      </trkpt>
      <trkpt lat="34.83898103216141" lon="113.65148619467904">
        <ele>90.82271688338369</ele>
        <time>2026-10-04T01:20:28Z</time>
      </trkpt>
      <trkpt lat="34.8391162648987" lon="113.65145885924258">
        <ele>89.41122058499604</ele>
        <time>2026-10-04T01:20:40Z</time>
      </trkpt>
      <trkpt lat="34.83943034733536" lon="113.65135939155954">
        <ele>91.1123465159908</ele>
        <time>2026-10-04T01:21:12Z</time>
      </trkpt>
      <trkpt lat="34.83961216842142" lon="113.65130854452516">
        <ele>92.62484965566546</ele>
        <time>2026-10-04T01:21:30Z</time>
      </trkpt>
      <trkpt lat="34.839713535336074" lon="113.65122805655867">
        <ele>90.82839130330831</ele>
        <time>2026-10-04T01:21:42Z</time>
      </trkpt>
      <trkpt lat="34.8397766075689" lon="113.65121828091026">
        <ele>92.12614260241389</ele>
        <time>2026-10-04T01:21:48Z</time>
      </trkpt>
      <trkpt lat="34.839944213888806" lon="113.65114637532116">
        <ele>93.55877828318626</ele>
        <time>2026-10-04T01:22:06Z</time>
      </trkpt>
      <trkpt lat="34.8399995075099" lon="113.65115424037806">
        <ele>93.6912392983213</ele>
        <time>2026-10-04T01:22:12Z</time>
      </trkpt>
      <trkpt lat="34.840250896351336" lon="113.65136677224612">
        <ele>95.77551884390414</ele>
        <time>2026-10-04T01:22:42Z</time>
      </trkpt>
      <trkpt lat="34.84029931104649" lon="113.65137939964308">
        <ele>95.54578610137105</ele>
        <time>2026-10-04T01:22:48Z</time>
      </trkpt>
      <trkpt lat="34.84036854570663" lon="113.65135535275901">
        <ele>95.52439091540873</ele>
        <time>2026-10-04T01:22:54Z</time>
      </trkpt>
      <trkpt lat="34.840386313770374" lon="113.65130054959259">
        <ele>93.4835262876004</ele>
        <time>2026-10-04T01:22:57Z</time>
      </trkpt>
      <trkpt lat="34.8403334206432" lon="113.65111800695993">
        <ele>91.58997580595315</ele>
        <time>2026-10-04T01:23:11Z</time>
      </trkpt>
      <trkpt lat="34.8402948292322" lon="113.65087620980611">
        <ele>91.28119396604598</ele>
        <time>2026-10-04T01:23:30Z</time>
      </trkpt>
      <trkpt lat="34.84022895636086" lon="113.65064302159827">
        <ele>91.4880718626082</ele>
        <time>2026-10-04T01:23:48Z</time>
      </trkpt>
      <trkpt lat="34.84020357361473" lon="113.6504881121844">
        <ele>91.61242355313152</ele>
        <time>2026-10-04T01:24:00Z</time>
      </trkpt>
      <trkpt lat="34.8401091648469" lon="113.65017480001042">
        <ele>89.92201540526003</ele>
        <time>2026-10-04T01:24:24Z</time>
      </trkpt>
      <trkpt lat="34.84006916940738" lon="113.65009455106251">
        <ele>89.51316211372614</ele>
        <time>2026-10-04T01:24:30Z</time>
      </trkpt>
      <trkpt lat="34.840000280075536" lon="113.64977261904544">
        <ele>88.2285649990663</ele>
        <time>2026-10-04T01:25:00Z</time>
      </trkpt>
      <trkpt lat="34.83993163178255" lon="113.64944552559557">
        <ele>87.5604897737503</ele>
        <time>2026-10-04T01:25:28Z</time>
      </trkpt>
      <trkpt lat="34.8398992067643" lon="113.64938077351997">
        <ele>88.48096662759781</ele>
        <time>2026-10-04T01:25:34Z</time>
      </trkpt>
      <trkpt lat="34.83990475201863" lon="113.64932288527123">
        <ele>88.4582853866741</ele>
        <time>2026-10-04T01:25:40Z</time>
      </trkpt>
      <trkpt lat="34.839941641394255" lon="113.64928341140319">
        <ele>88.82657658401877</ele>
        <time>2026-10-04T01:25:46Z</time>
      </trkpt>
      <trkpt lat="34.839937920725696" lon="113.64921544559091">
        <ele>90.98842622153461</ele>
        <time>2026-10-04T01:27:17Z</time>
      </trkpt>
      <trkpt lat="34.83990562810808" lon="113.64917185556048">
        <ele>90.87243872322142</ele>
        <time>2026-10-04T01:27:21Z</time>
      </trkpt>
      <trkpt lat="34.839875992498634" lon="113.64907301502448">
        <ele>90.19802763033658</ele>
        <time>2026-10-04T01:27:28Z</time>
      </trkpt>
      <trkpt lat="34.839832471579285" lon="113.64882310354204">
        <ele>89.80426981579512</ele>
        <time>2026-10-04T01:27:46Z</time>
      </trkpt>
      <trkpt lat="34.83977895122608" lon="113.64877153935335">
        <ele>90.55070836097002</ele>
        <time>2026-10-04T01:27:52Z</time>
      </trkpt>
      <trkpt lat="34.83959469292987" lon="113.6487796937049">
        <ele>91.96553816273808</ele>
        <time>2026-10-04T01:28:07Z</time>
      </trkpt>
      <trkpt lat="34.839337331756255" lon="113.64887924206134">
        <ele>90.68922755215317</ele>
        <time>2026-10-04T01:28:31Z</time>
      </trkpt>
      <trkpt lat="34.8392700761967" lon="113.64892427651222">
        <ele>90.24663745053113</ele>
        <time>2026-10-04T01:28:37Z</time>
      </trkpt>
      <trkpt lat="34.83913786361747" lon="113.64895202496365">
        <ele>89.015202219598</ele>
        <time>2026-10-04T01:28:49Z</time>
      </trkpt>
      <trkpt lat="34.83909016147287" lon="113.64893969547349">
        <ele>89.03323244396597</ele>
        <time>2026-10-04T01:28:55Z</time>
      </trkpt>
      <trkpt lat="34.83901709046817" lon="113.64880999277854">
        <ele>89.86958746053278</ele>
        <time>2026-10-04T01:29:07Z</time>
      </trkpt>
      <trkpt lat="34.83895169600691" lon="113.64849031914203">
        <ele>89.25095342006534</ele>
        <time>2026-10-04T01:29:33Z</time>
      </trkpt>
      <trkpt lat="34.838879602782384" lon="113.64847739550602">
        <ele>88.28206367138773</ele>
        <time>2026-10-04T01:29:39Z</time>
      </trkpt>
      <trkpt lat="34.83873161198923" lon="113.64850411381013">
        <ele>87.93099367246032</ele>
        <time>2026-10-04T01:29:51Z</time>
      </trkpt>
      <trkpt lat="34.83869382930609" lon="113.64854013706801">
        <ele>87.86239408515394</ele>
        <time>2026-10-04T01:29:57Z</time>
      </trkpt>
      <trkpt lat="34.8386306197971" lon="113.64854801379703">
        <ele>88.19381609000266</ele>
        <time>2026-10-04T01:30:06Z</time>
      </trkpt>
      <trkpt lat="34.83851910459263" lon="113.64852482709423">
        <ele>88.18439376819879</ele>
        <time>2026-10-04T01:30:18Z</time>
      </trkpt>
      <trkpt lat="34.83847556313188" lon="113.64849596125413">
        <ele>87.99975795764476</ele>
        <time>2026-10-04T01:30:24Z</time>
      </trkpt>
      <trkpt lat="34.83846426573052" lon="113.64837220100517">
        <ele>90.53546920325607</ele>
        <time>2026-10-04T01:30:39Z</time>
      </trkpt>
      <trkpt lat="34.83842504408583" lon="113.64827034894323">
        <ele>90.78684809990227</ele>
        <time>2026-10-04T01:30:45Z</time>
      </trkpt>
      <trkpt lat="34.83851870917073" lon="113.64799830733163">
        <ele>91.7783947782591</ele>
        <time>2026-10-04T01:31:06Z</time>
      </trkpt>
      <trkpt lat="34.838526289841106" lon="113.64792891577353">
        <ele>90.38438953552395</ele>
        <time>2026-10-04T01:31:12Z</time>
      </trkpt>
      <trkpt lat="34.83857544754938" lon="113.64794025592991">
        <ele>90.60270847007632</ele>
        <time>2026-10-04T01:31:18Z</time>
      </trkpt>
      <trkpt lat="34.83861777630333" lon="113.64798762283577">
        <ele>88.77882863767445</ele>
        <time>2026-10-04T01:31:27Z</time>
      </trkpt>
      <trkpt lat="34.838549548163684" lon="113.64801624529511">
        <ele>98.42799703717232</ele>
        <time>2026-10-04T01:31:38Z</time>
      </trkpt>
      <trkpt lat="34.83865552485098" lon="113.64782887957402">
        <ele>151.73387690912932</ele>
        <time>2026-10-04T01:32:45Z</time>
      </trkpt>
      <trkpt lat="34.83865552485098" lon="113.64782887957402">
        <ele>151.73387690912932</ele>
        <time>2026-10-04T01:32:54Z</time>
      </trkpt>
    </trkseg>
  </trk>
</gpx>