<?xml version="1.0" encoding="UTF-8"?>
<gpx xmlns="http://www.topografix.com/GPX/1/1" xmlns:gpxtpx="http://www.garmin.com/xmlschemas/TrackPointExtension/v1" xmlns:xsi="http://www.w3.org/2001/XMLSchema-instance" xsi:schemaLocation="http://www.topografix.com/GPX/1/1 http://www.topografix.com/GPX/1/1/gpx.xsd" version="1.1" creator="gpx.py -- https://github.com/tkrajina/gpxpy">
  <trk>
    <name>gpx from keep</name>
    <type>Run</type>
    <trkseg>
      <trkpt lat="34.829776145514856" lon="113.65669899739042">
        <ele>90.91073121223599</ele>
        <time>2026-08-25T01:12:49Z</time>
      </trkpt>
      <trkpt lat="34.829780784423676" lon="113.65647551576704">
        <ele>88.57238552253693</ele>
        <time>2026-08-25T01:12:58Z</time>
      </trkpt>
      <trkpt lat="34.82983003188978" lon="113.6562373834666">
        <ele>89.37813493516296</ele>
        <time>2026-08-25T01:13:07Z</time>
      </trkpt>
      <trkpt lat="34.829835513747945" lon="113.65588075679266">
        <ele>89.81518726050854</ele>
        <time>2026-08-25T01:13:22Z</time>
      </trkpt>
      <trkpt lat="34.829845826363005" lon="113.65574623984965">
        <ele>87.33937073778361</ele>
        <time>2026-08-25T01:13:31Z</time>
      </trkpt>
      <trkpt lat="34.82981849270348" lon="113.65561981983471">
        <ele>88.16549903713167</ele>
        <time>2026-08-25T01:13:37Z</time>
      </trkpt>
      <trkpt lat="34.8298565416908" lon="113.65519326322784">
        <ele>87.48716051876545</ele>
        <time>2026-08-25T01:13:58Z</time>
      </trkpt>
      <trkpt lat="34.82988964724226" lon="113.65483079353497">
        <ele>88.26012276671827</ele>
        <time>2026-08-25T01:14:13Z</time>
      </trkpt>
      <trkpt lat="34.82993545999955" lon="113.65442936078186">
        <ele>90.00704440195113</ele>
        <time>2026-08-25T01:14:29Z</time>
      </trkpt>
      <trkpt lat="34.829939122347376" lon="113.6543579751456">
        <ele>89.5238256379962</ele>
        <time>2026-08-25T01:14:32Z</time>
      </trkpt>
      <trkpt lat="34.82991420957432" lon="113.65429222343478">
        <ele>89.58166036382318</ele>
        <time>2026-08-25T01:14:35Z</time>
      </trkpt>
      <trkpt lat="34.82986120215367" lon="113.65426933159418">
        <ele>89.7989956010133</ele>
        <time>2026-08-25T01:14:38Z</time>
      </trkpt>
      <trkpt lat="34.8298193156178" lon="113.6543096971027">
        <ele>90.20638082176447</ele>
        <time>2026-08-25T01:14:44Z</time>
      </trkpt>
      <trkpt lat="34.82954435549723" lon="113.65439289259392">
        <ele>89.89362851064652</ele>
        <time>2026-08-25T01:15:02Z</time>
      </trkpt>
      <trkpt lat="34.8293056357918" lon="113.65449282783656">
        <ele>89.4399897577241</ele>
        <time>2026-08-25T01:15:14Z</time>
      </trkpt>
      <trkpt lat="34.82915384771484" lon="113.65458398256091">
        <ele>89.84808609914035</ele>
        <time>2026-08-25T01:15:23Z</time>
      </trkpt>
      <trkpt lat="34.828861499734025" lon="113.65469250348448">
        <ele>89.47722049057484</ele>
        <time>2026-08-25T01:15:44Z</time>
      </trkpt>
      <trkpt lat="34.828597222285104" lon="113.65479682995388">
        <ele>89.43641812819988</ele>
        <time>2026-08-25T01:15:59Z</time>
      </trkpt>
      <trkpt lat="34.82849467014928" lon="113.65482106995593">
        <ele>89.58547701314092</ele>
        <time>2026-08-25T01:16:05Z</time>
      </trkpt>
      <trkpt lat="34.82844162097867" lon="113.6548611093018">
        <ele>90.94691082835197</ele>
        <time>2026-08-25T01:16:08Z</time>
      </trkpt>
      <trkpt lat="34.8283307756765" lon="113.65491009186313">
        <ele>90.60629562102258</ele>
        <time>2026-08-25T01:16:14Z</time>
      </trkpt>
      <trkpt lat="34.8282824153909" lon="113.65490651271998">
        <ele>90.22809668816626</ele>
        <time>2026-08-25T01:16:17Z</time>
      </trkpt>
      <trkpt lat="34.82805878310887" lon="113.65499349195963">
        <ele>89.92796727083623</ele>
        <time>2026-08-25T01:16:29Z</time>
      </trkpt>
      <trkpt lat="34.82793789178003" lon="113.65508403272145">
        <ele>90.40925672836602</ele>
        <time>2026-08-25T01:16:36Z</time>
      </trkpt>
      <trkpt lat="34.82765262807558" lon="113.6552106924766">
        <ele>89.56544369738549</ele>
        <time>2026-08-25T01:16:51Z</time>
      </trkpt>
      <trkpt lat="34.827588869695056" lon="113.65522990460978">
        <ele>89.02183081302792</ele>
        <time>2026-08-25T01:16:54Z</time>
      </trkpt>
      <trkpt lat="34.827547469627014" lon="113.6552802006321">
        <ele>88.73906853143126</ele>
        <time>2026-08-25T01:16:57Z</time>
      </trkpt>
      <trkpt lat="34.82726389298633" lon="113.65539407118237">
        <ele>88.62192099541426</ele>
        <time>2026-08-25T01:17:09Z</time>
      </trkpt>
      <trkpt lat="34.82697281508184" lon="113.65550985511213">
        <ele>88.87816548813134</ele>
        <time>2026-08-25T01:17:21Z</time>
      </trkpt>
      <trkpt lat="34.826709623348336" lon="113.65561822988221">
        <ele>90.48070908896625</ele>
        <time>2026-08-25T01:17:33Z</time>
      </trkpt>
      <trkpt lat="34.82643488630027" lon="113.65573885808479">
        <ele>90.25603788997978</ele>
        <time>2026-08-25T01:17:45Z</time>
      </trkpt>
      <trkpt lat="34.82622957328367" lon="113.65584343430788">
        <ele>90.49877253267914</ele>
        <time>2026-08-25T01:17:54Z</time>
      </trkpt>
      <trkpt lat="34.82615315594135" lon="113.6558496203433">
        <ele>89.7769155073911</ele>
        <time>2026-08-25T01:17:57Z</time>
      </trkpt>
      <trkpt lat="34.82585386983143" lon="113.65597795046384">
        <ele>88.11214463785291</ele>
        <time>2026-08-25T01:18:12Z</time>
      </trkpt>
      <trkpt lat="34.82562419634106" lon="113.6560810652063">
        <ele>87.4551554210484</ele>
        <time>2026-08-25T01:18:24Z</time>
      </trkpt>
      <trkpt lat="34.82534050326559" lon="113.65619255911133">
        <ele>90.52835093904287</ele>
        <time>2026-08-25T01:18:36Z</time>
      </trkpt>
      <trkpt lat="34.825076518284185" lon="113.6563069620583">
        <ele>91.15421989373863</ele>
        <time>2026-08-25T01:18:49Z</time>
      </trkpt>
      <trkpt lat="34.82489314215659" lon="113.65639315018656">
        <ele>91.75839279964566</ele>
        <time>2026-08-25T01:18:58Z</time>
      </trkpt>
      <trkpt lat="34.82469787795982" lon="113.65644253206453">
        <ele>91.26137971971184</ele>
        <time>2026-08-25T01:19:07Z</time>
      </trkpt>
      <trkpt lat="34.824485184630404" lon="113.65656640604634">
        <ele>91.39012608584017</ele>
        <time>2026-08-25T01:19:19Z</time>
      </trkpt>
      <trkpt lat="34.824333756138714" lon="113.65661053621719">
        <ele>91.85058315936476</ele>
        <time>2026-08-25T01:19:25Z</time>
      </trkpt>
      <trkpt lat="34.82405104117285" lon="113.65673725075521">
        <ele>92.29324216302484</ele>
        <time>2026-08-25T01:19:40Z</time>
      </trkpt>
      <trkpt lat="34.82398650004777" lon="113.65675258457605">
        <ele>93.7068433277309</ele>
        <time>2026-08-25T01:19:43Z</time>
      </trkpt>
      <trkpt lat="34.8238235008494" lon="113.65685567264948">
        <ele>92.18897271435708</ele>
        <time>2026-08-25T01:19:52Z</time>
      </trkpt>
      <trkpt lat="34.82354686683247" lon="113.65694762554328">
        <ele>92.28023352846503</ele>
        <time>2026-08-25T01:20:07Z</time>
      </trkpt>
      <trkpt lat="34.82318740234915" lon="113.6570863137616">
        <ele>89.48196961544454</ele>
        <time>2026-08-25T01:20:25Z</time>
      </trkpt>
      <trkpt lat="34.82305756639789" lon="113.6571182521314">
        <ele>90.47865622211248</ele>
        <time>2026-08-25T01:20:31Z</time>
      </trkpt>
      <trkpt lat="34.82297960564848" lon="113.65717138348344">
        <ele>90.22172180842608</ele>
        <time>2026-08-25T01:20:37Z</time>
      </trkpt>
      <trkpt lat="34.8227301533765" lon="113.657268076782">
        <ele>89.03013132326305</ele>
        <time>2026-08-25T01:20:51Z</time>
      </trkpt>
      <trkpt lat="34.822416880793234" lon="113.6574127873237">
        <ele>86.78516390640289</ele>
        <time>2026-08-25T01:21:08Z</time>
      </trkpt>
      <trkpt lat="34.82228568083199" lon="113.65747211322451">
        <ele>86.76066211983562</ele>
        <time>2026-08-25T01:21:14Z</time>
      </trkpt>
      <trkpt lat="34.82200009819562" lon="113.65755396324737">
        <ele>89.18055824097246</ele>
        <time>2026-08-25T01:21:29Z</time>
      </trkpt>
      <trkpt lat="34.82172191968199" lon="113.65768671308915">
        <ele>90.17162886168808</ele>
        <time>2026-08-25T01:21:44Z</time>
      </trkpt>
      <trkpt lat="34.82144377955779" lon="113.65779617435086">
        <ele>91.29289537388831</ele>
        <time>2026-08-25T01:21:59Z</time>
      </trkpt>
      <trkpt lat="34.82117479322116" lon="113.65789735662837">
        <ele>88.5437264572829</ele>
        <time>2026-08-25T01:22:11Z</time>
      </trkpt>
      <trkpt lat="34.8209489094526" lon="113.65798516186128">
        <ele>89.07383290678263</ele>
        <time>2026-08-25T01:22:23Z</time>
      </trkpt>
      <trkpt lat="34.820890376131786" lon="113.6580314289487">
        <ele>88.81640956550837</ele>
        <time>2026-08-25T01:22:26Z</time>
      </trkpt>
      <trkpt lat="34.82062910448488" lon="113.6581445023302">
        <ele>88.92009527701885</ele>
        <time>2026-08-25T01:22:41Z</time>
      </trkpt>
      <trkpt lat="34.820616827931445" lon="113.65821234850817">
        <ele>88.97872209176421</ele>
        <time>2026-08-25T01:22:47Z</time>
      </trkpt>
      <trkpt lat="34.8204733809182" lon="113.65837691940754">
        <ele>88.25066640321165</ele>
        <time>2026-08-25T01:23:00Z</time>
      </trkpt>
      <trkpt lat="34.82030756716625" lon="113.6583692578399">
        <ele>87.130824085325</ele>
        <time>2026-08-25T01:23:06Z</time>
      </trkpt>
      <trkpt lat="34.820016989926444" lon="113.65848709020433">
        <ele>85.70322976447642</ele>
        <time>2026-08-25T01:23:24Z</time>
      </trkpt>
      <trkpt lat="34.819707737622565" lon="113.65860905427475">
        <ele>85.440674521029</ele>
        <time>2026-08-25T01:23:39Z</time>
      </trkpt>
      <trkpt lat="34.81941551471106" lon="113.65873019783753">
        <ele>85.6286932611838</ele>
        <time>2026-08-25T01:23:54Z</time>
      </trkpt>
      <trkpt lat="34.81911445444487" lon="113.65885112925089">
        <ele>86.00742055755109</ele>
        <time>2026-08-25T01:24:09Z</time>
      </trkpt>
      <trkpt lat="34.818811571007586" lon="113.65897366001897">
        <ele>85.93337935302407</ele>
        <time>2026-08-25T01:24:24Z</time>
      </trkpt>
      <trkpt lat="34.81851676653622" lon="113.65910221313229">
        <ele>86.08076923992485</ele>
        <time>2026-08-25T01:24:39Z</time>
      </trkpt>
      <trkpt lat="34.81822033779192" lon="113.65922932356365">
        <ele>86.29892273340374</ele>
        <time>2026-08-25T01:24:54Z</time>
      </trkpt>
      <trkpt lat="34.81792321504875" lon="113.65935509982152">
        <ele>84.98955146316439</ele>
        <time>2026-08-25T01:25:09Z</time>
      </trkpt>
      <trkpt lat="34.817605370635775" lon="113.65949527239825">
        <ele>84.66420522518456</ele>
        <time>2026-08-25T01:25:25Z</time>
      </trkpt>
      <trkpt lat="34.817309243818556" lon="113.6596016358378">
        <ele>85.2289785752073</ele>
        <time>2026-08-25T01:25:40Z</time>
      </trkpt>
      <trkpt lat="34.817020307403794" lon="113.65972534343005">
        <ele>84.95850074291229</ele>
        <time>2026-08-25T01:25:55Z</time>
      </trkpt>
      <trkpt lat="34.81673071751257" lon="113.65984308631076">
        <ele>85.38024716824293</ele>
        <time>2026-08-25T01:26:10Z</time>
      </trkpt>
      <trkpt lat="34.81644040803512" lon="113.65996805775642">
        <ele>85.18970761448145</ele>
        <time>2026-08-25T01:26:25Z</time>
      </trkpt>
      <trkpt lat="34.816249991070876" lon="113.6600264794505">
        <ele>85.65745042171329</ele>
        <time>2026-08-25T01:26:37Z</time>
      </trkpt>
      <trkpt lat="34.81621696733797" lon="113.65983766170768">
        <ele>87.78084041643888</ele>
        <time>2026-08-25T01:26:49Z</time>
      </trkpt>
      <trkpt lat="34.816160381074916" lon="113.65976613819777">
        <ele>89.50725830253214</ele>
        <time>2026-08-25T01:26:55Z</time>
      </trkpt>
      <trkpt lat="34.81614355944446" lon="113.65994812297978">
        <ele>89.89037079550326</ele>
        <time>2026-08-25T01:27:05Z</time>
      </trkpt>
      <trkpt lat="34.816224689816394" lon="113.6602626189231">
        <ele>87.08924769796431</ele>
        <time>2026-08-25T01:27:17Z</time>
      </trkpt>
      <trkpt lat="34.816286653634876" lon="113.66060506203536">
        <ele>86.6752280825749</ele>
        <time>2026-08-25T01:27:29Z</time>
      </trkpt>
      <trkpt lat="34.816303651044144" lon="113.66068202083436">
        <ele>86.76655154395849</ele>
        <time>2026-08-25T01:27:32Z</time>
      </trkpt>
      <trkpt lat="34.81634007656819" lon="113.66073129773257">
        <ele>86.78178933914751</ele>
        <time>2026-08-25T01:27:35Z</time>
      </trkpt>
      <trkpt lat="34.81639747617589" lon="113.66072820610299">
        <ele>87.02299436740577</ele>
        <time>2026-08-25T01:27:38Z</time>
      </trkpt>
      <trkpt lat="34.81649670380438" lon="113.66065094092721">
        <ele>87.95985049661249</ele>
        <time>2026-08-25T01:27:44Z</time>
      </trkpt>
      <trkpt lat="34.81654877106568" lon="113.66062954845944">
        <ele>87.75614562816918</ele>
        <time>2026-08-25T01:27:47Z</time>
      </trkpt>
      <trkpt lat="34.8166247413474" lon="113.66047158784498">
        <ele>85.50307301804423</ele>
        <time>2026-08-25T01:27:56Z</time>
      </trkpt>
      <trkpt lat="34.81678580799807" lon="113.66041828638515">
        <ele>86.17808230035007</ele>
        <time>2026-08-25T01:28:05Z</time>
      </trkpt>
      <trkpt lat="34.81700207475622" lon="113.66037050510867">
        <ele>86.69708888046443</ele>
        <time>2026-08-25T01:28:17Z</time>
      </trkpt>
      <trkpt lat="34.817185184425995" lon="113.66018107477001">
        <ele>87.55368459969759</ele>
        <time>2026-08-25T01:28:29Z</time>
      </trkpt>
      <trkpt lat="34.81723829145315" lon="113.66015474158928">
        <ele>87.08051898144186</ele>
        <time>2026-08-25T01:28:32Z</time>
      </trkpt>
      <trkpt lat="34.81752944411469" lon="113.66014710178959">
        <ele>84.96521302312613</ele>
        <time>2026-08-25T01:28:47Z</time>
      </trkpt>
      <trkpt lat="34.817692070816925" lon="113.66012463559913">
        <ele>85.99540419969708</ele>
        <time>2026-08-25T01:28:56Z</time>
      </trkpt>
      <trkpt lat="34.81783534653737" lon="113.66003153226858">
        <ele>86.2192099513486</ele>
        <time>2026-08-25T01:29:08Z</time>
      </trkpt>
      <trkpt lat="34.81797010805276" lon="113.6598798920147">
        <ele>85.4542689556256</ele>
        <time>2026-08-25T01:29:20Z</time>
      </trkpt>
      <trkpt lat="34.81803377167236" lon="113.65984549338319">
        <ele>85.6688081715256</ele>
        <time>2026-08-25T01:29:24Z</time>
      </trkpt>
      <trkpt lat="34.818139980974685" lon="113.6597557013986">
        <ele>86.46773617900908</ele>
        <time>2026-08-25T01:29:30Z</time>
      </trkpt>
      <trkpt lat="34.8184367982241" lon="113.65966338008755">
        <ele>86.64981194958091</ele>
        <time>2026-08-25T01:29:45Z</time>
      </trkpt>
      <trkpt lat="34.818592236487355" lon="113.6596456441531">
        <ele>86.53785267937928</ele>
        <time>2026-08-25T01:29:54Z</time>
      </trkpt>
      <trkpt lat="34.818761991664616" lon="113.65964911555741">
        <ele>86.96627869363874</ele>
        <time>2026-08-25T01:30:03Z</time>
      </trkpt>
      <trkpt lat="34.81889290350464" lon="113.65960171952233">
        <ele>87.3755428083241</ele>
        <time>2026-08-25T01:30:09Z</time>
      </trkpt>
      <trkpt lat="34.81911996805678" lon="113.6594328972689">
        <ele>87.22551281191409</ele>
        <time>2026-08-25T01:30:21Z</time>
      </trkpt>
      <trkpt lat="34.81932373202175" lon="113.65937228701819">
        <ele>87.41173805482686</ele>
        <time>2026-08-25T01:30:33Z</time>
      </trkpt>
      <trkpt lat="34.81955977711024" lon="113.65936620916948">
        <ele>89.19837140850723</ele>
        <time>2026-08-25T01:30:45Z</time>
      </trkpt>
      <trkpt lat="34.8196194325379" lon="113.65933589219648">
        <ele>88.72075741458684</ele>
        <time>2026-08-25T01:30:48Z</time>
      </trkpt>
      <trkpt lat="34.81970684829679" lon="113.65922107274494">
        <ele>89.07375536113977</ele>
        <time>2026-08-25T01:30:54Z</time>
      </trkpt>
      <trkpt lat="34.81986504136922" lon="113.6591432119559">
        <ele>87.80423748772591</ele>
        <time>2026-08-25T01:31:03Z</time>
      </trkpt>
      <trkpt lat="34.81997971624724" lon="113.65913209933797">
        <ele>87.85755492560565</ele>
        <time>2026-08-25T01:31:09Z</time>
      </trkpt>
      <trkpt lat="34.82006721742882" lon="113.65905944095672">
        <ele>87.78460177686065</ele>
        <time>2026-08-25T01:31:15Z</time>
      </trkpt>
      <trkpt lat="34.82006721742882" lon="113.65905944095672">
        <ele>87.78460177686065</ele>
        <time>2026-08-25T01:31:16Z</time>
      </trkpt>
    </trkseg>
  </trk>
</gpx>