<?xml version="1.0" encoding="UTF-8"?>
<gpx xmlns="http://www.topografix.com/GPX/1/1" xmlns:gpxtpx="http://www.garmin.com/xmlschemas/TrackPointExtension/v1" xmlns:xsi="http://www.w3.org/2001/XMLSchema-instance" xsi:schemaLocation="http://www.topografix.com/GPX/1/1 http://www.topografix.com/GPX/1/1/gpx.xsd" version="1.1" creator="gpx.py -- https://github.com/tkrajina/gpxpy">
  <trk>
    <name>gpx from keep</name>
    <type>Walk</type>
    <trkseg>
      <trkpt lat="34.83894938173859" lon="113.64882448638053">
        <ele>98.234619140625</ele>
        <time>2026-10-03T11:52:15Z</time>
      </trkpt>
      <trkpt lat="34.83891873215261" lon="113.64887644034934">
        <ele>87.64804568327963</ele>
        <time>2026-10-03T11:52:22Z</time>
      </trkpt>
      <trkpt lat="34.83891020051213" lon="113.64901616853375">
        <ele>82.97773568145931</ele>
        <time>2026-10-03T11:52:36Z</time>
      </trkpt>
      <trkpt lat="34.83892998623594" lon="113.6491011010897">
        <ele>90.61386784445494</ele>
        <time>2026-10-03T11:52:42Z</time>
      </trkpt>
      <trkpt lat="34.83897052844488" lon="113.64914172836282">
        <ele>87.48838693462312</ele>
        <time>2026-10-03T11:52:54Z</time>
      </trkpt>
      <trkpt lat="34.839038058767976" lon="113.64911037327742">
        <ele>87.91171597596258</ele>
        <time>2026-10-03T11:53:00Z</time>
      </trkpt>
      <trkpt lat="34.839078166818496" lon="113.64915058646018">
        <ele>86.53261649981141</ele>
        <time>2026-10-03T11:53:25Z</time>
      </trkpt>
      <trkpt lat="34.8391404874905" lon="113.64935951728285">
        <ele>86.03341785818338</ele>
        <time>2026-10-03T11:53:41Z</time>
      </trkpt>
      <trkpt lat="34.83917281953742" lon="113.64959265547523">
        <ele>85.19924156181514</ele>
        <time>2026-10-03T11:53:56Z</time>
      </trkpt>
      <trkpt lat="34.83904217169544" lon="113.64977428031987">
        <ele>85.97933578211814</ele>
        <time>2026-10-03T11:54:11Z</time>
      </trkpt>
      <trkpt lat="34.83885017484237" lon="113.64991511470596">
        <ele>86.70110523048788</ele>
        <time>2026-10-03T11:54:27Z</time>
      </trkpt>
      <trkpt lat="34.8385493116625" lon="113.65004673808303">
        <ele>87.51376893185079</ele>
        <time>2026-10-03T11:54:51Z</time>
      </trkpt>
      <trkpt lat="34.83848567394788" lon="113.65008625718401">
        <ele>87.31040353793651</ele>
        <time>2026-10-03T11:54:57Z</time>
      </trkpt>
      <trkpt lat="34.83821162606023" lon="113.65017665585934">
        <ele>88.57318785227835</ele>
        <time>2026-10-03T11:55:21Z</time>
      </trkpt>
      <trkpt lat="34.83811469425542" lon="113.6502372697168">
        <ele>88.47219038847834</ele>
        <time>2026-10-03T11:55:30Z</time>
      </trkpt>
      <trkpt lat="34.83796658867492" lon="113.65039148059223">
        <ele>87.47788060456514</ele>
        <time>2026-10-03T11:55:48Z</time>
      </trkpt>
      <trkpt lat="34.837706716070414" lon="113.65052779771278">
        <ele>87.20412425231189</ele>
        <time>2026-10-03T11:56:12Z</time>
      </trkpt>
      <trkpt lat="34.83756299421787" lon="113.65057215339395">
        <ele>89.01129537913948</ele>
        <time>2026-10-03T11:56:24Z</time>
      </trkpt>
      <trkpt lat="34.837314069743414" lon="113.65053279552994">
        <ele>88.67829019576311</ele>
        <time>2026-10-03T11:56:43Z</time>
      </trkpt>
      <trkpt lat="34.83704673752486" lon="113.65058114872727">
        <ele>88.56389275193214</ele>
        <time>2026-10-03T11:57:07Z</time>
      </trkpt>
      <trkpt lat="34.8368092835253" lon="113.65069491993513">
        <ele>87.67043868731707</ele>
        <time>2026-10-03T11:57:28Z</time>
      </trkpt>
      <trkpt lat="34.836684415279976" lon="113.65077874008766">
        <ele>86.14262158796191</ele>
        <time>2026-10-03T11:57:40Z</time>
      </trkpt>
      <trkpt lat="34.836626879829886" lon="113.65079485359638">
        <ele>84.81067357771099</ele>
        <time>2026-10-03T11:57:46Z</time>
      </trkpt>
      <trkpt lat="34.83636535989187" lon="113.65092057141979">
        <ele>84.84678535349667</ele>
        <time>2026-10-03T11:58:10Z</time>
      </trkpt>
      <trkpt lat="34.83609866215293" lon="113.65101205171156">
        <ele>86.06099927611649</ele>
        <time>2026-10-03T11:58:31Z</time>
      </trkpt>
      <trkpt lat="34.83581974842506" lon="113.65110967508059">
        <ele>88.60756300669163</ele>
        <time>2026-10-03T11:58:54Z</time>
      </trkpt>
      <trkpt lat="34.835752906857145" lon="113.65112151161551">
        <ele>88.12402387708426</ele>
        <time>2026-10-03T11:59:00Z</time>
      </trkpt>
      <trkpt lat="34.835693171373045" lon="113.65117069523183">
        <ele>88.10316283255816</ele>
        <time>2026-10-03T11:59:06Z</time>
      </trkpt>
      <trkpt lat="34.835449125623896" lon="113.65126332907485">
        <ele>88.7896414808929</ele>
        <time>2026-10-03T11:59:30Z</time>
      </trkpt>
      <trkpt lat="34.835407333925446" lon="113.6512952107803">
        <ele>88.81724450457841</ele>
        <time>2026-10-03T11:59:33Z</time>
      </trkpt>
      <trkpt lat="34.83535131215782" lon="113.65126601545617">
        <ele>88.1534292716533</ele>
        <time>2026-10-03T11:59:39Z</time>
      </trkpt>
      <trkpt lat="34.83530768754535" lon="113.6511888375933">
        <ele>88.05236698221415</ele>
        <time>2026-10-03T11:59:45Z</time>
      </trkpt>
      <trkpt lat="34.83502982890223" lon="113.6512620323514">
        <ele>87.04352765344083</ele>
        <time>2026-10-03T12:00:09Z</time>
      </trkpt>
      <trkpt lat="34.834806060026914" lon="113.65133455976562">
        <ele>87.18160229921341</ele>
        <time>2026-10-03T12:00:27Z</time>
      </trkpt>
      <trkpt lat="34.83472352445788" lon="113.65145765270881">
        <ele>86.38355430122465</ele>
        <time>2026-10-03T12:00:36Z</time>
      </trkpt>
      <trkpt lat="34.834718315789615" lon="113.65156193962794">
        <ele>86.14712376892567</ele>
        <time>2026-10-03T12:00:44Z</time>
      </trkpt>
      <trkpt lat="34.83457573935526" lon="113.65165564144247">
        <ele>86.13608040101826</ele>
        <time>2026-10-03T12:00:57Z</time>
      </trkpt>
      <trkpt lat="34.83429827016456" lon="113.6517316873133">
        <ele>90.81374798156321</ele>
        <time>2026-10-03T12:01:21Z</time>
      </trkpt>
      <trkpt lat="34.83401628865447" lon="113.65185433189878">
        <ele>90.35338356159627</ele>
        <time>2026-10-03T12:01:48Z</time>
      </trkpt>
      <trkpt lat="34.83387791617762" lon="113.6518968122946">
        <ele>89.18503586109728</ele>
        <time>2026-10-03T12:02:00Z</time>
      </trkpt>
      <trkpt lat="34.83356826255831" lon="113.65203658925674">
        <ele>89.13705986738205</ele>
        <time>2026-10-03T12:02:27Z</time>
      </trkpt>
      <trkpt lat="34.83355371932424" lon="113.65208997723234">
        <ele>89.26549593079835</ele>
        <time>2026-10-03T12:02:30Z</time>
      </trkpt>
      <trkpt lat="34.833607444091406" lon="113.65240656754209">
        <ele>87.63448708318174</ele>
        <time>2026-10-03T12:02:50Z</time>
      </trkpt>
      <trkpt lat="34.833586503802856" lon="113.65249999115301">
        <ele>86.9303885800764</ele>
        <time>2026-10-03T12:02:57Z</time>
      </trkpt>
      <trkpt lat="34.833541880243715" lon="113.65258703643379">
        <ele>87.73824370186776</ele>
        <time>2026-10-03T12:03:03Z</time>
      </trkpt>
      <trkpt lat="34.833474989535574" lon="113.65256622645045">
        <ele>88.02926488686353</ele>
        <time>2026-10-03T12:03:09Z</time>
      </trkpt>
      <trkpt lat="34.833423162790595" lon="113.65264532595567">
        <ele>87.01126042380929</ele>
        <time>2026-10-03T12:03:15Z</time>
      </trkpt>
      <trkpt lat="34.83340385837419" lon="113.65272269860829">
        <ele>87.0233589541167</ele>
        <time>2026-10-03T12:03:21Z</time>
      </trkpt>
      <trkpt lat="34.833364164605236" lon="113.65275416461475">
        <ele>86.81490046996623</ele>
        <time>2026-10-03T12:03:24Z</time>
      </trkpt>
      <trkpt lat="34.83329421489895" lon="113.65277201535925">
        <ele>86.48942830599844</ele>
        <time>2026-10-03T12:03:30Z</time>
      </trkpt>
      <trkpt lat="34.833186410059994" lon="113.65284327075915">
        <ele>85.91468248423189</ele>
        <time>2026-10-03T12:03:39Z</time>
      </trkpt>
      <trkpt lat="34.833105473676454" lon="113.65294967140639">
        <ele>86.2091451222077</ele>
        <time>2026-10-03T12:03:51Z</time>
      </trkpt>
      <trkpt lat="34.83305866613317" lon="113.65308933191325">
        <ele>87.46074927877635</ele>
        <time>2026-10-03T12:04:03Z</time>
      </trkpt>
      <trkpt lat="34.83283403792523" lon="113.65335879666155">
        <ele>88.12666380684823</ele>
        <time>2026-10-03T12:04:27Z</time>
      </trkpt>
      <trkpt lat="34.832751114914714" lon="113.65349318293596">
        <ele>89.95204286836088</ele>
        <time>2026-10-03T12:04:39Z</time>
      </trkpt>
      <trkpt lat="34.832753488645004" lon="113.65359189396135">
        <ele>90.15863266959786</ele>
        <time>2026-10-03T12:04:45Z</time>
      </trkpt>
      <trkpt lat="34.832792222237835" lon="113.65368088773404">
        <ele>90.01833857316524</ele>
        <time>2026-10-03T12:04:52Z</time>
      </trkpt>
      <trkpt lat="34.83281552630272" lon="113.65392212951853">
        <ele>89.49820279423147</ele>
        <time>2026-10-03T12:05:08Z</time>
      </trkpt>
      <trkpt lat="34.83279052085533" lon="113.65405631020067">
        <ele>88.71979401540011</ele>
        <time>2026-10-03T12:05:14Z</time>
      </trkpt>
      <trkpt lat="34.83281808103816" lon="113.65439489805355">
        <ele>86.77177076227963</ele>
        <time>2026-10-03T12:05:41Z</time>
      </trkpt>
      <trkpt lat="34.83280546910665" lon="113.65445939562278">
        <ele>87.04280793014914</ele>
        <time>2026-10-03T12:05:47Z</time>
      </trkpt>
      <trkpt lat="34.83286814305933" lon="113.65448424629476">
        <ele>85.73510696645826</ele>
        <time>2026-10-03T12:05:53Z</time>
      </trkpt>
      <trkpt lat="34.83288431719454" lon="113.65457606272398">
        <ele>86.08580702450126</ele>
        <time>2026-10-03T12:06:08Z</time>
      </trkpt>
      <trkpt lat="34.832964747507944" lon="113.65470974491178">
        <ele>86.30262523982674</ele>
        <time>2026-10-03T12:06:20Z</time>
      </trkpt>
      <trkpt lat="34.83277246991325" lon="113.65484692480123">
        <ele>84.79339430481195</ele>
        <time>2026-10-03T12:06:38Z</time>
      </trkpt>
      <trkpt lat="34.83278898712721" lon="113.65494534291103">
        <ele>85.24267957545817</ele>
        <time>2026-10-03T12:06:44Z</time>
      </trkpt>
      <trkpt lat="34.83282440587184" lon="113.65501330932962">
        <ele>85.18697290774435</ele>
        <time>2026-10-03T12:06:50Z</time>
      </trkpt>
      <trkpt lat="34.83276840305915" lon="113.65519083416324">
        <ele>86.3116708677262</ele>
        <time>2026-10-03T12:07:04Z</time>
      </trkpt>
      <trkpt lat="34.83281360037154" lon="113.65529222018839">
        <ele>85.93034782074392</ele>
        <time>2026-10-03T12:07:14Z</time>
      </trkpt>
      <trkpt lat="34.832768447576505" lon="113.65533881793908">
        <ele>84.99957064818591</ele>
        <time>2026-10-03T12:07:20Z</time>
      </trkpt>
      <trkpt lat="34.8327286128361" lon="113.65542369707288">
        <ele>86.07293010316789</ele>
        <time>2026-10-03T12:07:26Z</time>
      </trkpt>
      <trkpt lat="34.832693461123995" lon="113.65580772240791">
        <ele>87.20746717043221</ele>
        <time>2026-10-03T12:07:53Z</time>
      </trkpt>
      <trkpt lat="34.83265969007762" lon="113.65587121603785">
        <ele>86.49133487604558</ele>
        <time>2026-10-03T12:07:59Z</time>
      </trkpt>
      <trkpt lat="34.83247991260105" lon="113.65611766578726">
        <ele>86.92543219774961</ele>
        <time>2026-10-03T12:08:23Z</time>
      </trkpt>
      <trkpt lat="34.832499282282335" lon="113.65628269078519">
        <ele>86.4846859248355</ele>
        <time>2026-10-03T12:08:35Z</time>
      </trkpt>
      <trkpt lat="34.83246435303106" lon="113.65643446867166">
        <ele>85.83618921134621</ele>
        <time>2026-10-03T12:08:47Z</time>
      </trkpt>
      <trkpt lat="34.83242627342185" lon="113.65649980628204">
        <ele>86.62552443705499</ele>
        <time>2026-10-03T12:08:53Z</time>
      </trkpt>
      <trkpt lat="34.83249383066719" lon="113.65666408869664">
        <ele>85.9097598977387</ele>
        <time>2026-10-03T12:09:06Z</time>
      </trkpt>
      <trkpt lat="34.83243167211755" lon="113.6569950079025">
        <ele>87.97242047917098</ele>
        <time>2026-10-03T12:09:32Z</time>
      </trkpt>
      <trkpt lat="34.832383480308245" lon="113.65704515825762">
        <ele>88.50146818067878</ele>
        <time>2026-10-03T12:09:38Z</time>
      </trkpt>
      <trkpt lat="34.83232136647027" lon="113.65706627136454">
        <ele>88.06683764141053</ele>
        <time>2026-10-03T12:09:44Z</time>
      </trkpt>
      <trkpt lat="34.832282025979346" lon="113.65740073485948">
        <ele>88.61288782954216</ele>
        <time>2026-10-03T12:10:08Z</time>
      </trkpt>
      <trkpt lat="34.83226102261855" lon="113.65755727281729">
        <ele>88.58903380297124</ele>
        <time>2026-10-03T12:10:20Z</time>
      </trkpt>
      <trkpt lat="34.832130834148124" lon="113.65793075891085">
        <ele>87.02863564901054</ele>
        <time>2026-10-03T12:10:50Z</time>
      </trkpt>
      <trkpt lat="34.83211421721554" lon="113.65801042038714">
        <ele>86.9850460588932</ele>
        <time>2026-10-03T12:10:56Z</time>
      </trkpt>
      <trkpt lat="34.83212946487596" lon="113.65837932058693">
        <ele>88.62420858256519</ele>
        <time>2026-10-03T12:11:24Z</time>
      </trkpt>
      <trkpt lat="34.83210878069948" lon="113.65853280550675">
        <ele>89.74066036753356</ele>
        <time>2026-10-03T12:11:39Z</time>
      </trkpt>
      <trkpt lat="34.83204512207215" lon="113.6585868928428">
        <ele>89.01818998437375</ele>
        <time>2026-10-03T12:11:45Z</time>
      </trkpt>
      <trkpt lat="34.831787679701996" lon="113.6585614980274">
        <ele>88.68606261722744</ele>
        <time>2026-10-03T12:12:09Z</time>
      </trkpt>
      <trkpt lat="34.8316601812585" lon="113.65849189565706">
        <ele>89.3199933450669</ele>
        <time>2026-10-03T12:12:21Z</time>
      </trkpt>
      <trkpt lat="34.8316007211573" lon="113.65848730252611">
        <ele>88.46649636887014</ele>
        <time>2026-10-03T12:12:27Z</time>
      </trkpt>
      <trkpt lat="34.83149786441588" lon="113.65838628725005">
        <ele>91.3533934885636</ele>
        <time>2026-10-03T12:12:39Z</time>
      </trkpt>
      <trkpt lat="34.83145378330184" lon="113.6583706714791">
        <ele>90.25752518791705</ele>
        <time>2026-10-03T12:12:42Z</time>
      </trkpt>
      <trkpt lat="34.831377637566355" lon="113.65826515641875">
        <ele>93.1766647323966</ele>
        <time>2026-10-03T12:12:57Z</time>
      </trkpt>
      <trkpt lat="34.83117046804885" lon="113.65818733335769">
        <ele>95.72055286727846</ele>
        <time>2026-10-03T12:13:19Z</time>
      </trkpt>
      <trkpt lat="34.83109770306939" lon="113.65813556085526">
        <ele>96.14104362297803</ele>
        <time>2026-10-03T12:13:25Z</time>
      </trkpt>
      <trkpt lat="34.83097171037172" lon="113.65810832803975">
        <ele>95.00649387110025</ele>
        <time>2026-10-03T12:13:34Z</time>
      </trkpt>
      <trkpt lat="34.830888307316364" lon="113.6581210387398">
        <ele>95.98604646977037</ele>
        <time>2026-10-03T12:13:40Z</time>
      </trkpt>
      <trkpt lat="34.83081157526978" lon="113.6581870587981">
        <ele>96.48683276958764</ele>
        <time>2026-10-03T12:13:52Z</time>
      </trkpt>
      <trkpt lat="34.830748098113055" lon="113.65820613382802">
        <ele>96.80244917888194</ele>
        <time>2026-10-03T12:13:58Z</time>
      </trkpt>
      <trkpt lat="34.83069184253578" lon="113.65819699330383">
        <ele>96.88384867738932</ele>
        <time>2026-10-03T12:14:01Z</time>
      </trkpt>
      <trkpt lat="34.83063323762091" lon="113.65814956339068">
        <ele>95.63918498530984</ele>
        <time>2026-10-03T12:14:04Z</time>
      </trkpt>
      <trkpt lat="34.830514963385305" lon="113.65817252539405">
        <ele>95.80643926374614</ele>
        <time>2026-10-03T12:14:22Z</time>
      </trkpt>
      <trkpt lat="34.830446862305955" lon="113.65813334509953">
        <ele>95.8822564361617</ele>
        <time>2026-10-03T12:14:28Z</time>
      </trkpt>
      <trkpt lat="34.83031464241589" lon="113.65818547081702">
        <ele>94.64243587292731</ele>
        <time>2026-10-03T12:14:37Z</time>
      </trkpt>
      <trkpt lat="34.830266094697905" lon="113.65826463710053">
        <ele>94.84916623868048</ele>
        <time>2026-10-03T12:14:43Z</time>
      </trkpt>
      <trkpt lat="34.830125810191795" lon="113.65838763439402">
        <ele>95.89071820117533</ele>
        <time>2026-10-03T12:14:58Z</time>
      </trkpt>
      <trkpt lat="34.830069856742476" lon="113.65838729705052">
        <ele>96.43728611804545</ele>
        <time>2026-10-03T12:15:07Z</time>
      </trkpt>
      <trkpt lat="34.83001298680482" lon="113.65842267665228">
        <ele>94.86610622238368</ele>
        <time>2026-10-03T12:15:13Z</time>
      </trkpt>
      <trkpt lat="34.8298296398589" lon="113.65840561630384">
        <ele>90.25014139804989</ele>
        <time>2026-10-03T12:15:34Z</time>
      </trkpt>
      <trkpt lat="34.829759368359774" lon="113.65842359395496">
        <ele>88.47605086583644</ele>
        <time>2026-10-03T12:15:41Z</time>
      </trkpt>
      <trkpt lat="34.829713729445366" lon="113.65841345114303">
        <ele>87.84927933290601</ele>
        <time>2026-10-03T12:15:47Z</time>
      </trkpt>
      <trkpt lat="34.82971735192322" lon="113.65828001912529">
        <ele>87.26737051457167</ele>
        <time>2026-10-03T12:15:59Z</time>
      </trkpt>
      <trkpt lat="34.829740201013536" lon="113.6581983164205">
        <ele>87.95243173930794</ele>
        <time>2026-10-03T12:16:05Z</time>
      </trkpt>
      <trkpt lat="34.82975607578782" lon="113.6579488473067">
        <ele>87.32440033461899</ele>
        <time>2026-10-03T12:16:23Z</time>
      </trkpt>
      <trkpt lat="34.82974681781127" lon="113.65787448557501">
        <ele>87.89459193870425</ele>
        <time>2026-10-03T12:16:29Z</time>
      </trkpt>
      <trkpt lat="34.829705056777115" lon="113.65783560517545">
        <ele>87.485426036641</ele>
        <time>2026-10-03T12:16:41Z</time>
      </trkpt>
      <trkpt lat="34.82965943120217" lon="113.65786086480821">
        <ele>87.07642910722643</ele>
        <time>2026-10-03T12:16:53Z</time>
      </trkpt>
      <trkpt lat="34.829564573598134" lon="113.65787979745183">
        <ele>88.02033376321197</ele>
        <time>2026-10-03T12:19:15Z</time>
      </trkpt>
      <trkpt lat="34.82961066393725" lon="113.65787166480223">
        <ele>88.02405079640448</ele>
        <time>2026-10-03T12:19:30Z</time>
      </trkpt>
      <trkpt lat="34.829711534732205" lon="113.65781109469773">
        <ele>95.23823503125459</ele>
        <time>2026-10-03T12:21:34Z</time>
      </trkpt>
      <trkpt lat="34.82976262666355" lon="113.65779882815859">
        <ele>96.84368294104934</ele>
        <time>2026-10-03T12:21:41Z</time>
      </trkpt>
      <trkpt lat="34.82971911654134" lon="113.65781739180244">
        <ele>92.45485337171704</ele>
        <time>2026-10-03T12:22:08Z</time>
      </trkpt>
    </trkseg>
  </trk>
</gpx>