<?xml version="1.0" encoding="UTF-8"?>
<gpx xmlns="http://www.topografix.com/GPX/1/1" xmlns:gpxtpx="http://www.garmin.com/xmlschemas/TrackPointExtension/v1" xmlns:xsi="http://www.w3.org/2001/XMLSchema-instance" xsi:schemaLocation="http://www.topografix.com/GPX/1/1 http://www.topografix.com/GPX/1/1/gpx.xsd" version="1.1" creator="gpx.py -- https://github.com/tkrajina/gpxpy">
  <trk>
    <name>gpx from keep</name>
    <type>Ride</type>
    <trkseg>
      <trkpt lat="34.83556552979024" lon="113.65128679323759">
        <ele>96.49470628518611</ele>
        <time>2026-09-10T13:26:15Z</time>
      </trkpt>
      <trkpt lat="34.83548661840584" lon="113.65128378186313">
        <ele>95.4419607501477</ele>
        <time>2026-09-10T13:26:19Z</time>
      </trkpt>
      <trkpt lat="34.83541348565106" lon="113.65125751822276">
        <ele>90.89599236566573</ele>
        <time>2026-09-10T13:26:23Z</time>
      </trkpt>
      <trkpt lat="34.83535970016878" lon="113.65119111808835">
        <ele>86.37498993240297</ele>
        <time>2026-09-10T13:26:28Z</time>
      </trkpt>
      <trkpt lat="34.83526962347272" lon="113.65120148476437">
        <ele>84.73088043741882</ele>
        <time>2026-09-10T13:26:31Z</time>
      </trkpt>
      <trkpt lat="34.83499935762974" lon="113.65129729355935">
        <ele>85.34300338104367</ele>
        <time>2026-09-10T13:26:40Z</time>
      </trkpt>
      <trkpt lat="34.83491934007281" lon="113.65134814356911">
        <ele>84.6287611760199</ele>
        <time>2026-09-10T13:26:43Z</time>
      </trkpt>
      <trkpt lat="34.83474950831526" lon="113.65141317839334">
        <ele>89.28206239733845</ele>
        <time>2026-09-10T13:26:51Z</time>
      </trkpt>
      <trkpt lat="34.83472339548082" lon="113.65151219600271">
        <ele>86.7450522184372</ele>
        <time>2026-09-10T13:26:55Z</time>
      </trkpt>
      <trkpt lat="34.834667264384514" lon="113.65158265165353">
        <ele>89.27594980876893</ele>
        <time>2026-09-10T13:27:00Z</time>
      </trkpt>
      <trkpt lat="34.83457673544364" lon="113.65162316834272">
        <ele>90.83936932310462</ele>
        <time>2026-09-10T13:27:04Z</time>
      </trkpt>
      <trkpt lat="34.83447485743894" lon="113.65163058661065">
        <ele>89.86086358781904</ele>
        <time>2026-09-10T13:27:06Z</time>
      </trkpt>
      <trkpt lat="34.83440557932048" lon="113.65169031982657">
        <ele>92.63722461368889</ele>
        <time>2026-09-10T13:27:10Z</time>
      </trkpt>
      <trkpt lat="34.8343262735933" lon="113.65169794211361">
        <ele>91.23191183712333</ele>
        <time>2026-09-10T13:27:12Z</time>
      </trkpt>
      <trkpt lat="34.83414756027646" lon="113.65180189056115">
        <ele>89.00824215542525</ele>
        <time>2026-09-10T13:27:17Z</time>
      </trkpt>
      <trkpt lat="34.83409036291734" lon="113.65185686195895">
        <ele>91.54364810697734</ele>
        <time>2026-09-10T13:27:20Z</time>
      </trkpt>
      <trkpt lat="34.83391915571758" lon="113.65193409890244">
        <ele>93.53262329660356</ele>
        <time>2026-09-10T13:27:27Z</time>
      </trkpt>
      <trkpt lat="34.83382894970585" lon="113.65191036705335">
        <ele>90.90926781855524</ele>
        <time>2026-09-10T13:27:30Z</time>
      </trkpt>
      <trkpt lat="34.833753537913005" lon="113.65193526748553">
        <ele>91.32003298029304</ele>
        <time>2026-09-10T13:27:33Z</time>
      </trkpt>
      <trkpt lat="34.83366833570608" lon="113.65221177138604">
        <ele>86.91563558299094</ele>
        <time>2026-09-10T13:27:42Z</time>
      </trkpt>
      <trkpt lat="34.83366710987783" lon="113.65233199793276">
        <ele>87.29028275609016</ele>
        <time>2026-09-10T13:27:46Z</time>
      </trkpt>
      <trkpt lat="34.833575919794" lon="113.65250839575587">
        <ele>87.23751306440681</ele>
        <time>2026-09-10T13:27:52Z</time>
      </trkpt>
      <trkpt lat="34.83356419750862" lon="113.65260140738343">
        <ele>87.35548866353929</ele>
        <time>2026-09-10T13:27:55Z</time>
      </trkpt>
      <trkpt lat="34.83350698713825" lon="113.65266842293084">
        <ele>88.79818005301058</ele>
        <time>2026-09-10T13:27:59Z</time>
      </trkpt>
      <trkpt lat="34.83339261916963" lon="113.65270316606637">
        <ele>90.01394779793918</ele>
        <time>2026-09-10T13:28:05Z</time>
      </trkpt>
      <trkpt lat="34.83323556989528" lon="113.65279205876475">
        <ele>94.97161720413715</ele>
        <time>2026-09-10T13:28:11Z</time>
      </trkpt>
      <trkpt lat="34.83317258158627" lon="113.65285843604879">
        <ele>95.70365523081273</ele>
        <time>2026-09-10T13:28:16Z</time>
      </trkpt>
      <trkpt lat="34.833092406668776" lon="113.65317270021187">
        <ele>91.44025948084891</ele>
        <time>2026-09-10T13:28:27Z</time>
      </trkpt>
      <trkpt lat="34.833039010375074" lon="113.6532519779146">
        <ele>90.55993442609906</ele>
        <time>2026-09-10T13:28:32Z</time>
      </trkpt>
      <trkpt lat="34.83297327355818" lon="113.65329354843367">
        <ele>91.65739192813635</ele>
        <time>2026-09-10T13:28:35Z</time>
      </trkpt>
      <trkpt lat="34.83290832559243" lon="113.65336713226743">
        <ele>92.65444355737418</ele>
        <time>2026-09-10T13:28:39Z</time>
      </trkpt>
      <trkpt lat="34.832827829865664" lon="113.65339601755566">
        <ele>92.32823755498976</ele>
        <time>2026-09-10T13:28:42Z</time>
      </trkpt>
      <trkpt lat="34.83277778361525" lon="113.65346992944274">
        <ele>91.10257547162473</ele>
        <time>2026-09-10T13:28:46Z</time>
      </trkpt>
      <trkpt lat="34.83285301130888" lon="113.65380789207916">
        <ele>92.33682749979198</ele>
        <time>2026-09-10T13:29:00Z</time>
      </trkpt>
      <trkpt lat="34.832849669931456" lon="113.65390004451629">
        <ele>91.91718224063516</ele>
        <time>2026-09-10T13:29:03Z</time>
      </trkpt>
      <trkpt lat="34.83286526290212" lon="113.65399150577274">
        <ele>91.4568402254954</ele>
        <time>2026-09-10T13:29:06Z</time>
      </trkpt>
      <trkpt lat="34.8328413701034" lon="113.6540872320021">
        <ele>90.87228456139565</ele>
        <time>2026-09-10T13:29:09Z</time>
      </trkpt>
      <trkpt lat="34.83284416752904" lon="113.65426812642967">
        <ele>91.50196011271328</ele>
        <time>2026-09-10T13:29:18Z</time>
      </trkpt>
      <trkpt lat="34.83290818705211" lon="113.65421003644427">
        <ele>91.2040495686233</ele>
        <time>2026-09-10T13:29:23Z</time>
      </trkpt>
      <trkpt lat="34.83295774154278" lon="113.65413206898438">
        <ele>90.81582763884217</ele>
        <time>2026-09-10T13:29:26Z</time>
      </trkpt>
      <trkpt lat="34.83306010559024" lon="113.65408418473362">
        <ele>90.48697288613766</ele>
        <time>2026-09-10T13:29:29Z</time>
      </trkpt>
      <trkpt lat="34.83309826764102" lon="113.6541940782186">
        <ele>91.4083135612309</ele>
        <time>2026-09-10T13:29:32Z</time>
      </trkpt>
      <trkpt lat="34.833048052851225" lon="113.65429027912148">
        <ele>92.37353161536157</ele>
        <time>2026-09-10T13:29:36Z</time>
      </trkpt>
      <trkpt lat="34.8328627464197" lon="113.65436543844855">
        <ele>93.44649007823318</ele>
        <time>2026-09-10T13:29:42Z</time>
      </trkpt>
      <trkpt lat="34.83279891007443" lon="113.65442949319261">
        <ele>93.58254660665989</ele>
        <time>2026-09-10T13:29:44Z</time>
      </trkpt>
      <trkpt lat="34.83229001362719" lon="113.65460302368615">
        <ele>91.17797141056508</ele>
        <time>2026-09-10T13:29:59Z</time>
      </trkpt>
      <trkpt lat="34.832053598731164" lon="113.65463457664538">
        <ele>92.71848868113011</ele>
        <time>2026-09-10T13:30:08Z</time>
      </trkpt>
      <trkpt lat="34.83185234061572" lon="113.65474621822872">
        <ele>92.47487940452993</ele>
        <time>2026-09-10T13:30:14Z</time>
      </trkpt>
      <trkpt lat="34.831616422848576" lon="113.65494542620665">
        <ele>91.02115843910724</ele>
        <time>2026-09-10T13:30:21Z</time>
      </trkpt>
      <trkpt lat="34.831432201951856" lon="113.6549995782914">
        <ele>92.3648390006274</ele>
        <time>2026-09-10T13:30:27Z</time>
      </trkpt>
      <trkpt lat="34.831153178594754" lon="113.65505978615042">
        <ele>91.20114489924163</ele>
        <time>2026-09-10T13:30:35Z</time>
      </trkpt>
      <trkpt lat="34.83084100895928" lon="113.65522657859898">
        <ele>91.77522377762944</ele>
        <time>2026-09-10T13:30:47Z</time>
      </trkpt>
      <trkpt lat="34.83068245882617" lon="113.65525066232043">
        <ele>92.29475190583616</ele>
        <time>2026-09-10T13:30:53Z</time>
      </trkpt>
      <trkpt lat="34.830548516591584" lon="113.65534642797148">
        <ele>90.67847130075097</ele>
        <time>2026-09-10T13:30:58Z</time>
      </trkpt>
      <trkpt lat="34.83038224489967" lon="113.65541562425302">
        <ele>90.40727770421654</ele>
        <time>2026-09-10T13:31:05Z</time>
      </trkpt>
      <trkpt lat="34.8303185609258" lon="113.65549275527069">
        <ele>89.907948480919</ele>
        <time>2026-09-10T13:31:09Z</time>
      </trkpt>
      <trkpt lat="34.83027386683577" lon="113.6557776689695">
        <ele>90.86701215431094</ele>
        <time>2026-09-10T13:31:18Z</time>
      </trkpt>
      <trkpt lat="34.830282074547284" lon="113.65586750364743">
        <ele>91.69240467250347</ele>
        <time>2026-09-10T13:31:24Z</time>
      </trkpt>
      <trkpt lat="34.830238671895884" lon="113.6564712004991">
        <ele>92.02296981681138</ele>
        <time>2026-09-10T13:31:44Z</time>
      </trkpt>
      <trkpt lat="34.83019933857342" lon="113.65693523638365">
        <ele>91.60633336286992</ele>
        <time>2026-09-10T13:31:56Z</time>
      </trkpt>
      <trkpt lat="34.8301856727751" lon="113.65743490476311">
        <ele>89.71087198425084</ele>
        <time>2026-09-10T13:32:12Z</time>
      </trkpt>
      <trkpt lat="34.83011327026384" lon="113.6575319213787">
        <ele>91.38212710991502</ele>
        <time>2026-09-10T13:32:17Z</time>
      </trkpt>
      <trkpt lat="34.83009124226546" lon="113.65764669729772">
        <ele>91.3022550502792</ele>
        <time>2026-09-10T13:32:22Z</time>
      </trkpt>
      <trkpt lat="34.83015763900624" lon="113.65779633064095">
        <ele>90.33143543452024</ele>
        <time>2026-09-10T13:32:24Z</time>
      </trkpt>
      <trkpt lat="34.83014165417344" lon="113.65789551248182">
        <ele>90.11617468856275</ele>
        <time>2026-09-10T13:32:26Z</time>
      </trkpt>
      <trkpt lat="34.830055734254785" lon="113.65811493281203">
        <ele>88.86095707770437</ele>
        <time>2026-09-10T13:32:32Z</time>
      </trkpt>
      <trkpt lat="34.83011343012364" lon="113.65826596674303">
        <ele>88.4772324860096</ele>
        <time>2026-09-10T13:32:36Z</time>
      </trkpt>
      <trkpt lat="34.83011794602649" lon="113.65835334768764">
        <ele>89.92106038797647</ele>
        <time>2026-09-10T13:32:40Z</time>
      </trkpt>
      <trkpt lat="34.82980776388085" lon="113.65839998804894">
        <ele>96.72179049346596</ele>
        <time>2026-09-10T13:33:03Z</time>
      </trkpt>
      <trkpt lat="34.829783555681864" lon="113.65831455667347">
        <ele>95.25867770239711</ele>
        <time>2026-09-10T13:33:07Z</time>
      </trkpt>
      <trkpt lat="34.8297299028018" lon="113.65830592844456">
        <ele>95.08488927781582</ele>
        <time>2026-09-10T13:33:23Z</time>
      </trkpt>
    </trkseg>
  </trk>
</gpx>