<?xml version="1.0" encoding="UTF-8"?>
<gpx xmlns="http://www.topografix.com/GPX/1/1" xmlns:gpxtpx="http://www.garmin.com/xmlschemas/TrackPointExtension/v1" xmlns:xsi="http://www.w3.org/2001/XMLSchema-instance" xsi:schemaLocation="http://www.topografix.com/GPX/1/1 http://www.topografix.com/GPX/1/1/gpx.xsd" version="1.1" creator="gpx.py -- https://github.com/tkrajina/gpxpy">
  <trk>
    <name>gpx from keep</name>
    <type>Walk</type>
    <trkseg>
      <trkpt lat="34.83891383923182" lon="113.64821502129487">
        <ele>89.67807889729738</ele>
        <time>2026-09-06T14:11:34Z</time>
      </trkpt>
      <trkpt lat="34.838857290690726" lon="113.64836309129839">
        <ele>89.75196680147201</ele>
        <time>2026-09-06T14:11:42Z</time>
      </trkpt>
      <trkpt lat="34.83886959393177" lon="113.64854567494669">
        <ele>91.7912572324276</ele>
        <time>2026-09-06T14:11:50Z</time>
      </trkpt>
      <trkpt lat="34.838899664104055" lon="113.64862151532941">
        <ele>90.11636149790138</ele>
        <time>2026-09-06T14:11:54Z</time>
      </trkpt>
      <trkpt lat="34.83886943571038" lon="113.64898698542117">
        <ele>90.94954073335975</ele>
        <time>2026-09-06T14:12:15Z</time>
      </trkpt>
      <trkpt lat="34.83886031069503" lon="113.6490692053715">
        <ele>90.44821370299906</ele>
        <time>2026-09-06T14:12:19Z</time>
      </trkpt>
      <trkpt lat="34.83903285195664" lon="113.64914652969193">
        <ele>89.42398689966649</ele>
        <time>2026-09-06T14:12:30Z</time>
      </trkpt>
      <trkpt lat="34.83906749245588" lon="113.64918564524334">
        <ele>88.7331228023395</ele>
        <time>2026-09-06T14:12:33Z</time>
      </trkpt>
      <trkpt lat="34.83912656198545" lon="113.64937189899163">
        <ele>88.55805943161249</ele>
        <time>2026-09-06T14:12:47Z</time>
      </trkpt>
      <trkpt lat="34.83913447372804" lon="113.64946175365645">
        <ele>89.8010551314801</ele>
        <time>2026-09-06T14:12:57Z</time>
      </trkpt>
      <trkpt lat="34.83916681570251" lon="113.6495582594952">
        <ele>89.87250392697752</ele>
        <time>2026-09-06T14:13:03Z</time>
      </trkpt>
      <trkpt lat="34.83916008799304" lon="113.64962534311518">
        <ele>89.31471823528409</ele>
        <time>2026-09-06T14:13:07Z</time>
      </trkpt>
      <trkpt lat="34.83904413635844" lon="113.6497527165336">
        <ele>88.71605334524065</ele>
        <time>2026-09-06T14:13:18Z</time>
      </trkpt>
      <trkpt lat="34.83878462639231" lon="113.64994789762393">
        <ele>87.89338435605168</ele>
        <time>2026-09-06T14:13:36Z</time>
      </trkpt>
      <trkpt lat="34.83849591279544" lon="113.65007961952742">
        <ele>87.85875074844807</ele>
        <time>2026-09-06T14:13:54Z</time>
      </trkpt>
      <trkpt lat="34.83830389755382" lon="113.65014325845941">
        <ele>86.5209515336901</ele>
        <time>2026-09-06T14:14:06Z</time>
      </trkpt>
      <trkpt lat="34.83815016165931" lon="113.65021597517564">
        <ele>87.60233125742525</ele>
        <time>2026-09-06T14:14:15Z</time>
      </trkpt>
      <trkpt lat="34.837989406823375" lon="113.6503891766683">
        <ele>88.21775041148067</ele>
        <time>2026-09-06T14:14:27Z</time>
      </trkpt>
      <trkpt lat="34.83773850558968" lon="113.6505209134749">
        <ele>87.20343429595232</ele>
        <time>2026-09-06T14:14:42Z</time>
      </trkpt>
      <trkpt lat="34.837541327080764" lon="113.65057386215472">
        <ele>88.26198525633663</ele>
        <time>2026-09-06T14:14:54Z</time>
      </trkpt>
      <trkpt lat="34.837312449226786" lon="113.65055929804683">
        <ele>86.50209361221641</ele>
        <time>2026-09-06T14:15:09Z</time>
      </trkpt>
      <trkpt lat="34.83727066924372" lon="113.65058955682005">
        <ele>87.5655941432342</ele>
        <time>2026-09-06T14:15:12Z</time>
      </trkpt>
      <trkpt lat="34.8372222196025" lon="113.65056656891603">
        <ele>87.48378050513566</ele>
        <time>2026-09-06T14:15:15Z</time>
      </trkpt>
      <trkpt lat="34.83716781179617" lon="113.65059448721695">
        <ele>87.58467689435929</ele>
        <time>2026-09-06T14:15:18Z</time>
      </trkpt>
      <trkpt lat="34.83711133870221" lon="113.65058889150957">
        <ele>87.11594387702644</ele>
        <time>2026-09-06T14:15:21Z</time>
      </trkpt>
      <trkpt lat="34.8370306425509" lon="113.65063018640318">
        <ele>87.94189718179405</ele>
        <time>2026-09-06T14:15:27Z</time>
      </trkpt>
      <trkpt lat="34.83678540891858" lon="113.65071627128576">
        <ele>88.1726714707911</ele>
        <time>2026-09-06T14:15:43Z</time>
      </trkpt>
      <trkpt lat="34.83657829775972" lon="113.65085878769035">
        <ele>87.8057154705748</ele>
        <time>2026-09-06T14:15:58Z</time>
      </trkpt>
      <trkpt lat="34.836401913841684" lon="113.65090563054754">
        <ele>88.53321440983564</ele>
        <time>2026-09-06T14:16:10Z</time>
      </trkpt>
      <trkpt lat="34.836174623307876" lon="113.6510240101976">
        <ele>87.40341874118894</ele>
        <time>2026-09-06T14:16:25Z</time>
      </trkpt>
      <trkpt lat="34.83606689311947" lon="113.65104843430562">
        <ele>86.667898892425</ele>
        <time>2026-09-06T14:16:31Z</time>
      </trkpt>
      <trkpt lat="34.83587900890748" lon="113.65114845682066">
        <ele>86.9556754892692</ele>
        <time>2026-09-06T14:16:43Z</time>
      </trkpt>
      <trkpt lat="34.8358322647505" lon="113.65120190683857">
        <ele>87.60256119072437</ele>
        <time>2026-09-06T14:16:46Z</time>
      </trkpt>
      <trkpt lat="34.83557605726608" lon="113.6512972677416">
        <ele>88.12510713748634</ele>
        <time>2026-09-06T14:17:01Z</time>
      </trkpt>
      <trkpt lat="34.835331454489854" lon="113.65135062391069">
        <ele>88.38039441872388</ele>
        <time>2026-09-06T14:17:16Z</time>
      </trkpt>
      <trkpt lat="34.83524613983882" lon="113.65139704744314">
        <ele>87.27175322920084</ele>
        <time>2026-09-06T14:17:22Z</time>
      </trkpt>
      <trkpt lat="34.835144832226504" lon="113.6513893332294">
        <ele>88.47632280737162</ele>
        <time>2026-09-06T14:17:28Z</time>
      </trkpt>
      <trkpt lat="34.8350717239721" lon="113.65136183869565">
        <ele>89.05165336094797</ele>
        <time>2026-09-06T14:17:34Z</time>
      </trkpt>
      <trkpt lat="34.83504034237244" lon="113.65126162242382">
        <ele>86.30896249040961</ele>
        <time>2026-09-06T14:17:40Z</time>
      </trkpt>
      <trkpt lat="34.83487653941957" lon="113.6513693815981">
        <ele>84.280827075243</ele>
        <time>2026-09-06T14:17:52Z</time>
      </trkpt>
      <trkpt lat="34.83480755656045" lon="113.65136312132455">
        <ele>84.80114243365824</ele>
        <time>2026-09-06T14:17:56Z</time>
      </trkpt>
      <trkpt lat="34.834734612039945" lon="113.65144845149922">
        <ele>85.22819649334997</ele>
        <time>2026-09-06T14:18:02Z</time>
      </trkpt>
      <trkpt lat="34.83472781646949" lon="113.65150550112">
        <ele>84.4495425997302</ele>
        <time>2026-09-06T14:18:05Z</time>
      </trkpt>
      <trkpt lat="34.8345369545921" lon="113.6516659313261">
        <ele>86.10263308230788</ele>
        <time>2026-09-06T14:18:20Z</time>
      </trkpt>
      <trkpt lat="34.8344184563798" lon="113.65168130875765">
        <ele>84.94966578762978</ele>
        <time>2026-09-06T14:18:26Z</time>
      </trkpt>
      <trkpt lat="34.834179200636015" lon="113.65186450993023">
        <ele>87.14619452878833</ele>
        <time>2026-09-06T14:18:44Z</time>
      </trkpt>
      <trkpt lat="34.83421566422216" lon="113.65195151399227">
        <ele>86.1083946172148</ele>
        <time>2026-09-06T14:18:50Z</time>
      </trkpt>
      <trkpt lat="34.83412768057588" lon="113.65203047664434">
        <ele>87.46085904445499</ele>
        <time>2026-09-06T14:18:56Z</time>
      </trkpt>
      <trkpt lat="34.83406158474203" lon="113.6520645126212">
        <ele>86.66692639607936</ele>
        <time>2026-09-06T14:18:59Z</time>
      </trkpt>
      <trkpt lat="34.83384181479818" lon="113.65229991479794">
        <ele>87.6698876330629</ele>
        <time>2026-09-06T14:19:17Z</time>
      </trkpt>
      <trkpt lat="34.83379916696686" lon="113.65233132786993">
        <ele>88.00890337303281</ele>
        <time>2026-09-06T14:19:20Z</time>
      </trkpt>
      <trkpt lat="34.83374095956542" lon="113.65242665666689">
        <ele>86.36732553318143</ele>
        <time>2026-09-06T14:19:26Z</time>
      </trkpt>
      <trkpt lat="34.833573573208234" lon="113.65255330272035">
        <ele>86.9612661106512</ele>
        <time>2026-09-06T14:19:38Z</time>
      </trkpt>
      <trkpt lat="34.83353247693629" lon="113.65260354462816">
        <ele>86.82981560565531</ele>
        <time>2026-09-06T14:19:44Z</time>
      </trkpt>
      <trkpt lat="34.833477235578776" lon="113.65261162025485">
        <ele>88.11331942398101</ele>
        <time>2026-09-06T14:19:47Z</time>
      </trkpt>
      <trkpt lat="34.83335619325226" lon="113.65278526489462">
        <ele>89.11721306759864</ele>
        <time>2026-09-06T14:20:00Z</time>
      </trkpt>
      <trkpt lat="34.833185903818496" lon="113.65285972659721">
        <ele>88.30769761279225</ele>
        <time>2026-09-06T14:20:12Z</time>
      </trkpt>
      <trkpt lat="34.83309007009281" lon="113.65295411678558">
        <ele>89.02628095913678</ele>
        <time>2026-09-06T14:20:21Z</time>
      </trkpt>
      <trkpt lat="34.83307996259442" lon="113.6531683720429">
        <ele>90.3281940408051</ele>
        <time>2026-09-06T14:20:33Z</time>
      </trkpt>
      <trkpt lat="34.83305999176415" lon="113.65323681323498">
        <ele>90.01047398988158</ele>
        <time>2026-09-06T14:20:39Z</time>
      </trkpt>
      <trkpt lat="34.83281822746892" lon="113.65345324711998">
        <ele>90.50503201503307</ele>
        <time>2026-09-06T14:20:57Z</time>
      </trkpt>
      <trkpt lat="34.83276906847901" lon="113.65350811748067">
        <ele>89.22093712352216</ele>
        <time>2026-09-06T14:21:03Z</time>
      </trkpt>
      <trkpt lat="34.83276695892584" lon="113.65356817877347">
        <ele>88.69719609525055</ele>
        <time>2026-09-06T14:21:09Z</time>
      </trkpt>
      <trkpt lat="34.83271478082498" lon="113.65357296857098">
        <ele>90.88831559289247</ele>
        <time>2026-09-06T14:21:18Z</time>
      </trkpt>
      <trkpt lat="34.83284642022961" lon="113.65376754997058">
        <ele>91.56432874314487</ele>
        <time>2026-09-06T14:21:36Z</time>
      </trkpt>
      <trkpt lat="34.832839117613055" lon="113.65416841658427">
        <ele>93.75421662256122</ele>
        <time>2026-09-06T14:21:58Z</time>
      </trkpt>
      <trkpt lat="34.83282186247492" lon="113.65429588990662">
        <ele>91.53099096473306</ele>
        <time>2026-09-06T14:22:06Z</time>
      </trkpt>
      <trkpt lat="34.83283903250084" lon="113.6543999421559">
        <ele>90.45077075902373</ele>
        <time>2026-09-06T14:22:13Z</time>
      </trkpt>
      <trkpt lat="34.83281117424579" lon="113.65449833271761">
        <ele>88.72545877750963</ele>
        <time>2026-09-06T14:22:19Z</time>
      </trkpt>
      <trkpt lat="34.83269919392582" lon="113.65456462721413">
        <ele>87.83766991086304</ele>
        <time>2026-09-06T14:22:28Z</time>
      </trkpt>
      <trkpt lat="34.83264857748724" lon="113.6546167380705">
        <ele>87.47388469520956</ele>
        <time>2026-09-06T14:22:34Z</time>
      </trkpt>
      <trkpt lat="34.832673805197494" lon="113.65473546792387">
        <ele>86.77509929426014</ele>
        <time>2026-09-06T14:22:40Z</time>
      </trkpt>
      <trkpt lat="34.83265311621058" lon="113.65478841989443">
        <ele>85.92169359326363</ele>
        <time>2026-09-06T14:22:43Z</time>
      </trkpt>
      <trkpt lat="34.832498463723056" lon="113.65483826511773">
        <ele>85.85204296279699</ele>
        <time>2026-09-06T14:22:52Z</time>
      </trkpt>
      <trkpt lat="34.832391380201706" lon="113.65493600504637">
        <ele>85.76672079693526</ele>
        <time>2026-09-06T14:23:01Z</time>
      </trkpt>
      <trkpt lat="34.83211978270166" lon="113.65505271158801">
        <ele>87.2089226981625</ele>
        <time>2026-09-06T14:23:22Z</time>
      </trkpt>
      <trkpt lat="34.83190471912001" lon="113.65511952240496">
        <ele>87.33327638264745</ele>
        <time>2026-09-06T14:23:37Z</time>
      </trkpt>
      <trkpt lat="34.83188613632542" lon="113.65521081027875">
        <ele>88.22910883743316</ele>
        <time>2026-09-06T14:23:43Z</time>
      </trkpt>
      <trkpt lat="34.83191914055681" lon="113.6552613271442">
        <ele>87.93098662048578</ele>
        <time>2026-09-06T14:23:46Z</time>
      </trkpt>
      <trkpt lat="34.831901259755774" lon="113.65538762317051">
        <ele>89.59511693008244</ele>
        <time>2026-09-06T14:23:52Z</time>
      </trkpt>
      <trkpt lat="34.831912084762976" lon="113.65548943998265">
        <ele>88.37379048857838</ele>
        <time>2026-09-06T14:23:58Z</time>
      </trkpt>
      <trkpt lat="34.83186044621425" lon="113.65561592347991">
        <ele>88.92453678045422</ele>
        <time>2026-09-06T14:24:05Z</time>
      </trkpt>
      <trkpt lat="34.83183726651414" lon="113.65596199893432">
        <ele>89.25065395794809</ele>
        <time>2026-09-06T14:24:22Z</time>
      </trkpt>
      <trkpt lat="34.83180636533588" lon="113.65604615889004">
        <ele>88.67283684574068</ele>
        <time>2026-09-06T14:24:28Z</time>
      </trkpt>
      <trkpt lat="34.83173049779978" lon="113.65609420242664">
        <ele>88.36117667052895</ele>
        <time>2026-09-06T14:24:34Z</time>
      </trkpt>
      <trkpt lat="34.83146454741485" lon="113.65623984893433">
        <ele>90.45715717598796</ele>
        <time>2026-09-06T14:24:52Z</time>
      </trkpt>
      <trkpt lat="34.8313605662226" lon="113.65626737422986">
        <ele>88.56295694503933</ele>
        <time>2026-09-06T14:24:58Z</time>
      </trkpt>
      <trkpt lat="34.83131641851449" lon="113.65624875074272">
        <ele>88.12066956050694</ele>
        <time>2026-09-06T14:25:01Z</time>
      </trkpt>
      <trkpt lat="34.83125552955032" lon="113.65618876151213">
        <ele>89.41963104531169</ele>
        <time>2026-09-06T14:25:07Z</time>
      </trkpt>
      <trkpt lat="34.8311701836491" lon="113.65616441720675">
        <ele>91.33502672147006</ele>
        <time>2026-09-06T14:25:13Z</time>
      </trkpt>
      <trkpt lat="34.83109618953798" lon="113.65617024750834">
        <ele>91.80282840039581</ele>
        <time>2026-09-06T14:25:19Z</time>
      </trkpt>
      <trkpt lat="34.83100798832728" lon="113.65613359390656">
        <ele>92.01437750086188</ele>
        <time>2026-09-06T14:25:25Z</time>
      </trkpt>
      <trkpt lat="34.830920710931665" lon="113.65614495439738">
        <ele>93.27915909234434</ele>
        <time>2026-09-06T14:25:31Z</time>
      </trkpt>
      <trkpt lat="34.83074038227163" lon="113.65622866768442">
        <ele>94.29079123865813</ele>
        <time>2026-09-06T14:25:43Z</time>
      </trkpt>
      <trkpt lat="34.83066003809822" lon="113.65628851259751">
        <ele>91.92842180095613</ele>
        <time>2026-09-06T14:25:49Z</time>
      </trkpt>
      <trkpt lat="34.83058171630624" lon="113.65642381102417">
        <ele>91.89623855240643</ele>
        <time>2026-09-06T14:25:58Z</time>
      </trkpt>
      <trkpt lat="34.83056494745777" lon="113.65655319108745">
        <ele>92.07721013762057</ele>
        <time>2026-09-06T14:26:04Z</time>
      </trkpt>
      <trkpt lat="34.830423222881194" lon="113.65670321965675">
        <ele>88.10086220875382</ele>
        <time>2026-09-06T14:26:17Z</time>
      </trkpt>
      <trkpt lat="34.83030000213032" lon="113.65674644551066">
        <ele>87.0496378801763</ele>
        <time>2026-09-06T14:26:26Z</time>
      </trkpt>
      <trkpt lat="34.83025145098244" lon="113.65681343875">
        <ele>87.52094975113869</ele>
        <time>2026-09-06T14:26:32Z</time>
      </trkpt>
      <trkpt lat="34.83019370745253" lon="113.65698331438125">
        <ele>88.82145925238729</ele>
        <time>2026-09-06T14:26:41Z</time>
      </trkpt>
      <trkpt lat="34.83019555287515" lon="113.65709831963687">
        <ele>87.87658316083252</ele>
        <time>2026-09-06T14:26:47Z</time>
      </trkpt>
      <trkpt lat="34.83016192665872" lon="113.65715487299776">
        <ele>87.25738109555095</ele>
        <time>2026-09-06T14:26:50Z</time>
      </trkpt>
      <trkpt lat="34.83014638656234" lon="113.65727037147708">
        <ele>87.68782697990537</ele>
        <time>2026-09-06T14:26:56Z</time>
      </trkpt>
      <trkpt lat="34.83016794824632" lon="113.65746918351645">
        <ele>87.80802621506155</ele>
        <time>2026-09-06T14:27:08Z</time>
      </trkpt>
      <trkpt lat="34.830177962272224" lon="113.65765064450245">
        <ele>89.00662771891803</ele>
        <time>2026-09-06T14:27:17Z</time>
      </trkpt>
      <trkpt lat="34.83017385724897" lon="113.65791727621367">
        <ele>91.90083429124206</ele>
        <time>2026-09-06T14:27:32Z</time>
      </trkpt>
      <trkpt lat="34.83022067106341" lon="113.6580709722797">
        <ele>92.72864739503711</ele>
        <time>2026-09-06T14:27:44Z</time>
      </trkpt>
      <trkpt lat="34.83019202165024" lon="113.65817225840723">
        <ele>93.47732453700155</ele>
        <time>2026-09-06T14:27:47Z</time>
      </trkpt>
      <trkpt lat="34.830225395344506" lon="113.65835381293832">
        <ele>95.79070145916194</ele>
        <time>2026-09-06T14:27:59Z</time>
      </trkpt>
      <trkpt lat="34.830205742047646" lon="113.65854789634044">
        <ele>97.11731335055083</ele>
        <time>2026-09-06T14:28:11Z</time>
      </trkpt>
      <trkpt lat="34.830185500525715" lon="113.658600507067">
        <ele>96.61890854034573</ele>
        <time>2026-09-06T14:28:15Z</time>
      </trkpt>
      <trkpt lat="34.83016671379427" lon="113.6585134117824">
        <ele>95.12200972624123</ele>
        <time>2026-09-06T14:28:24Z</time>
      </trkpt>
      <trkpt lat="34.82991936907222" lon="113.65845858774075">
        <ele>95.35103832557797</ele>
        <time>2026-09-06T14:28:39Z</time>
      </trkpt>
      <trkpt lat="34.82978109291216" lon="113.65846369984469">
        <ele>89.6358805866912</ele>
        <time>2026-09-06T14:28:51Z</time>
      </trkpt>
      <trkpt lat="34.82971145756744" lon="113.65839710231978">
        <ele>91.53941976092756</ele>
        <time>2026-09-06T14:28:57Z</time>
      </trkpt>
      <trkpt lat="34.82964881790073" lon="113.65819387604886">
        <ele>91.2531408322975</ele>
        <time>2026-09-06T14:29:09Z</time>
      </trkpt>
      <trkpt lat="34.82958375916216" lon="113.65816335146658">
        <ele>89.67290413472801</ele>
        <time>2026-09-06T14:29:12Z</time>
      </trkpt>
      <trkpt lat="34.829621640312105" lon="113.65811270302957">
        <ele>89.40737856645137</ele>
        <time>2026-09-06T14:29:18Z</time>
      </trkpt>
      <trkpt lat="34.82963875265394" lon="113.65803826432234">
        <ele>88.54143267590553</ele>
        <time>2026-09-06T14:29:21Z</time>
      </trkpt>
      <trkpt lat="34.829505806755485" lon="113.65796385627499">
        <ele>90.25781398173422</ele>
        <time>2026-09-06T14:29:33Z</time>
      </trkpt>
      <trkpt lat="34.829416196150625" lon="113.6579519641637">
        <ele>88.5129234045744</ele>
        <time>2026-09-06T14:29:39Z</time>
      </trkpt>
      <trkpt lat="34.82933721568365" lon="113.65802117046267">
        <ele>88.06457606703043</ele>
        <time>2026-09-06T14:29:45Z</time>
      </trkpt>
      <trkpt lat="34.829288122075724" lon="113.65812585887416">
        <ele>90.45068351086229</ele>
        <time>2026-09-06T14:29:51Z</time>
      </trkpt>
      <trkpt lat="34.82928884146492" lon="113.65818896904881">
        <ele>89.23000319674611</ele>
        <time>2026-09-06T14:29:54Z</time>
      </trkpt>
    </trkseg>
  </trk>
</gpx>