<?xml version="1.0" encoding="UTF-8"?>
<gpx xmlns="http://www.topografix.com/GPX/1/1" xmlns:gpxtpx="http://www.garmin.com/xmlschemas/TrackPointExtension/v1" xmlns:xsi="http://www.w3.org/2001/XMLSchema-instance" xsi:schemaLocation="http://www.topografix.com/GPX/1/1 http://www.topografix.com/GPX/1/1/gpx.xsd" version="1.1" creator="gpx.py -- https://github.com/tkrajina/gpxpy">
  <trk>
    <name>gpx from keep</name>
    <type>Walk</type>
    <trkseg>
      <trkpt lat="34.84006830859107" lon="113.64527984081083">
        <ele>84.489990234375</ele>
        <time>2026-08-26T11:24:05Z</time>
      </trkpt>
      <trkpt lat="34.83997241687974" lon="113.64530414525144">
        <ele>94.85809326171875</ele>
        <time>2026-08-26T11:24:09Z</time>
      </trkpt>
      <trkpt lat="34.83991708182631" lon="113.64565866112643">
        <ele>89.3579068267718</ele>
        <time>2026-08-26T11:24:35Z</time>
      </trkpt>
      <trkpt lat="34.83990637607205" lon="113.64583584027247">
        <ele>87.1941113518551</ele>
        <time>2026-08-26T11:24:49Z</time>
      </trkpt>
      <trkpt lat="34.83991976027506" lon="113.64594034502194">
        <ele>86.64586487784982</ele>
        <time>2026-08-26T11:24:57Z</time>
      </trkpt>
      <trkpt lat="34.839913979393835" lon="113.64623947429145">
        <ele>86.79173560068011</ele>
        <time>2026-08-26T11:25:18Z</time>
      </trkpt>
      <trkpt lat="34.8399266319507" lon="113.64634048975819">
        <ele>87.36633202806115</ele>
        <time>2026-08-26T11:25:25Z</time>
      </trkpt>
      <trkpt lat="34.83991787322741" lon="113.64639682788898">
        <ele>87.28766761440784</ele>
        <time>2026-08-26T11:25:29Z</time>
      </trkpt>
      <trkpt lat="34.83992805206785" lon="113.64647752875948">
        <ele>87.32685844413936</ele>
        <time>2026-08-26T11:25:35Z</time>
      </trkpt>
      <trkpt lat="34.839901689883646" lon="113.64661577983757">
        <ele>88.68777911923826</ele>
        <time>2026-08-26T11:25:46Z</time>
      </trkpt>
      <trkpt lat="34.83983665985727" lon="113.64668328542695">
        <ele>86.79614996816963</ele>
        <time>2026-08-26T11:25:53Z</time>
      </trkpt>
      <trkpt lat="34.83972587575826" lon="113.64667503521953">
        <ele>84.10776896309108</ele>
        <time>2026-08-26T11:26:04Z</time>
      </trkpt>
      <trkpt lat="34.839449895304575" lon="113.64659154715403">
        <ele>84.52578916028142</ele>
        <time>2026-08-26T11:26:28Z</time>
      </trkpt>
      <trkpt lat="34.83938027626201" lon="113.64656719662699">
        <ele>83.86581054981798</ele>
        <time>2026-08-26T11:26:34Z</time>
      </trkpt>
      <trkpt lat="34.83934877117385" lon="113.64662193728869">
        <ele>83.82669723127037</ele>
        <time>2026-08-26T11:26:37Z</time>
      </trkpt>
      <trkpt lat="34.83934448350123" lon="113.64680818848431">
        <ele>85.11156113632023</ele>
        <time>2026-08-26T11:26:49Z</time>
      </trkpt>
      <trkpt lat="34.839278915702835" lon="113.64711173697287">
        <ele>84.04367578402162</ele>
        <time>2026-08-26T11:27:13Z</time>
      </trkpt>
      <trkpt lat="34.83919953226964" lon="113.64725871026218">
        <ele>84.13651676941663</ele>
        <time>2026-08-26T11:27:25Z</time>
      </trkpt>
      <trkpt lat="34.83917709565559" lon="113.64734132479482">
        <ele>83.1197562739253</ele>
        <time>2026-08-26T11:27:31Z</time>
      </trkpt>
      <trkpt lat="34.839168854592714" lon="113.64761593451739">
        <ele>85.77750594355166</ele>
        <time>2026-08-26T11:27:52Z</time>
      </trkpt>
      <trkpt lat="34.83919689461401" lon="113.64783018117073">
        <ele>85.28178140614182</ele>
        <time>2026-08-26T11:28:10Z</time>
      </trkpt>
      <trkpt lat="34.839178108061255" lon="113.64788996513307">
        <ele>84.3350506965071</ele>
        <time>2026-08-26T11:28:16Z</time>
      </trkpt>
      <trkpt lat="34.83917511209432" lon="113.64813104335718">
        <ele>83.81073078233749</ele>
        <time>2026-08-26T11:28:32Z</time>
      </trkpt>
      <trkpt lat="34.83911030178215" lon="113.64833961660523">
        <ele>87.56562266871333</ele>
        <time>2026-08-26T11:28:48Z</time>
      </trkpt>
      <trkpt lat="34.83904688745935" lon="113.64850844866584">
        <ele>86.3110782224685</ele>
        <time>2026-08-26T11:29:01Z</time>
      </trkpt>
      <trkpt lat="34.83911541666994" lon="113.64879379792177">
        <ele>86.52564387768507</ele>
        <time>2026-08-26T11:29:25Z</time>
      </trkpt>
      <trkpt lat="34.839152535658144" lon="113.64886704179764">
        <ele>85.56865708343685</ele>
        <time>2026-08-26T11:29:31Z</time>
      </trkpt>
      <trkpt lat="34.83915981164252" lon="113.64893503606436">
        <ele>85.5199858052656</ele>
        <time>2026-08-26T11:29:37Z</time>
      </trkpt>
      <trkpt lat="34.839108053422464" lon="113.64895764093114">
        <ele>84.43397153355181</ele>
        <time>2026-08-26T11:29:43Z</time>
      </trkpt>
      <trkpt lat="34.839079544390486" lon="113.64903316717917">
        <ele>84.3455307520926</ele>
        <time>2026-08-26T11:29:52Z</time>
      </trkpt>
      <trkpt lat="34.839062825506865" lon="113.6490874437595">
        <ele>95.24926986638457</ele>
        <time>2026-08-26T11:30:56Z</time>
      </trkpt>
      <trkpt lat="34.83915406413444" lon="113.64945503610842">
        <ele>89.01271686889231</ele>
        <time>2026-08-26T11:31:53Z</time>
      </trkpt>
      <trkpt lat="34.83915790618134" lon="113.64964610267869">
        <ele>86.9936200324446</ele>
        <time>2026-08-26T11:32:05Z</time>
      </trkpt>
      <trkpt lat="34.839073161531616" lon="113.64975317994495">
        <ele>86.5667811576277</ele>
        <time>2026-08-26T11:32:14Z</time>
      </trkpt>
      <trkpt lat="34.83883333441795" lon="113.64991312169406">
        <ele>84.65474359225482</ele>
        <time>2026-08-26T11:32:33Z</time>
      </trkpt>
      <trkpt lat="34.83879483180756" lon="113.64994202752429">
        <ele>85.13094005081803</ele>
        <time>2026-08-26T11:32:36Z</time>
      </trkpt>
      <trkpt lat="34.83849912904443" lon="113.65004873889924">
        <ele>87.9531458960846</ele>
        <time>2026-08-26T11:32:56Z</time>
      </trkpt>
      <trkpt lat="34.83825899345491" lon="113.65017982237788">
        <ele>83.93405553605407</ele>
        <time>2026-08-26T11:33:14Z</time>
      </trkpt>
      <trkpt lat="34.83819141114778" lon="113.65023399838776">
        <ele>83.69275957066566</ele>
        <time>2026-08-26T11:33:20Z</time>
      </trkpt>
      <trkpt lat="34.8381601909929" lon="113.65028214337107">
        <ele>82.82846957538277</ele>
        <time>2026-08-26T11:33:23Z</time>
      </trkpt>
      <trkpt lat="34.83789705507661" lon="113.65046429696636">
        <ele>82.9643234629184</ele>
        <time>2026-08-26T11:33:44Z</time>
      </trkpt>
      <trkpt lat="34.83769535324363" lon="113.65054407796671">
        <ele>83.18007043935359</ele>
        <time>2026-08-26T11:33:59Z</time>
      </trkpt>
      <trkpt lat="34.83752291292184" lon="113.65056394627405">
        <ele>85.1227195840329</ele>
        <time>2026-08-26T11:34:11Z</time>
      </trkpt>
      <trkpt lat="34.83730161184609" lon="113.650536387401">
        <ele>85.16166377905756</ele>
        <time>2026-08-26T11:34:26Z</time>
      </trkpt>
      <trkpt lat="34.83705399162942" lon="113.65059968788958">
        <ele>83.94131478387862</ele>
        <time>2026-08-26T11:34:43Z</time>
      </trkpt>
      <trkpt lat="34.83675064044207" lon="113.65075643196116">
        <ele>81.7805956127122</ele>
        <time>2026-08-26T11:35:06Z</time>
      </trkpt>
      <trkpt lat="34.83659994655366" lon="113.65086052009342">
        <ele>81.76735186297446</ele>
        <time>2026-08-26T11:35:18Z</time>
      </trkpt>
      <trkpt lat="34.83638861886877" lon="113.65090764097754">
        <ele>82.10014251247048</ele>
        <time>2026-08-26T11:35:33Z</time>
      </trkpt>
      <trkpt lat="34.836096042313805" lon="113.65103282530593">
        <ele>82.56983710080385</ele>
        <time>2026-08-26T11:35:54Z</time>
      </trkpt>
      <trkpt lat="34.835876017657604" lon="113.65110358910083">
        <ele>85.16776753496379</ele>
        <time>2026-08-26T11:36:09Z</time>
      </trkpt>
      <trkpt lat="34.83558332420758" lon="113.6512520428994">
        <ele>84.45071833208203</ele>
        <time>2026-08-26T11:36:33Z</time>
      </trkpt>
      <trkpt lat="34.835377636680036" lon="113.65133187476094">
        <ele>86.94894666410983</ele>
        <time>2026-08-26T11:36:47Z</time>
      </trkpt>
      <trkpt lat="34.83531085465294" lon="113.6513349842706">
        <ele>86.42612467799336</ele>
        <time>2026-08-26T11:36:53Z</time>
      </trkpt>
      <trkpt lat="34.835157540525664" lon="113.65139755927993">
        <ele>86.31478923372924</ele>
        <time>2026-08-26T11:37:05Z</time>
      </trkpt>
      <trkpt lat="34.83509401383408" lon="113.65138544786998">
        <ele>85.34269688092172</ele>
        <time>2026-08-26T11:37:11Z</time>
      </trkpt>
      <trkpt lat="34.835053466296806" lon="113.65128182660547">
        <ele>83.65519160963595</ele>
        <time>2026-08-26T11:37:17Z</time>
      </trkpt>
      <trkpt lat="34.83480899683146" lon="113.6513882206064">
        <ele>82.2048241365701</ele>
        <time>2026-08-26T11:37:35Z</time>
      </trkpt>
      <trkpt lat="34.83476551238631" lon="113.65145270925377">
        <ele>83.22654324676841</ele>
        <time>2026-08-26T11:37:41Z</time>
      </trkpt>
      <trkpt lat="34.834756465662046" lon="113.65154725211917">
        <ele>83.6636909507215</ele>
        <time>2026-08-26T11:37:47Z</time>
      </trkpt>
      <trkpt lat="34.834501957577636" lon="113.65166775297635">
        <ele>85.31202118285</ele>
        <time>2026-08-26T11:38:05Z</time>
      </trkpt>
      <trkpt lat="34.834469125652866" lon="113.65175970674917">
        <ele>87.75282715354115</ele>
        <time>2026-08-26T11:38:11Z</time>
      </trkpt>
      <trkpt lat="34.83420735538602" lon="113.6519326383003">
        <ele>88.41025052778423</ele>
        <time>2026-08-26T11:38:32Z</time>
      </trkpt>
      <trkpt lat="34.83401891206753" lon="113.65212120873106">
        <ele>86.73788212426007</ele>
        <time>2026-08-26T11:38:51Z</time>
      </trkpt>
      <trkpt lat="34.833988818905574" lon="113.65217259886242">
        <ele>87.01103152707219</ele>
        <time>2026-08-26T11:38:55Z</time>
      </trkpt>
      <trkpt lat="34.83405500624558" lon="113.65222694262984">
        <ele>87.25475227553397</ele>
        <time>2026-08-26T11:39:01Z</time>
      </trkpt>
      <trkpt lat="34.834107254178605" lon="113.65223500423438">
        <ele>86.74526048731059</ele>
        <time>2026-08-26T11:39:04Z</time>
      </trkpt>
      <trkpt lat="34.83413966434994" lon="113.65228853901661">
        <ele>87.85188302304596</ele>
        <time>2026-08-26T11:39:10Z</time>
      </trkpt>
      <trkpt lat="34.83418599619041" lon="113.65244694755545">
        <ele>90.72650829702616</ele>
        <time>2026-08-26T11:39:28Z</time>
      </trkpt>
      <trkpt lat="34.83415326110327" lon="113.6525057828947">
        <ele>90.14286260865629</ele>
        <time>2026-08-26T11:39:34Z</time>
      </trkpt>
      <trkpt lat="34.83384438916033" lon="113.65259372679496">
        <ele>85.05541365034878</ele>
        <time>2026-08-26T11:39:58Z</time>
      </trkpt>
      <trkpt lat="34.83358132810629" lon="113.65267657926839">
        <ele>85.83488615229726</ele>
        <time>2026-08-26T11:40:16Z</time>
      </trkpt>
      <trkpt lat="34.83341843248376" lon="113.65276232170247">
        <ele>84.93354065902531</ele>
        <time>2026-08-26T11:40:28Z</time>
      </trkpt>
      <trkpt lat="34.83329203218964" lon="113.6527951704175">
        <ele>84.00509095005691</ele>
        <time>2026-08-26T11:40:37Z</time>
      </trkpt>
      <trkpt lat="34.83317422845461" lon="113.65287760763889">
        <ele>82.9201147640124</ele>
        <time>2026-08-26T11:40:46Z</time>
      </trkpt>
      <trkpt lat="34.83312016237058" lon="113.65293739504902">
        <ele>82.77050223574042</ele>
        <time>2026-08-26T11:40:52Z</time>
      </trkpt>
      <trkpt lat="34.83308689867253" lon="113.65309544990957">
        <ele>85.3373151589185</ele>
        <time>2026-08-26T11:41:02Z</time>
      </trkpt>
      <trkpt lat="34.83283093630074" lon="113.65335240737119">
        <ele>88.18600506708026</ele>
        <time>2026-08-26T11:41:26Z</time>
      </trkpt>
      <trkpt lat="34.83267168109899" lon="113.65355826297649">
        <ele>88.6798649141565</ele>
        <time>2026-08-26T11:41:47Z</time>
      </trkpt>
      <trkpt lat="34.83285554344805" lon="113.65373128095592">
        <ele>89.67019672691822</ele>
        <time>2026-08-26T11:42:21Z</time>
      </trkpt>
      <trkpt lat="34.832839680291926" lon="113.6541238531643">
        <ele>87.24066805373877</ele>
        <time>2026-08-26T11:42:57Z</time>
      </trkpt>
      <trkpt lat="34.83285404823772" lon="113.6543733225438">
        <ele>86.06320352572948</ele>
        <time>2026-08-26T11:43:14Z</time>
      </trkpt>
      <trkpt lat="34.832831306344076" lon="113.65445410777653">
        <ele>84.63148044608533</ele>
        <time>2026-08-26T11:43:20Z</time>
      </trkpt>
      <trkpt lat="34.83287215762801" lon="113.65467169305492">
        <ele>84.91530890204012</ele>
        <time>2026-08-26T11:43:41Z</time>
      </trkpt>
      <trkpt lat="34.83285119173361" lon="113.6547241242417">
        <ele>85.00274514500052</ele>
        <time>2026-08-26T11:43:44Z</time>
      </trkpt>
      <trkpt lat="34.83291621914635" lon="113.65478651035518">
        <ele>84.44151675142348</ele>
        <time>2026-08-26T11:43:50Z</time>
      </trkpt>
      <trkpt lat="34.832938687228065" lon="113.65488681857745">
        <ele>85.22685576695949</ele>
        <time>2026-08-26T11:43:56Z</time>
      </trkpt>
      <trkpt lat="34.832938341847466" lon="113.65498119804887">
        <ele>85.16953423898667</ele>
        <time>2026-08-26T11:44:02Z</time>
      </trkpt>
      <trkpt lat="34.83286267839739" lon="113.65503522893749">
        <ele>85.05974995996803</ele>
        <time>2026-08-26T11:44:08Z</time>
      </trkpt>
      <trkpt lat="34.832812861220354" lon="113.65509449440647">
        <ele>83.66030101850629</ele>
        <time>2026-08-26T11:44:14Z</time>
      </trkpt>
      <trkpt lat="34.83277844426522" lon="113.65518138954646">
        <ele>84.09013319946826</ele>
        <time>2026-08-26T11:44:20Z</time>
      </trkpt>
      <trkpt lat="34.83282561843591" lon="113.65526914530818">
        <ele>85.67606307938695</ele>
        <time>2026-08-26T11:44:26Z</time>
      </trkpt>
      <trkpt lat="34.832753031592276" lon="113.65538880851832">
        <ele>84.84628927893937</ele>
        <time>2026-08-26T11:44:38Z</time>
      </trkpt>
      <trkpt lat="34.83271389574297" lon="113.65563200782098">
        <ele>83.14949427451938</ele>
        <time>2026-08-26T11:44:50Z</time>
      </trkpt>
      <trkpt lat="34.83268248254419" lon="113.65571552343572">
        <ele>83.9428392155096</ele>
        <time>2026-08-26T11:44:56Z</time>
      </trkpt>
      <trkpt lat="34.83262843192719" lon="113.65576350212696">
        <ele>83.45446480624378</ele>
        <time>2026-08-26T11:45:02Z</time>
      </trkpt>
      <trkpt lat="34.83246745658028" lon="113.65571506837335">
        <ele>83.15239238925278</ele>
        <time>2026-08-26T11:45:15Z</time>
      </trkpt>
      <trkpt lat="34.8323883398763" lon="113.65571422378598">
        <ele>84.0669590625912</ele>
        <time>2026-08-26T11:45:21Z</time>
      </trkpt>
      <trkpt lat="34.832326411759716" lon="113.65576645882679">
        <ele>84.67250512633473</ele>
        <time>2026-08-26T11:45:27Z</time>
      </trkpt>
      <trkpt lat="34.83223333293818" lon="113.65592337960308">
        <ele>84.81605405453593</ele>
        <time>2026-08-26T11:45:39Z</time>
      </trkpt>
      <trkpt lat="34.83216688204357" lon="113.6559813305153">
        <ele>84.87972134631127</ele>
        <time>2026-08-26T11:45:45Z</time>
      </trkpt>
      <trkpt lat="34.83209032456085" lon="113.6560118112995">
        <ele>84.59435058385134</ele>
        <time>2026-08-26T11:45:51Z</time>
      </trkpt>
      <trkpt lat="34.83201738414711" lon="113.6560024924311">
        <ele>83.97016796655953</ele>
        <time>2026-08-26T11:45:57Z</time>
      </trkpt>
      <trkpt lat="34.8319583088597" lon="113.65593627533624">
        <ele>84.0024198545143</ele>
        <time>2026-08-26T11:46:03Z</time>
      </trkpt>
      <trkpt lat="34.831931079828564" lon="113.6555831901081">
        <ele>85.86204003077</ele>
        <time>2026-08-26T11:46:27Z</time>
      </trkpt>
      <trkpt lat="34.831896191532564" lon="113.65534259866014">
        <ele>85.20647282060236</ele>
        <time>2026-08-26T11:46:42Z</time>
      </trkpt>
      <trkpt lat="34.831913876531566" lon="113.65528455283624">
        <ele>84.94639775715768</ele>
        <time>2026-08-26T11:46:45Z</time>
      </trkpt>
      <trkpt lat="34.832033269737536" lon="113.65523846728298">
        <ele>84.05571779794991</ele>
        <time>2026-08-26T11:47:00Z</time>
      </trkpt>
      <trkpt lat="34.8321907646737" lon="113.65507251674353">
        <ele>87.4374127741903</ele>
        <time>2026-08-26T11:47:16Z</time>
      </trkpt>
      <trkpt lat="34.83232850468414" lon="113.65499727508583">
        <ele>84.10033751185983</ele>
        <time>2026-08-26T11:47:28Z</time>
      </trkpt>
      <trkpt lat="34.83206128260937" lon="113.65507105579768">
        <ele>84.1444412721321</ele>
        <time>2026-08-26T11:47:49Z</time>
      </trkpt>
      <trkpt lat="34.83176018544118" lon="113.65519664537992">
        <ele>83.12862803321332</ele>
        <time>2026-08-26T11:48:10Z</time>
      </trkpt>
      <trkpt lat="34.83149855132587" lon="113.65529200540252">
        <ele>83.10031685605645</ele>
        <time>2026-08-26T11:48:28Z</time>
      </trkpt>
      <trkpt lat="34.831253766665526" lon="113.65537754249327">
        <ele>82.1166393077001</ele>
        <time>2026-08-26T11:48:43Z</time>
      </trkpt>
      <trkpt lat="34.8311647240513" lon="113.65540866300228">
        <ele>82.41465708427131</ele>
        <time>2026-08-26T11:48:49Z</time>
      </trkpt>
      <trkpt lat="34.83102878743694" lon="113.65548898702914">
        <ele>81.56807519774884</ele>
        <time>2026-08-26T11:48:58Z</time>
      </trkpt>
      <trkpt lat="34.83080690486366" lon="113.65562129775432">
        <ele>81.93619129806757</ele>
        <time>2026-08-26T11:49:13Z</time>
      </trkpt>
      <trkpt lat="34.8305245418828" lon="113.65572695026033">
        <ele>83.97897372581065</ele>
        <time>2026-08-26T11:49:32Z</time>
      </trkpt>
      <trkpt lat="34.83028480050622" lon="113.65581728657473">
        <ele>84.68757823575288</ele>
        <time>2026-08-26T11:49:53Z</time>
      </trkpt>
      <trkpt lat="34.830250789806584" lon="113.65586210470074">
        <ele>82.13896006066352</ele>
        <time>2026-08-26T11:50:11Z</time>
      </trkpt>
      <trkpt lat="34.83015651251645" lon="113.65592764378286">
        <ele>82.64694808144122</ele>
        <time>2026-08-26T11:50:50Z</time>
      </trkpt>
      <trkpt lat="34.83007974797754" lon="113.65597083807981">
        <ele>82.37752976175398</ele>
        <time>2026-08-26T11:51:11Z</time>
      </trkpt>
      <trkpt lat="34.82994845394228" lon="113.65599329061651">
        <ele>81.56214726343751</ele>
        <time>2026-08-26T11:51:20Z</time>
      </trkpt>
      <trkpt lat="34.82985977883903" lon="113.6559769282722">
        <ele>80.28860129509121</ele>
        <time>2026-08-26T11:51:27Z</time>
      </trkpt>
      <trkpt lat="34.82981708659797" lon="113.65610209754468">
        <ele>82.15698480792344</ele>
        <time>2026-08-26T11:51:39Z</time>
      </trkpt>
      <trkpt lat="34.82976891795456" lon="113.6561209729912">
        <ele>83.32840721402317</ele>
        <time>2026-08-26T11:51:43Z</time>
      </trkpt>
      <trkpt lat="34.82976891795456" lon="113.6561209729912">
        <ele>83.32840721402317</ele>
        <time>2026-08-26T11:51:45Z</time>
      </trkpt>
    </trkseg>
  </trk>
</gpx>