<?xml version="1.0" encoding="UTF-8"?>
<gpx xmlns="http://www.topografix.com/GPX/1/1" xmlns:gpxtpx="http://www.garmin.com/xmlschemas/TrackPointExtension/v1" xmlns:xsi="http://www.w3.org/2001/XMLSchema-instance" xsi:schemaLocation="http://www.topografix.com/GPX/1/1 http://www.topografix.com/GPX/1/1/gpx.xsd" version="1.1" creator="gpx.py -- https://github.com/tkrajina/gpxpy">
  <trk>
    <name>gpx from keep</name>
    <type>Run</type>
    <trkseg>
      <trkpt lat="34.83049632390116" lon="113.65538114699564">
        <ele>92.27837986219674</ele>
        <time>2026-09-09T09:57:13Z</time>
      </trkpt>
      <trkpt lat="34.8305572617638" lon="113.65534710820191">
        <ele>89.92505888920277</ele>
        <time>2026-09-09T09:57:16Z</time>
      </trkpt>
      <trkpt lat="34.83062199878239" lon="113.65527294788633">
        <ele>88.86257884837687</ele>
        <time>2026-09-09T09:57:19Z</time>
      </trkpt>
      <trkpt lat="34.830854011685034" lon="113.65521381561578">
        <ele>87.63134892191738</ele>
        <time>2026-09-09T09:57:31Z</time>
      </trkpt>
      <trkpt lat="34.831158213326006" lon="113.65506543210148">
        <ele>89.41903079859912</ele>
        <time>2026-09-09T09:57:46Z</time>
      </trkpt>
      <trkpt lat="34.831476399429064" lon="113.6549980308403">
        <ele>87.12366719730198</ele>
        <time>2026-09-09T09:58:01Z</time>
      </trkpt>
      <trkpt lat="34.8315408785448" lon="113.65499065350639">
        <ele>87.6122425403446</ele>
        <time>2026-09-09T09:58:04Z</time>
      </trkpt>
      <trkpt lat="34.8318111718505" lon="113.6548085793409">
        <ele>86.71403878182173</ele>
        <time>2026-09-09T09:58:19Z</time>
      </trkpt>
      <trkpt lat="34.83191650558534" lon="113.65472765570382">
        <ele>86.90574438497424</ele>
        <time>2026-09-09T09:58:25Z</time>
      </trkpt>
      <trkpt lat="34.832217897517594" lon="113.65465552676828">
        <ele>86.4857864100486</ele>
        <time>2026-09-09T09:58:40Z</time>
      </trkpt>
      <trkpt lat="34.83250850772693" lon="113.65457073285947">
        <ele>87.3611717429012</ele>
        <time>2026-09-09T09:58:52Z</time>
      </trkpt>
      <trkpt lat="34.83282535512912" lon="113.65445009258397">
        <ele>88.42208360508084</ele>
        <time>2026-09-09T09:59:08Z</time>
      </trkpt>
      <trkpt lat="34.83283425202126" lon="113.65406944058844">
        <ele>87.24419113155454</ele>
        <time>2026-09-09T09:59:26Z</time>
      </trkpt>
      <trkpt lat="34.83284822893142" lon="113.6538813084032">
        <ele>87.78122689761221</ele>
        <time>2026-09-09T09:59:35Z</time>
      </trkpt>
      <trkpt lat="34.83282962515128" lon="113.65374780581456">
        <ele>86.92927609104663</ele>
        <time>2026-09-09T09:59:41Z</time>
      </trkpt>
      <trkpt lat="34.83273880550569" lon="113.65358386724107">
        <ele>85.8896456938237</ele>
        <time>2026-09-09T09:59:50Z</time>
      </trkpt>
      <trkpt lat="34.83274529478528" lon="113.65351327232835">
        <ele>86.64127150550485</ele>
        <time>2026-09-09T09:59:53Z</time>
      </trkpt>
      <trkpt lat="34.83277871672175" lon="113.65344967879608">
        <ele>85.38155720569193</ele>
        <time>2026-09-09T09:59:56Z</time>
      </trkpt>
      <trkpt lat="34.83298706462512" lon="113.65322972211011">
        <ele>84.63506583496928</ele>
        <time>2026-09-09T10:00:11Z</time>
      </trkpt>
      <trkpt lat="34.833047705590005" lon="113.65313790832391">
        <ele>83.821877643466</ele>
        <time>2026-09-09T10:00:17Z</time>
      </trkpt>
      <trkpt lat="34.83307180482527" lon="113.652972120671">
        <ele>83.77063067536801</ele>
        <time>2026-09-09T10:00:26Z</time>
      </trkpt>
      <trkpt lat="34.83312260572983" lon="113.65291244549765">
        <ele>84.43867622036487</ele>
        <time>2026-09-09T10:00:29Z</time>
      </trkpt>
      <trkpt lat="34.83342701366873" lon="113.65276335809558">
        <ele>85.79495374951512</ele>
        <time>2026-09-09T10:00:44Z</time>
      </trkpt>
      <trkpt lat="34.83358695054739" lon="113.65264566555815">
        <ele>86.53373778332025</ele>
        <time>2026-09-09T10:00:53Z</time>
      </trkpt>
      <trkpt lat="34.83375347961829" lon="113.65258199569989">
        <ele>89.25873502716422</ele>
        <time>2026-09-09T10:01:02Z</time>
      </trkpt>
      <trkpt lat="34.83406304895087" lon="113.65251158760618">
        <ele>88.9960698923096</ele>
        <time>2026-09-09T10:01:20Z</time>
      </trkpt>
      <trkpt lat="34.834355742531564" lon="113.65244539083038">
        <ele>89.71965840365738</ele>
        <time>2026-09-09T10:01:40Z</time>
      </trkpt>
      <trkpt lat="34.83470809087749" lon="113.6523469269609">
        <ele>89.95361655857414</ele>
        <time>2026-09-09T10:01:55Z</time>
      </trkpt>
      <trkpt lat="34.83475819898736" lon="113.65229354632744">
        <ele>90.47861711960286</ele>
        <time>2026-09-09T10:01:58Z</time>
      </trkpt>
      <trkpt lat="34.83500362576674" lon="113.65218565497608">
        <ele>90.47117538005114</ele>
        <time>2026-09-09T10:02:13Z</time>
      </trkpt>
      <trkpt lat="34.83511564504999" lon="113.65215448842204">
        <ele>92.30071596521884</ele>
        <time>2026-09-09T10:02:16Z</time>
      </trkpt>
      <trkpt lat="34.835386413662356" lon="113.65200920678436">
        <ele>86.56487072072923</ele>
        <time>2026-09-09T10:02:34Z</time>
      </trkpt>
      <trkpt lat="34.835640587380176" lon="113.65187893048723">
        <ele>87.15387213043869</ele>
        <time>2026-09-09T10:02:52Z</time>
      </trkpt>
      <trkpt lat="34.835691719852754" lon="113.65183697472214">
        <ele>86.75717933662236</ele>
        <time>2026-09-09T10:02:58Z</time>
      </trkpt>
      <trkpt lat="34.8356664528165" lon="113.65176160008981">
        <ele>87.34012130554765</ele>
        <time>2026-09-09T10:03:04Z</time>
      </trkpt>
      <trkpt lat="34.83558061728726" lon="113.6516414882518">
        <ele>88.90062344446778</ele>
        <time>2026-09-09T10:03:16Z</time>
      </trkpt>
      <trkpt lat="34.83556110192841" lon="113.65139693364776">
        <ele>86.11052728164941</ele>
        <time>2026-09-09T10:03:32Z</time>
      </trkpt>
      <trkpt lat="34.83557276238057" lon="113.65131502043093">
        <ele>84.5689246756956</ele>
        <time>2026-09-09T10:03:36Z</time>
      </trkpt>
      <trkpt lat="34.83561632071919" lon="113.65127062512292">
        <ele>85.36280895210803</ele>
        <time>2026-09-09T10:03:39Z</time>
      </trkpt>
      <trkpt lat="34.835693002034546" lon="113.65125025314792">
        <ele>84.62320123054087</ele>
        <time>2026-09-09T10:03:42Z</time>
      </trkpt>
      <trkpt lat="34.83572828859479" lon="113.6512033273063">
        <ele>84.82019682973623</ele>
        <time>2026-09-09T10:03:45Z</time>
      </trkpt>
      <trkpt lat="34.835993962709715" lon="113.65108721608108">
        <ele>83.8260067421943</ele>
        <time>2026-09-09T10:04:03Z</time>
      </trkpt>
      <trkpt lat="34.83615361427355" lon="113.65108231271599">
        <ele>85.33867152035236</ele>
        <time>2026-09-09T10:04:09Z</time>
      </trkpt>
      <trkpt lat="34.8364004808407" lon="113.65112712994765">
        <ele>87.348582518287</ele>
        <time>2026-09-09T10:04:18Z</time>
      </trkpt>
      <trkpt lat="34.836600780158925" lon="113.65100398512212">
        <ele>85.54181213770062</ele>
        <time>2026-09-09T10:04:27Z</time>
      </trkpt>
      <trkpt lat="34.83667275251212" lon="113.6509779742803">
        <ele>85.44201237987727</ele>
        <time>2026-09-09T10:04:30Z</time>
      </trkpt>
      <trkpt lat="34.83674661965008" lon="113.65099983503744">
        <ele>86.50317843072116</ele>
        <time>2026-09-09T10:04:33Z</time>
      </trkpt>
      <trkpt lat="34.836806798164844" lon="113.65098461794321">
        <ele>87.04224161524326</ele>
        <time>2026-09-09T10:04:36Z</time>
      </trkpt>
      <trkpt lat="34.83694352858469" lon="113.65100051547948">
        <ele>86.21703379042447</ele>
        <time>2026-09-09T10:04:42Z</time>
      </trkpt>
      <trkpt lat="34.836973352303445" lon="113.65104925010094">
        <ele>87.34017527569085</ele>
        <time>2026-09-09T10:04:45Z</time>
      </trkpt>
      <trkpt lat="34.83703036039189" lon="113.65109342593512">
        <ele>86.76806735713035</ele>
        <time>2026-09-09T10:04:48Z</time>
      </trkpt>
      <trkpt lat="34.837155766887186" lon="113.65111145120086">
        <ele>87.96810789592564</ele>
        <time>2026-09-09T10:04:54Z</time>
      </trkpt>
      <trkpt lat="34.837456800309106" lon="113.65106413865975">
        <ele>88.08087109681219</ele>
        <time>2026-09-09T10:05:09Z</time>
      </trkpt>
      <trkpt lat="34.83762341664683" lon="113.65099445336278">
        <ele>88.25188511703163</ele>
        <time>2026-09-09T10:05:18Z</time>
      </trkpt>
      <trkpt lat="34.83788420181661" lon="113.65080675053017">
        <ele>88.09461294300854</ele>
        <time>2026-09-09T10:05:33Z</time>
      </trkpt>
      <trkpt lat="34.838021403355384" lon="113.65071837955338">
        <ele>87.83986703213304</ele>
        <time>2026-09-09T10:05:41Z</time>
      </trkpt>
      <trkpt lat="34.838246268020995" lon="113.650445476157">
        <ele>86.5674659917131</ele>
        <time>2026-09-09T10:05:59Z</time>
      </trkpt>
      <trkpt lat="34.83841440004353" lon="113.65034438709905">
        <ele>86.06604358181357</ele>
        <time>2026-09-09T10:06:08Z</time>
      </trkpt>
      <trkpt lat="34.8384833871268" lon="113.6503370475876">
        <ele>86.0470075942576</ele>
        <time>2026-09-09T10:06:11Z</time>
      </trkpt>
      <trkpt lat="34.83854627251053" lon="113.6503063510997">
        <ele>86.94592965394258</ele>
        <time>2026-09-09T10:06:14Z</time>
      </trkpt>
      <trkpt lat="34.83863126247051" lon="113.65029925540351">
        <ele>86.31521427165717</ele>
        <time>2026-09-09T10:06:20Z</time>
      </trkpt>
      <trkpt lat="34.83878925916077" lon="113.65033169811491">
        <ele>87.26510454062372</ele>
        <time>2026-09-09T10:06:29Z</time>
      </trkpt>
      <trkpt lat="34.83885302836309" lon="113.65030752584866">
        <ele>87.57849131058902</ele>
        <time>2026-09-09T10:06:32Z</time>
      </trkpt>
      <trkpt lat="34.83895221334839" lon="113.65014176339692">
        <ele>88.55482433363795</ele>
        <time>2026-09-09T10:06:41Z</time>
      </trkpt>
      <trkpt lat="34.83895388562362" lon="113.64995624636629">
        <ele>88.45256525836885</ele>
        <time>2026-09-09T10:06:53Z</time>
      </trkpt>
      <trkpt lat="34.839001482947246" lon="113.6498761936827">
        <ele>89.74044210091233</ele>
        <time>2026-09-09T10:06:59Z</time>
      </trkpt>
      <trkpt lat="34.83907327069708" lon="113.64982897348422">
        <ele>87.73819782398641</ele>
        <time>2026-09-09T10:07:05Z</time>
      </trkpt>
      <trkpt lat="34.839144783607644" lon="113.64980656551356">
        <ele>87.39511800836772</ele>
        <time>2026-09-09T10:07:11Z</time>
      </trkpt>
      <trkpt lat="34.839214130637615" lon="113.64975594289807">
        <ele>87.87066803779453</ele>
        <time>2026-09-09T10:07:17Z</time>
      </trkpt>
      <trkpt lat="34.83925515404004" lon="113.64963540948376">
        <ele>87.86332182772458</ele>
        <time>2026-09-09T10:07:23Z</time>
      </trkpt>
      <trkpt lat="34.839239180989054" lon="113.64957574955432">
        <ele>86.82172443903983</ele>
        <time>2026-09-09T10:07:26Z</time>
      </trkpt>
      <trkpt lat="34.839145827135475" lon="113.64948683731939">
        <ele>84.26895586121827</ele>
        <time>2026-09-09T10:07:34Z</time>
      </trkpt>
      <trkpt lat="34.83913269323519" lon="113.64929476590096">
        <ele>85.1527265040204</ele>
        <time>2026-09-09T10:07:50Z</time>
      </trkpt>
      <trkpt lat="34.83910444552482" lon="113.6492423858395">
        <ele>84.61915389169008</ele>
        <time>2026-09-09T10:07:54Z</time>
      </trkpt>
      <trkpt lat="34.83908191233111" lon="113.64903636296776">
        <ele>85.875409190543</ele>
        <time>2026-09-09T10:08:05Z</time>
      </trkpt>
      <trkpt lat="34.83900663085424" lon="113.64885855605036">
        <ele>86.63869555667043</ele>
        <time>2026-09-09T10:08:17Z</time>
      </trkpt>
      <trkpt lat="34.83895392464829" lon="113.64853141976165">
        <ele>87.11676448117942</ele>
        <time>2026-09-09T10:08:38Z</time>
      </trkpt>
      <trkpt lat="34.838970716736426" lon="113.64844804162149">
        <ele>87.5789298331365</ele>
        <time>2026-09-09T10:08:44Z</time>
      </trkpt>
      <trkpt lat="34.83895800782182" lon="113.64838640782985">
        <ele>88.12089458014816</ele>
        <time>2026-09-09T10:08:47Z</time>
      </trkpt>
      <trkpt lat="34.838952161164556" lon="113.64818324369942">
        <ele>89.16628854814917</ele>
        <time>2026-09-09T10:08:59Z</time>
      </trkpt>
      <trkpt lat="34.838923799234195" lon="113.64806896403103">
        <ele>88.60364730469882</ele>
        <time>2026-09-09T10:09:05Z</time>
      </trkpt>
      <trkpt lat="34.83895984635244" lon="113.64801197750728">
        <ele>88.48800331074744</ele>
        <time>2026-09-09T10:09:11Z</time>
      </trkpt>
      <trkpt lat="34.83895454481827" lon="113.64791570184751">
        <ele>88.3321304032579</ele>
        <time>2026-09-09T10:09:17Z</time>
      </trkpt>
      <trkpt lat="34.83897519494486" lon="113.64786016918548">
        <ele>89.28437865432352</ele>
        <time>2026-09-09T10:09:20Z</time>
      </trkpt>
      <trkpt lat="34.83895222490324" lon="113.64779648547552">
        <ele>89.2639136184007</ele>
        <time>2026-09-09T10:09:23Z</time>
      </trkpt>
      <trkpt lat="34.83897888515441" lon="113.64761466782011">
        <ele>89.3448108015582</ele>
        <time>2026-09-09T10:09:36Z</time>
      </trkpt>
      <trkpt lat="34.83896278256459" lon="113.64752884190301">
        <ele>89.5851020263508</ele>
        <time>2026-09-09T10:09:42Z</time>
      </trkpt>
      <trkpt lat="34.83897310117445" lon="113.64739139291417">
        <ele>89.37200176622719</ele>
        <time>2026-09-09T10:09:51Z</time>
      </trkpt>
      <trkpt lat="34.83901264521464" lon="113.64725338942925">
        <ele>88.97854283079505</ele>
        <time>2026-09-09T10:09:57Z</time>
      </trkpt>
    </trkseg>
  </trk>
</gpx>