<?xml version="1.0" encoding="UTF-8"?>
<gpx xmlns="http://www.topografix.com/GPX/1/1" xmlns:gpxtpx="http://www.garmin.com/xmlschemas/TrackPointExtension/v1" xmlns:xsi="http://www.w3.org/2001/XMLSchema-instance" xsi:schemaLocation="http://www.topografix.com/GPX/1/1 http://www.topografix.com/GPX/1/1/gpx.xsd" version="1.1" creator="gpx.py -- https://github.com/tkrajina/gpxpy">
  <trk>
    <name>gpx from keep</name>
    <type>Run</type>
    <trkseg>
      <trkpt lat="34.82978952276244" lon="113.65433178217761">
        <ele>87.7076416015625</ele>
        <time>2026-08-01T23:38:38Z</time>
      </trkpt>
      <trkpt lat="34.829501187407864" lon="113.65443146220622">
        <ele>91.66011004988104</ele>
        <time>2026-08-01T23:38:50Z</time>
      </trkpt>
      <trkpt lat="34.82935572046207" lon="113.65451799108621">
        <ele>93.09202532749623</ele>
        <time>2026-08-01T23:38:56Z</time>
      </trkpt>
      <trkpt lat="34.82909216003272" lon="113.65463722816811">
        <ele>91.95449170190841</ele>
        <time>2026-08-01T23:39:08Z</time>
      </trkpt>
      <trkpt lat="34.828755408847" lon="113.65474555377043">
        <ele>92.54237312451005</ele>
        <time>2026-08-01T23:39:23Z</time>
      </trkpt>
      <trkpt lat="34.82857175687418" lon="113.65483550779128">
        <ele>93.84653786197305</ele>
        <time>2026-08-01T23:39:32Z</time>
      </trkpt>
      <trkpt lat="34.82835364248757" lon="113.65490688394446">
        <ele>94.19417698029429</ele>
        <time>2026-08-01T23:39:41Z</time>
      </trkpt>
      <trkpt lat="34.828049491112424" lon="113.65506226560694">
        <ele>92.63123617693782</ele>
        <time>2026-08-01T23:39:56Z</time>
      </trkpt>
      <trkpt lat="34.827994485048265" lon="113.65509937458063">
        <ele>91.8069527707994</ele>
        <time>2026-08-01T23:39:59Z</time>
      </trkpt>
      <trkpt lat="34.827707693186106" lon="113.65521611588541">
        <ele>90.52384572010487</ele>
        <time>2026-08-01T23:40:14Z</time>
      </trkpt>
      <trkpt lat="34.827609491029776" lon="113.65527699176037">
        <ele>90.3299712985754</ele>
        <time>2026-08-01T23:40:20Z</time>
      </trkpt>
      <trkpt lat="34.8275393900366" lon="113.65528895554415">
        <ele>89.525868806988</ele>
        <time>2026-08-01T23:40:23Z</time>
      </trkpt>
      <trkpt lat="34.82736393946554" lon="113.65538489710237">
        <ele>88.19162346795201</ele>
        <time>2026-08-01T23:40:32Z</time>
      </trkpt>
      <trkpt lat="34.827038002309976" lon="113.6554699913641">
        <ele>91.02174718119204</ele>
        <time>2026-08-01T23:40:48Z</time>
      </trkpt>
      <trkpt lat="34.826797085784804" lon="113.65558406988478">
        <ele>91.98957428429276</ele>
        <time>2026-08-01T23:41:00Z</time>
      </trkpt>
      <trkpt lat="34.82668163701917" lon="113.65566654997862">
        <ele>91.65964478999376</ele>
        <time>2026-08-01T23:41:06Z</time>
      </trkpt>
      <trkpt lat="34.82642112086027" lon="113.6557602805541">
        <ele>90.35627048555762</ele>
        <time>2026-08-01T23:41:18Z</time>
      </trkpt>
      <trkpt lat="34.826371116138034" lon="113.65575686761902">
        <ele>89.70522334147245</ele>
        <time>2026-08-01T23:41:21Z</time>
      </trkpt>
      <trkpt lat="34.826274639922985" lon="113.65581340780686">
        <ele>90.63603045511991</ele>
        <time>2026-08-01T23:41:27Z</time>
      </trkpt>
      <trkpt lat="34.82624853579339" lon="113.65587799863009">
        <ele>90.22200539428741</ele>
        <time>2026-08-01T23:41:30Z</time>
      </trkpt>
      <trkpt lat="34.82597624488628" lon="113.65599437560495">
        <ele>89.31398295238614</ele>
        <time>2026-08-01T23:41:42Z</time>
      </trkpt>
      <trkpt lat="34.82593201485677" lon="113.65605279652347">
        <ele>90.45144346915185</ele>
        <time>2026-08-01T23:41:45Z</time>
      </trkpt>
      <trkpt lat="34.82575725221649" lon="113.65600722715658">
        <ele>90.64556371513754</ele>
        <time>2026-08-01T23:41:48Z</time>
      </trkpt>
      <trkpt lat="34.825615409011036" lon="113.656090056562">
        <ele>91.03393573872745</ele>
        <time>2026-08-01T23:41:54Z</time>
      </trkpt>
      <trkpt lat="34.82550224274336" lon="113.65620091827945">
        <ele>91.79264132492244</ele>
        <time>2026-08-01T23:42:03Z</time>
      </trkpt>
      <trkpt lat="34.82522591626517" lon="113.65634868417851">
        <ele>91.52660678885877</ele>
        <time>2026-08-01T23:42:15Z</time>
      </trkpt>
      <trkpt lat="34.82512383768478" lon="113.65641741133344">
        <ele>92.33763308264315</ele>
        <time>2026-08-01T23:42:18Z</time>
      </trkpt>
      <trkpt lat="34.825039051964715" lon="113.65644011125657">
        <ele>91.77466432750225</ele>
        <time>2026-08-01T23:42:21Z</time>
      </trkpt>
      <trkpt lat="34.824973472915694" lon="113.65664510069368">
        <ele>91.53711813408881</ele>
        <time>2026-08-01T23:42:24Z</time>
      </trkpt>
      <trkpt lat="34.8248939549513" lon="113.65667941484439">
        <ele>91.61191451177001</ele>
        <time>2026-08-01T23:42:27Z</time>
      </trkpt>
      <trkpt lat="34.824750786070624" lon="113.65690598810224">
        <ele>91.80653460137546</ele>
        <time>2026-08-01T23:42:33Z</time>
      </trkpt>
      <trkpt lat="34.82443509585671" lon="113.65731340639157">
        <ele>91.99287907686085</ele>
        <time>2026-08-01T23:42:42Z</time>
      </trkpt>
      <trkpt lat="34.82462963711896" lon="113.65679352802877">
        <ele>91.74458322301507</ele>
        <time>2026-08-01T23:42:46Z</time>
      </trkpt>
      <trkpt lat="34.8244667067767" lon="113.65666627819552">
        <ele>92.71219831518829</ele>
        <time>2026-08-01T23:42:50Z</time>
      </trkpt>
      <trkpt lat="34.82438469307522" lon="113.65664528120271">
        <ele>93.3203849196434</ele>
        <time>2026-08-01T23:42:54Z</time>
      </trkpt>
      <trkpt lat="34.82412692373698" lon="113.65673105099998">
        <ele>93.19299694802612</ele>
        <time>2026-08-01T23:43:07Z</time>
      </trkpt>
      <trkpt lat="34.824071910352544" lon="113.65671886943085">
        <ele>93.2566533414647</ele>
        <time>2026-08-01T23:43:10Z</time>
      </trkpt>
      <trkpt lat="34.823955908869785" lon="113.656788159707">
        <ele>91.90661154966801</ele>
        <time>2026-08-01T23:43:16Z</time>
      </trkpt>
      <trkpt lat="34.82377400593163" lon="113.65684991521985">
        <ele>91.81220630183816</ele>
        <time>2026-08-01T23:43:25Z</time>
      </trkpt>
      <trkpt lat="34.82373263800614" lon="113.65688359150032">
        <ele>90.64348505809903</ele>
        <time>2026-08-01T23:43:28Z</time>
      </trkpt>
      <trkpt lat="34.823691878401526" lon="113.65700324104577">
        <ele>90.44289938453585</ele>
        <time>2026-08-01T23:43:37Z</time>
      </trkpt>
      <trkpt lat="34.82359624151461" lon="113.65707982690009">
        <ele>89.70100271515548</ele>
        <time>2026-08-01T23:43:40Z</time>
      </trkpt>
      <trkpt lat="34.8234975280562" lon="113.65708330411364">
        <ele>89.8887173179537</ele>
        <time>2026-08-01T23:43:43Z</time>
      </trkpt>
      <trkpt lat="34.82334217675767" lon="113.65716833071137">
        <ele>89.95735358633101</ele>
        <time>2026-08-01T23:43:49Z</time>
      </trkpt>
      <trkpt lat="34.82326549638126" lon="113.65737964257441">
        <ele>89.63444501627237</ele>
        <time>2026-08-01T23:43:55Z</time>
      </trkpt>
      <trkpt lat="34.82317826226746" lon="113.65736694535337">
        <ele>89.55358829535544</ele>
        <time>2026-08-01T23:43:58Z</time>
      </trkpt>
      <trkpt lat="34.8230592774517" lon="113.6574166000655">
        <ele>90.67449438199401</ele>
        <time>2026-08-01T23:44:04Z</time>
      </trkpt>
      <trkpt lat="34.82301550572154" lon="113.65749485318051">
        <ele>89.99446259438992</ele>
        <time>2026-08-01T23:44:07Z</time>
      </trkpt>
      <trkpt lat="34.82296850199625" lon="113.65752070208428">
        <ele>90.13419803790748</ele>
        <time>2026-08-01T23:44:10Z</time>
      </trkpt>
      <trkpt lat="34.82295083075049" lon="113.65761633728825">
        <ele>88.76336358580738</ele>
        <time>2026-08-01T23:44:13Z</time>
      </trkpt>
      <trkpt lat="34.82277010192835" lon="113.65740127302338">
        <ele>89.34901677351445</ele>
        <time>2026-08-01T23:44:16Z</time>
      </trkpt>
      <trkpt lat="34.822567774497365" lon="113.65734934782581">
        <ele>90.83326400071383</ele>
        <time>2026-08-01T23:44:22Z</time>
      </trkpt>
      <trkpt lat="34.8222944370396" lon="113.65741995461796">
        <ele>91.00214045401663</ele>
        <time>2026-08-01T23:44:31Z</time>
      </trkpt>
      <trkpt lat="34.82211793903356" lon="113.65752165837891">
        <ele>90.27091542631388</ele>
        <time>2026-08-01T23:44:40Z</time>
      </trkpt>
      <trkpt lat="34.82196771805371" lon="113.65757248743026">
        <ele>90.49419398233294</ele>
        <time>2026-08-01T23:44:46Z</time>
      </trkpt>
      <trkpt lat="34.821907936016274" lon="113.65756676339919">
        <ele>89.71742556616664</ele>
        <time>2026-08-01T23:44:49Z</time>
      </trkpt>
      <trkpt lat="34.82166375449565" lon="113.65769723683752">
        <ele>91.91110960859805</ele>
        <time>2026-08-01T23:45:02Z</time>
      </trkpt>
      <trkpt lat="34.821589957575334" lon="113.65769520695062">
        <ele>91.23901828564703</ele>
        <time>2026-08-01T23:45:05Z</time>
      </trkpt>
      <trkpt lat="34.821449908133985" lon="113.65776672865353">
        <ele>91.37585296295583</ele>
        <time>2026-08-01T23:45:11Z</time>
      </trkpt>
      <trkpt lat="34.821416107157745" lon="113.65781026982368">
        <ele>91.73514021933079</ele>
        <time>2026-08-01T23:45:14Z</time>
      </trkpt>
      <trkpt lat="34.82134293593424" lon="113.65783948583957">
        <ele>93.46975737717003</ele>
        <time>2026-08-01T23:45:17Z</time>
      </trkpt>
      <trkpt lat="34.82122726754072" lon="113.6578520137882">
        <ele>91.32064494024962</ele>
        <time>2026-08-01T23:45:23Z</time>
      </trkpt>
      <trkpt lat="34.821146596657385" lon="113.65791783317533">
        <ele>91.75913065113127</ele>
        <time>2026-08-01T23:45:26Z</time>
      </trkpt>
      <trkpt lat="34.821090220333765" lon="113.65793970205003">
        <ele>91.63299034256488</ele>
        <time>2026-08-01T23:45:29Z</time>
      </trkpt>
      <trkpt lat="34.82102139052511" lon="113.65799841008246">
        <ele>92.4844620814547</ele>
        <time>2026-08-01T23:45:32Z</time>
      </trkpt>
      <trkpt lat="34.82091634908778" lon="113.65804550758595">
        <ele>93.31978658400476</ele>
        <time>2026-08-01T23:45:38Z</time>
      </trkpt>
      <trkpt lat="34.8205971431524" lon="113.65813637358852">
        <ele>93.20509509649128</ele>
        <time>2026-08-01T23:45:53Z</time>
      </trkpt>
      <trkpt lat="34.82061575765864" lon="113.65831739761515">
        <ele>88.51487751025707</ele>
        <time>2026-08-01T23:46:17Z</time>
      </trkpt>
      <trkpt lat="34.82035527646677" lon="113.65838098049387">
        <ele>88.66981455031782</ele>
        <time>2026-08-01T23:46:24Z</time>
      </trkpt>
      <trkpt lat="34.82020820319935" lon="113.65833632329507">
        <ele>88.87007348705083</ele>
        <time>2026-08-01T23:46:27Z</time>
      </trkpt>
      <trkpt lat="34.820107922863606" lon="113.65843566127072">
        <ele>88.35731186252087</ele>
        <time>2026-08-01T23:46:33Z</time>
      </trkpt>
      <trkpt lat="34.8199759295148" lon="113.65847960817933">
        <ele>86.96717934589833</ele>
        <time>2026-08-01T23:46:39Z</time>
      </trkpt>
      <trkpt lat="34.81985060938828" lon="113.65855903589073">
        <ele>90.31954116094857</ele>
        <time>2026-08-01T23:46:45Z</time>
      </trkpt>
      <trkpt lat="34.819774703946464" lon="113.6585824221212">
        <ele>90.36037578620017</ele>
        <time>2026-08-01T23:46:48Z</time>
      </trkpt>
      <trkpt lat="34.81972551916875" lon="113.65862658279516">
        <ele>89.93502295669168</ele>
        <time>2026-08-01T23:46:51Z</time>
      </trkpt>
      <trkpt lat="34.81965749721156" lon="113.65864095465378">
        <ele>90.47284152824432</ele>
        <time>2026-08-01T23:46:54Z</time>
      </trkpt>
      <trkpt lat="34.8195791301801" lon="113.65868953249716">
        <ele>89.96670595742762</ele>
        <time>2026-08-01T23:46:58Z</time>
      </trkpt>
      <trkpt lat="34.819504264193526" lon="113.65868450717494">
        <ele>90.84275722969323</ele>
        <time>2026-08-01T23:47:02Z</time>
      </trkpt>
      <trkpt lat="34.81924315883741" lon="113.65880214089293">
        <ele>90.94226470403373</ele>
        <time>2026-08-01T23:47:16Z</time>
      </trkpt>
      <trkpt lat="34.81917816136786" lon="113.65885674560259">
        <ele>90.87115990649909</ele>
        <time>2026-08-01T23:47:19Z</time>
      </trkpt>
      <trkpt lat="34.819064670214324" lon="113.65885841246352">
        <ele>89.9202898927033</ele>
        <time>2026-08-01T23:47:25Z</time>
      </trkpt>
      <trkpt lat="34.818938917093725" lon="113.65895562267232">
        <ele>90.19061784632504</ele>
        <time>2026-08-01T23:47:31Z</time>
      </trkpt>
      <trkpt lat="34.81888761356247" lon="113.6589526106261">
        <ele>89.47118454519659</ele>
        <time>2026-08-01T23:47:34Z</time>
      </trkpt>
      <trkpt lat="34.818840933267516" lon="113.65899334891878">
        <ele>89.90066525992006</ele>
        <time>2026-08-01T23:47:37Z</time>
      </trkpt>
      <trkpt lat="34.818767097065304" lon="113.65900086275369">
        <ele>89.7528357328847</ele>
        <time>2026-08-01T23:47:40Z</time>
      </trkpt>
      <trkpt lat="34.818708495894384" lon="113.65904128566747">
        <ele>90.12716715782881</ele>
        <time>2026-08-01T23:47:43Z</time>
      </trkpt>
      <trkpt lat="34.81864560026772" lon="113.65905871556966">
        <ele>91.22850464656949</ele>
        <time>2026-08-01T23:47:46Z</time>
      </trkpt>
      <trkpt lat="34.818584381328975" lon="113.65910690223983">
        <ele>91.50019088573754</ele>
        <time>2026-08-01T23:47:49Z</time>
      </trkpt>
      <trkpt lat="34.818454323190984" lon="113.6591283704858">
        <ele>91.07011539768428</ele>
        <time>2026-08-01T23:47:55Z</time>
      </trkpt>
      <trkpt lat="34.818166096359555" lon="113.659270823509">
        <ele>90.645756916143</ele>
        <time>2026-08-01T23:48:10Z</time>
      </trkpt>
      <trkpt lat="34.817843890529076" lon="113.65939454737499">
        <ele>91.59247740730643</ele>
        <time>2026-08-01T23:48:25Z</time>
      </trkpt>
      <trkpt lat="34.81779023077855" lon="113.6594262136379">
        <ele>91.85030636563897</ele>
        <time>2026-08-01T23:48:28Z</time>
      </trkpt>
      <trkpt lat="34.81767587109934" lon="113.65944132419004">
        <ele>90.3311290545389</ele>
        <time>2026-08-01T23:48:34Z</time>
      </trkpt>
      <trkpt lat="34.817495935300684" lon="113.65953761258524">
        <ele>90.50612712372094</ele>
        <time>2026-08-01T23:48:43Z</time>
      </trkpt>
      <trkpt lat="34.81717831566702" lon="113.65964078689274">
        <ele>91.31919056829065</ele>
        <time>2026-08-01T23:48:58Z</time>
      </trkpt>
      <trkpt lat="34.81702056228572" lon="113.65973442658647">
        <ele>91.8899810006842</ele>
        <time>2026-08-01T23:49:05Z</time>
      </trkpt>
      <trkpt lat="34.81677414111237" lon="113.6598444875715">
        <ele>91.81029071845114</ele>
        <time>2026-08-01T23:49:17Z</time>
      </trkpt>
      <trkpt lat="34.81670583255316" lon="113.65985037161336">
        <ele>92.67595193441957</ele>
        <time>2026-08-01T23:49:20Z</time>
      </trkpt>
      <trkpt lat="34.81654259385294" lon="113.65995134816166">
        <ele>92.86637931596488</ele>
        <time>2026-08-01T23:49:29Z</time>
      </trkpt>
      <trkpt lat="34.81625409156552" lon="113.66005365375271">
        <ele>91.71355211082846</ele>
        <time>2026-08-01T23:49:44Z</time>
      </trkpt>
      <trkpt lat="34.81621025336161" lon="113.66002893403397">
        <ele>92.03352744039148</ele>
        <time>2026-08-01T23:49:47Z</time>
      </trkpt>
      <trkpt lat="34.81619541920024" lon="113.65984389695367">
        <ele>94.62062214221805</ele>
        <time>2026-08-01T23:49:59Z</time>
      </trkpt>
      <trkpt lat="34.81614812662618" lon="113.65976944334945">
        <ele>93.14815901312977</ele>
        <time>2026-08-01T23:50:05Z</time>
      </trkpt>
      <trkpt lat="34.81611149069103" lon="113.65982791675333">
        <ele>93.17005354259163</ele>
        <time>2026-08-01T23:50:11Z</time>
      </trkpt>
      <trkpt lat="34.8161053802376" lon="113.65989592712202">
        <ele>93.05379087571055</ele>
        <time>2026-08-01T23:50:14Z</time>
      </trkpt>
      <trkpt lat="34.81618022331125" lon="113.66015707524984">
        <ele>91.44962188787758</ele>
        <time>2026-08-01T23:50:23Z</time>
      </trkpt>
      <trkpt lat="34.81618726527949" lon="113.66023904923462">
        <ele>91.06348039396107</ele>
        <time>2026-08-01T23:50:26Z</time>
      </trkpt>
      <trkpt lat="34.81624542989903" lon="113.66037883482285">
        <ele>91.47870031371713</ele>
        <time>2026-08-01T23:50:32Z</time>
      </trkpt>
      <trkpt lat="34.816261221474925" lon="113.66046247858007">
        <ele>91.12737710867077</ele>
        <time>2026-08-01T23:50:35Z</time>
      </trkpt>
      <trkpt lat="34.81623445544395" lon="113.66067403799131">
        <ele>92.94202333223075</ele>
        <time>2026-08-01T23:50:44Z</time>
      </trkpt>
      <trkpt lat="34.81626791932998" lon="113.66071638156377">
        <ele>92.89545684400946</ele>
        <time>2026-08-01T23:50:47Z</time>
      </trkpt>
      <trkpt lat="34.81628381275938" lon="113.66077819870776">
        <ele>93.3289826894179</ele>
        <time>2026-08-01T23:50:50Z</time>
      </trkpt>
      <trkpt lat="34.816345061553065" lon="113.66078483093294">
        <ele>93.25879525113851</ele>
        <time>2026-08-01T23:50:53Z</time>
      </trkpt>
      <trkpt lat="34.8165606376445" lon="113.66071068917579">
        <ele>92.09573735482991</ele>
        <time>2026-08-01T23:50:59Z</time>
      </trkpt>
      <trkpt lat="34.81665175012059" lon="113.660587445165">
        <ele>91.67507715616375</ele>
        <time>2026-08-01T23:51:05Z</time>
      </trkpt>
      <trkpt lat="34.816639028557695" lon="113.66046647999964">
        <ele>90.38258344028145</ele>
        <time>2026-08-01T23:51:13Z</time>
      </trkpt>
      <trkpt lat="34.81680659702652" lon="113.66037577665864">
        <ele>91.2074618935585</ele>
        <time>2026-08-01T23:51:29Z</time>
      </trkpt>
      <trkpt lat="34.816880163839365" lon="113.66036303065204">
        <ele>90.67177212610841</ele>
        <time>2026-08-01T23:51:32Z</time>
      </trkpt>
      <trkpt lat="34.81693691276044" lon="113.66033306309807">
        <ele>90.46072570700198</ele>
        <time>2026-08-01T23:51:35Z</time>
      </trkpt>
      <trkpt lat="34.81708166338461" lon="113.66033773712537">
        <ele>90.8623212352395</ele>
        <time>2026-08-01T23:51:38Z</time>
      </trkpt>
      <trkpt lat="34.81714487530364" lon="113.66029250790908">
        <ele>90.32190941553563</ele>
        <time>2026-08-01T23:51:41Z</time>
      </trkpt>
      <trkpt lat="34.8171935814933" lon="113.66021850731882">
        <ele>90.53574865404516</ele>
        <time>2026-08-01T23:51:44Z</time>
      </trkpt>
      <trkpt lat="34.817263152444816" lon="113.66021657654775">
        <ele>90.39502691011876</ele>
        <time>2026-08-01T23:51:47Z</time>
      </trkpt>
      <trkpt lat="34.817290433125606" lon="113.66016658531024">
        <ele>91.09954997338355</ele>
        <time>2026-08-01T23:51:50Z</time>
      </trkpt>
      <trkpt lat="34.81758408797256" lon="113.66012521293007">
        <ele>90.4282463695854</ele>
        <time>2026-08-01T23:52:05Z</time>
      </trkpt>
      <trkpt lat="34.817874497144935" lon="113.66004081002258">
        <ele>89.93415342550725</ele>
        <time>2026-08-01T23:52:17Z</time>
      </trkpt>
      <trkpt lat="34.8180117854061" lon="113.65987340154949">
        <ele>89.01543992571533</ele>
        <time>2026-08-01T23:52:29Z</time>
      </trkpt>
      <trkpt lat="34.81809988324609" lon="113.65980951111911">
        <ele>89.39709062129259</ele>
        <time>2026-08-01T23:52:32Z</time>
      </trkpt>
      <trkpt lat="34.81821214501332" lon="113.65977621331669">
        <ele>89.45708900876343</ele>
        <time>2026-08-01T23:52:38Z</time>
      </trkpt>
      <trkpt lat="34.81839414127517" lon="113.65962972712227">
        <ele>90.53428526129574</ele>
        <time>2026-08-01T23:52:50Z</time>
      </trkpt>
      <trkpt lat="34.818465363169025" lon="113.6596036248969">
        <ele>90.07649083435535</ele>
        <time>2026-08-01T23:52:53Z</time>
      </trkpt>
      <trkpt lat="34.81856219764649" lon="113.65951875389176">
        <ele>89.97900495864451</ele>
        <time>2026-08-01T23:52:59Z</time>
      </trkpt>
      <trkpt lat="34.818652098170844" lon="113.65948831572844">
        <ele>90.38881833851337</ele>
        <time>2026-08-01T23:53:02Z</time>
      </trkpt>
      <trkpt lat="34.81872338652987" lon="113.6594905045727">
        <ele>90.9428709903732</ele>
        <time>2026-08-01T23:53:05Z</time>
      </trkpt>
      <trkpt lat="34.81877500206606" lon="113.65945828437918">
        <ele>91.88013710454106</ele>
        <time>2026-08-01T23:53:08Z</time>
      </trkpt>
      <trkpt lat="34.818887280484965" lon="113.65944472233171">
        <ele>91.80533139593899</ele>
        <time>2026-08-01T23:53:11Z</time>
      </trkpt>
      <trkpt lat="34.81913489540813" lon="113.65933436053267">
        <ele>92.42166109476238</ele>
        <time>2026-08-01T23:53:23Z</time>
      </trkpt>
      <trkpt lat="34.819187451931775" lon="113.65927690195157">
        <ele>92.39887429215014</ele>
        <time>2026-08-01T23:53:27Z</time>
      </trkpt>
      <trkpt lat="34.819241706841034" lon="113.65930718484373">
        <ele>92.67016692552716</ele>
        <time>2026-08-01T23:53:30Z</time>
      </trkpt>
      <trkpt lat="34.81949413233918" lon="113.65917058996324">
        <ele>92.13016548007727</ele>
        <time>2026-08-01T23:53:45Z</time>
      </trkpt>
      <trkpt lat="34.81956420562213" lon="113.65916957279606">
        <ele>91.30826023593545</ele>
        <time>2026-08-01T23:53:48Z</time>
      </trkpt>
      <trkpt lat="34.81984083467622" lon="113.6590266054854">
        <ele>91.57358438242227</ele>
        <time>2026-08-01T23:54:03Z</time>
      </trkpt>
      <trkpt lat="34.81988866581163" lon="113.65898925660994">
        <ele>91.85217901133001</ele>
        <time>2026-08-01T23:54:06Z</time>
      </trkpt>
      <trkpt lat="34.81993558113894" lon="113.65899489085645">
        <ele>92.15308982878923</ele>
        <time>2026-08-01T23:54:09Z</time>
      </trkpt>
      <trkpt lat="34.820023456809786" lon="113.65906057994344">
        <ele>92.7327400771901</ele>
        <time>2026-08-01T23:54:15Z</time>
      </trkpt>
      <trkpt lat="34.82020917349347" lon="113.65905404121352">
        <ele>93.57200198527426</ele>
        <time>2026-08-01T23:54:27Z</time>
      </trkpt>
      <trkpt lat="34.820409501761496" lon="113.65920837183856">
        <ele>93.64250953681767</ele>
        <time>2026-08-01T23:54:42Z</time>
      </trkpt>
      <trkpt lat="34.82047609335095" lon="113.65919063865381">
        <ele>93.04099432565272</ele>
        <time>2026-08-01T23:54:45Z</time>
      </trkpt>
      <trkpt lat="34.82066561026729" lon="113.65904221778605">
        <ele>92.92299367394298</ele>
        <time>2026-08-01T23:54:54Z</time>
      </trkpt>
      <trkpt lat="34.82097640005482" lon="113.65889951258724">
        <ele>91.5756934126839</ele>
        <time>2026-08-01T23:55:09Z</time>
      </trkpt>
      <trkpt lat="34.821282234410525" lon="113.65879342903251">
        <ele>90.47943507041782</ele>
        <time>2026-08-01T23:55:26Z</time>
      </trkpt>
      <trkpt lat="34.82136441980518" lon="113.65880779076349">
        <ele>90.17828389629722</ele>
        <time>2026-08-01T23:55:30Z</time>
      </trkpt>
      <trkpt lat="34.82155189217141" lon="113.65873745339053">
        <ele>89.71040303073823</ele>
        <time>2026-08-01T23:55:40Z</time>
      </trkpt>
      <trkpt lat="34.82173236297788" lon="113.65869789733219">
        <ele>90.14854287263006</ele>
        <time>2026-08-01T23:55:52Z</time>
      </trkpt>
      <trkpt lat="34.821888925846686" lon="113.65871470612294">
        <ele>90.34813609998673</ele>
        <time>2026-08-01T23:55:55Z</time>
      </trkpt>
      <trkpt lat="34.822099256813" lon="113.65861165440559">
        <ele>89.71746721677482</ele>
        <time>2026-08-01T23:56:04Z</time>
      </trkpt>
      <trkpt lat="34.822200681903404" lon="113.65863173321857">
        <ele>89.89572563301772</ele>
        <time>2026-08-01T23:56:07Z</time>
      </trkpt>
      <trkpt lat="34.82218454378039" lon="113.65849930870444">
        <ele>90.46572294645011</ele>
        <time>2026-08-01T23:56:10Z</time>
      </trkpt>
      <trkpt lat="34.82224187058016" lon="113.65846928538117">
        <ele>86.23829895909876</ele>
        <time>2026-08-01T23:56:16Z</time>
      </trkpt>
      <trkpt lat="34.82229418791059" lon="113.65849578893607">
        <ele>87.03926985897124</ele>
        <time>2026-08-01T23:56:25Z</time>
      </trkpt>
      <trkpt lat="34.82260336876675" lon="113.65853613819854">
        <ele>86.90193374827504</ele>
        <time>2026-08-01T23:56:40Z</time>
      </trkpt>
      <trkpt lat="34.822630142401536" lon="113.65846491997189">
        <ele>86.41079522203654</ele>
        <time>2026-08-01T23:56:43Z</time>
      </trkpt>
      <trkpt lat="34.82272132096945" lon="113.65838102444292">
        <ele>87.17092638555914</ele>
        <time>2026-08-01T23:56:46Z</time>
      </trkpt>
      <trkpt lat="34.82288418111425" lon="113.65833333621454">
        <ele>87.61836210917681</ele>
        <time>2026-08-01T23:56:55Z</time>
      </trkpt>
      <trkpt lat="34.822980796508034" lon="113.65825698740646">
        <ele>86.58446498773992</ele>
        <time>2026-08-01T23:56:58Z</time>
      </trkpt>
      <trkpt lat="34.82307205709941" lon="113.65815590778097">
        <ele>86.39551157783717</ele>
        <time>2026-08-01T23:57:01Z</time>
      </trkpt>
      <trkpt lat="34.823233547649274" lon="113.65810054282936">
        <ele>87.85012534540147</ele>
        <time>2026-08-01T23:57:07Z</time>
      </trkpt>
      <trkpt lat="34.82327797745209" lon="113.65805500185415">
        <ele>88.82135355006903</ele>
        <time>2026-08-01T23:57:10Z</time>
      </trkpt>
      <trkpt lat="34.823537214880666" lon="113.65793564686177">
        <ele>88.88189998082817</ele>
        <time>2026-08-01T23:57:25Z</time>
      </trkpt>
      <trkpt lat="34.823818983420566" lon="113.65780359066389">
        <ele>88.61414132639766</ele>
        <time>2026-08-01T23:57:41Z</time>
      </trkpt>
      <trkpt lat="34.82394071656099" lon="113.65778965714202">
        <ele>88.16307307034731</ele>
        <time>2026-08-01T23:57:44Z</time>
      </trkpt>
      <trkpt lat="34.82406525983177" lon="113.65772770957992">
        <ele>88.1404277952388</ele>
        <time>2026-08-01T23:57:50Z</time>
      </trkpt>
      <trkpt lat="34.82422190312524" lon="113.65767992038363">
        <ele>88.63696160260588</ele>
        <time>2026-08-01T23:57:59Z</time>
      </trkpt>
      <trkpt lat="34.82452134159818" lon="113.65752849555383">
        <ele>88.66231994237751</ele>
        <time>2026-08-01T23:58:14Z</time>
      </trkpt>
      <trkpt lat="34.82457676863291" lon="113.6574940315868">
        <ele>88.72194427531213</ele>
        <time>2026-08-01T23:58:17Z</time>
      </trkpt>
      <trkpt lat="34.82477162186695" lon="113.65744421142864">
        <ele>86.96098697278649</ele>
        <time>2026-08-01T23:58:26Z</time>
      </trkpt>
      <trkpt lat="34.82507833634674" lon="113.65730368410225">
        <ele>88.69535679370165</ele>
        <time>2026-08-01T23:58:38Z</time>
      </trkpt>
      <trkpt lat="34.825136558568545" lon="113.65725645183787">
        <ele>88.68185485806316</ele>
        <time>2026-08-01T23:58:41Z</time>
      </trkpt>
      <trkpt lat="34.825175753613095" lon="113.6571865267056">
        <ele>88.32886570040137</ele>
        <time>2026-08-01T23:58:44Z</time>
      </trkpt>
      <trkpt lat="34.82514351636871" lon="113.65705598265902">
        <ele>87.63799945171922</ele>
        <time>2026-08-01T23:58:50Z</time>
      </trkpt>
      <trkpt lat="34.82517111930714" lon="113.65698011622653">
        <ele>88.68827271368355</ele>
        <time>2026-08-01T23:58:56Z</time>
      </trkpt>
      <trkpt lat="34.82525962963851" lon="113.6569626966359">
        <ele>87.21009663958102</ele>
        <time>2026-08-01T23:59:02Z</time>
      </trkpt>
    </trkseg>
  </trk>
</gpx>