<?xml version="1.0" encoding="UTF-8"?>
<gpx xmlns="http://www.topografix.com/GPX/1/1" xmlns:gpxtpx="http://www.garmin.com/xmlschemas/TrackPointExtension/v1" xmlns:xsi="http://www.w3.org/2001/XMLSchema-instance" xsi:schemaLocation="http://www.topografix.com/GPX/1/1 http://www.topografix.com/GPX/1/1/gpx.xsd" version="1.1" creator="gpx.py -- https://github.com/tkrajina/gpxpy">
  <trk>
    <name>gpx from keep</name>
    <type>Run</type>
    <trkseg>
      <trkpt lat="34.82976166128217" lon="113.6573161179755">
        <ele>100.52294921875</ele>
        <time>2026-07-31T00:00:43Z</time>
      </trkpt>
      <trkpt lat="34.829712171730456" lon="113.6572245094381">
        <ele>84.46044921875</ele>
        <time>2026-07-31T00:00:50Z</time>
      </trkpt>
      <trkpt lat="34.82973901200638" lon="113.65705193899737">
        <ele>87.40705811791122</ele>
        <time>2026-07-31T00:00:58Z</time>
      </trkpt>
      <trkpt lat="34.82975869362622" lon="113.65668673517673">
        <ele>84.74050628114492</ele>
        <time>2026-07-31T00:01:13Z</time>
      </trkpt>
      <trkpt lat="34.82975637816204" lon="113.65655574929858">
        <ele>84.67192553728819</ele>
        <time>2026-07-31T00:01:19Z</time>
      </trkpt>
      <trkpt lat="34.829786083518336" lon="113.65641575100258">
        <ele>84.59863522555679</ele>
        <time>2026-07-31T00:01:25Z</time>
      </trkpt>
      <trkpt lat="34.82979587156787" lon="113.6561881918659">
        <ele>88.24413356091827</ele>
        <time>2026-07-31T00:01:34Z</time>
      </trkpt>
      <trkpt lat="34.829820447837854" lon="113.65609205737665">
        <ele>89.17673176899552</ele>
        <time>2026-07-31T00:01:37Z</time>
      </trkpt>
      <trkpt lat="34.82989568072086" lon="113.65599794083371">
        <ele>90.07668997626752</ele>
        <time>2026-07-31T00:01:43Z</time>
      </trkpt>
      <trkpt lat="34.83010119842462" lon="113.6559591322314">
        <ele>92.60545779857785</ele>
        <time>2026-07-31T00:01:52Z</time>
      </trkpt>
      <trkpt lat="34.830313504827146" lon="113.6558567165502">
        <ele>92.60958816576749</ele>
        <time>2026-07-31T00:02:04Z</time>
      </trkpt>
      <trkpt lat="34.83037022847478" lon="113.65588507890102">
        <ele>92.24946693889797</ele>
        <time>2026-07-31T00:02:07Z</time>
      </trkpt>
      <trkpt lat="34.83043454706761" lon="113.6560155488105">
        <ele>92.82667525950819</ele>
        <time>2026-07-31T00:02:13Z</time>
      </trkpt>
      <trkpt lat="34.8304595196239" lon="113.6561300688295">
        <ele>92.07251237798482</ele>
        <time>2026-07-31T00:02:19Z</time>
      </trkpt>
      <trkpt lat="34.83052707319536" lon="113.65623723158353">
        <ele>92.05226471181959</ele>
        <time>2026-07-31T00:02:25Z</time>
      </trkpt>
      <trkpt lat="34.83065148707119" lon="113.65625832205237">
        <ele>91.256347973831</ele>
        <time>2026-07-31T00:02:31Z</time>
      </trkpt>
      <trkpt lat="34.83083598620329" lon="113.65623215215524">
        <ele>90.46596350334585</ele>
        <time>2026-07-31T00:02:40Z</time>
      </trkpt>
      <trkpt lat="34.83087573704106" lon="113.65619594226276">
        <ele>88.73988543171436</ele>
        <time>2026-07-31T00:02:43Z</time>
      </trkpt>
      <trkpt lat="34.83099121964117" lon="113.65617540788529">
        <ele>88.45268732123077</ele>
        <time>2026-07-31T00:02:49Z</time>
      </trkpt>
      <trkpt lat="34.83129690457456" lon="113.65620318659468">
        <ele>91.31990119814873</ele>
        <time>2026-07-31T00:03:05Z</time>
      </trkpt>
      <trkpt lat="34.831350138250805" lon="113.65626383834675">
        <ele>90.88225806504488</ele>
        <time>2026-07-31T00:03:08Z</time>
      </trkpt>
      <trkpt lat="34.83141028203917" lon="113.65629700113095">
        <ele>91.37061785813421</ele>
        <time>2026-07-31T00:03:11Z</time>
      </trkpt>
      <trkpt lat="34.831619866719656" lon="113.65613449148456">
        <ele>91.2101018037647</ele>
        <time>2026-07-31T00:03:26Z</time>
      </trkpt>
      <trkpt lat="34.831671786945456" lon="113.65612267713075">
        <ele>90.64973119646311</ele>
        <time>2026-07-31T00:03:29Z</time>
      </trkpt>
      <trkpt lat="34.83179518404381" lon="113.6559875497895">
        <ele>91.51937818806618</ele>
        <time>2026-07-31T00:03:35Z</time>
      </trkpt>
      <trkpt lat="34.83188049329094" lon="113.6559635634351">
        <ele>91.5070560220629</ele>
        <time>2026-07-31T00:03:41Z</time>
      </trkpt>
      <trkpt lat="34.831944160848664" lon="113.65592151939217">
        <ele>92.00240144506097</ele>
        <time>2026-07-31T00:03:44Z</time>
      </trkpt>
      <trkpt lat="34.831992502054305" lon="113.65574815159567">
        <ele>91.2226333077997</ele>
        <time>2026-07-31T00:03:53Z</time>
      </trkpt>
      <trkpt lat="34.83203875466572" lon="113.65568917584254">
        <ele>91.52834742423147</ele>
        <time>2026-07-31T00:03:56Z</time>
      </trkpt>
      <trkpt lat="34.8321679545765" lon="113.65560791314523">
        <ele>90.69608726724982</ele>
        <time>2026-07-31T00:04:02Z</time>
      </trkpt>
      <trkpt lat="34.83220402890668" lon="113.65556764840171">
        <ele>91.35231131128967</ele>
        <time>2026-07-31T00:04:05Z</time>
      </trkpt>
      <trkpt lat="34.83227946703789" lon="113.6553830819459">
        <ele>92.06967032700777</ele>
        <time>2026-07-31T00:04:14Z</time>
      </trkpt>
      <trkpt lat="34.83227317597233" lon="113.65532714173185">
        <ele>91.66975230630487</ele>
        <time>2026-07-31T00:04:17Z</time>
      </trkpt>
      <trkpt lat="34.832379777730665" lon="113.65512418099755">
        <ele>91.10740110184997</ele>
        <time>2026-07-31T00:04:26Z</time>
      </trkpt>
      <trkpt lat="34.832424129813475" lon="113.6550977410049">
        <ele>91.01147266104817</ele>
        <time>2026-07-31T00:04:29Z</time>
      </trkpt>
      <trkpt lat="34.832534113272295" lon="113.65507441165013">
        <ele>92.0601738197729</ele>
        <time>2026-07-31T00:04:32Z</time>
      </trkpt>
      <trkpt lat="34.832817455706504" lon="113.65524891365229">
        <ele>92.06393894646317</ele>
        <time>2026-07-31T00:04:50Z</time>
      </trkpt>
      <trkpt lat="34.83295807161371" lon="113.6552732050302">
        <ele>92.4146528756246</ele>
        <time>2026-07-31T00:04:57Z</time>
      </trkpt>
      <trkpt lat="34.833128797499356" lon="113.6552461562185">
        <ele>91.95452379621565</ele>
        <time>2026-07-31T00:05:05Z</time>
      </trkpt>
      <trkpt lat="34.833177241260955" lon="113.65519964723707">
        <ele>91.51374287065119</ele>
        <time>2026-07-31T00:05:09Z</time>
      </trkpt>
      <trkpt lat="34.833209288818836" lon="113.65513132236048">
        <ele>92.22155414801091</ele>
        <time>2026-07-31T00:05:12Z</time>
      </trkpt>
      <trkpt lat="34.8332718928949" lon="113.65506554844265">
        <ele>91.85595984850079</ele>
        <time>2026-07-31T00:05:15Z</time>
      </trkpt>
      <trkpt lat="34.83332185244719" lon="113.65493592521509">
        <ele>91.22281026188284</ele>
        <time>2026-07-31T00:05:21Z</time>
      </trkpt>
      <trkpt lat="34.83337222129379" lon="113.65488672189007">
        <ele>91.68079117685556</ele>
        <time>2026-07-31T00:05:24Z</time>
      </trkpt>
      <trkpt lat="34.83359982060157" lon="113.654797930862">
        <ele>92.79621445760131</ele>
        <time>2026-07-31T00:05:36Z</time>
      </trkpt>
      <trkpt lat="34.83367868813714" lon="113.65478940469507">
        <ele>92.66777188610286</ele>
        <time>2026-07-31T00:05:39Z</time>
      </trkpt>
      <trkpt lat="34.83377036994478" lon="113.65482690073681">
        <ele>93.37055565416813</ele>
        <time>2026-07-31T00:05:45Z</time>
      </trkpt>
      <trkpt lat="34.83386083171168" lon="113.65482690401294">
        <ele>93.35115291364491</ele>
        <time>2026-07-31T00:05:48Z</time>
      </trkpt>
      <trkpt lat="34.83389520815378" lon="113.6548790510663">
        <ele>93.27089077048004</ele>
        <time>2026-07-31T00:05:51Z</time>
      </trkpt>
      <trkpt lat="34.834085185968966" lon="113.65492424734272">
        <ele>92.17413842398673</ele>
        <time>2026-07-31T00:06:00Z</time>
      </trkpt>
      <trkpt lat="34.834104254527226" lon="113.65498798734227">
        <ele>92.63786380365491</ele>
        <time>2026-07-31T00:06:03Z</time>
      </trkpt>
      <trkpt lat="34.83415765703483" lon="113.65499468839586">
        <ele>91.81756769586354</ele>
        <time>2026-07-31T00:06:06Z</time>
      </trkpt>
      <trkpt lat="34.834212738404474" lon="113.65505294912982">
        <ele>92.85743019543588</ele>
        <time>2026-07-31T00:06:09Z</time>
      </trkpt>
      <trkpt lat="34.83422854113925" lon="113.65513756071584">
        <ele>92.84369997959584</ele>
        <time>2026-07-31T00:06:12Z</time>
      </trkpt>
      <trkpt lat="34.834285932841226" lon="113.65528339325454">
        <ele>92.53089721407741</ele>
        <time>2026-07-31T00:06:18Z</time>
      </trkpt>
      <trkpt lat="34.834288507139675" lon="113.65540804236012">
        <ele>91.06685645412654</ele>
        <time>2026-07-31T00:06:24Z</time>
      </trkpt>
      <trkpt lat="34.83430542375813" lon="113.65548255077165">
        <ele>91.12013956904411</ele>
        <time>2026-07-31T00:06:27Z</time>
      </trkpt>
      <trkpt lat="34.834225158943696" lon="113.65584064461768">
        <ele>90.08049045037478</ele>
        <time>2026-07-31T00:06:39Z</time>
      </trkpt>
      <trkpt lat="34.834193574495536" lon="113.65600344985579">
        <ele>91.22714862134308</ele>
        <time>2026-07-31T00:06:48Z</time>
      </trkpt>
      <trkpt lat="34.83410021230436" lon="113.6561720476792">
        <ele>91.12424934655428</ele>
        <time>2026-07-31T00:06:57Z</time>
      </trkpt>
      <trkpt lat="34.8338080632409" lon="113.65625896801286">
        <ele>90.40173177048564</ele>
        <time>2026-07-31T00:07:08Z</time>
      </trkpt>
      <trkpt lat="34.83365535675673" lon="113.65635865488481">
        <ele>90.63226936105639</ele>
        <time>2026-07-31T00:07:16Z</time>
      </trkpt>
      <trkpt lat="34.83335533209908" lon="113.6563731230115">
        <ele>91.56603664439172</ele>
        <time>2026-07-31T00:07:30Z</time>
      </trkpt>
      <trkpt lat="34.83311298422812" lon="113.65627191687115">
        <ele>91.71762257069349</ele>
        <time>2026-07-31T00:07:45Z</time>
      </trkpt>
      <trkpt lat="34.832973119855446" lon="113.65616392243525">
        <ele>89.92905897181481</ele>
        <time>2026-07-31T00:07:51Z</time>
      </trkpt>
      <trkpt lat="34.83277194771208" lon="113.65586820951168">
        <ele>89.31893105991185</ele>
        <time>2026-07-31T00:08:09Z</time>
      </trkpt>
      <trkpt lat="34.832668781028104" lon="113.65588359628516">
        <ele>88.85894355364144</ele>
        <time>2026-07-31T00:08:15Z</time>
      </trkpt>
      <trkpt lat="34.83251703363713" lon="113.65605708662429">
        <ele>89.65830967761576</ele>
        <time>2026-07-31T00:08:24Z</time>
      </trkpt>
      <trkpt lat="34.83244620473356" lon="113.65608405970511">
        <ele>89.88373616617173</ele>
        <time>2026-07-31T00:08:27Z</time>
      </trkpt>
      <trkpt lat="34.83231513544672" lon="113.65617587306602">
        <ele>91.82305006030947</ele>
        <time>2026-07-31T00:08:34Z</time>
      </trkpt>
      <trkpt lat="34.83225528153802" lon="113.6561910141189">
        <ele>91.47793114744127</ele>
        <time>2026-07-31T00:08:37Z</time>
      </trkpt>
      <trkpt lat="34.83222193998959" lon="113.65613353871248">
        <ele>90.85719181317836</ele>
        <time>2026-07-31T00:08:43Z</time>
      </trkpt>
      <trkpt lat="34.83237679663315" lon="113.65611520467029">
        <ele>91.22110152989626</ele>
        <time>2026-07-31T00:08:49Z</time>
      </trkpt>
      <trkpt lat="34.832126985529364" lon="113.65608684327556">
        <ele>89.29178381804377</ele>
        <time>2026-07-31T00:09:04Z</time>
      </trkpt>
      <trkpt lat="34.83205678611503" lon="113.65609649706532">
        <ele>89.80043468251824</ele>
        <time>2026-07-31T00:09:07Z</time>
      </trkpt>
      <trkpt lat="34.8319294400636" lon="113.65600319385103">
        <ele>88.35855388455093</ele>
        <time>2026-07-31T00:09:15Z</time>
      </trkpt>
      <trkpt lat="34.831872650918044" lon="113.65603691939">
        <ele>89.18684268556535</ele>
        <time>2026-07-31T00:09:18Z</time>
      </trkpt>
      <trkpt lat="34.83183985915784" lon="113.65608514388055">
        <ele>89.77874701842666</ele>
        <time>2026-07-31T00:09:21Z</time>
      </trkpt>
      <trkpt lat="34.831786554507644" lon="113.65612342580584">
        <ele>89.66811895463616</ele>
        <time>2026-07-31T00:09:24Z</time>
      </trkpt>
      <trkpt lat="34.8317260190689" lon="113.65612536144732">
        <ele>89.75015700608492</ele>
        <time>2026-07-31T00:09:27Z</time>
      </trkpt>
      <trkpt lat="34.83164257246229" lon="113.65623037730299">
        <ele>88.08280973788351</ele>
        <time>2026-07-31T00:09:33Z</time>
      </trkpt>
      <trkpt lat="34.83162100976122" lon="113.65636215368825">
        <ele>89.26325078867376</ele>
        <time>2026-07-31T00:09:39Z</time>
      </trkpt>
      <trkpt lat="34.83147817560531" lon="113.65638028986783">
        <ele>89.84120041877031</ele>
        <time>2026-07-31T00:09:45Z</time>
      </trkpt>
      <trkpt lat="34.83141053334721" lon="113.65637060372099">
        <ele>89.19720651116222</ele>
        <time>2026-07-31T00:09:48Z</time>
      </trkpt>
      <trkpt lat="34.83123656398459" lon="113.65639347005525">
        <ele>88.94058377854526</ele>
        <time>2026-07-31T00:09:57Z</time>
      </trkpt>
      <trkpt lat="34.83116650296561" lon="113.65636816540339">
        <ele>89.84235701430589</ele>
        <time>2026-07-31T00:10:00Z</time>
      </trkpt>
      <trkpt lat="34.83107314440638" lon="113.656424190559">
        <ele>91.37184608448297</ele>
        <time>2026-07-31T00:10:06Z</time>
      </trkpt>
      <trkpt lat="34.83105217734183" lon="113.65647266284225">
        <ele>91.21960735600442</ele>
        <time>2026-07-31T00:10:09Z</time>
      </trkpt>
      <trkpt lat="34.83091335941709" lon="113.65654228060602">
        <ele>89.65196606237441</ele>
        <time>2026-07-31T00:10:18Z</time>
      </trkpt>
      <trkpt lat="34.83084701346264" lon="113.65653528770063">
        <ele>89.35750087723136</ele>
        <time>2026-07-31T00:10:21Z</time>
      </trkpt>
      <trkpt lat="34.830729730039074" lon="113.65642850556904">
        <ele>88.74447502288967</ele>
        <time>2026-07-31T00:10:27Z</time>
      </trkpt>
      <trkpt lat="34.83065558245477" lon="113.65630628343574">
        <ele>89.05329002439976</ele>
        <time>2026-07-31T00:10:33Z</time>
      </trkpt>
      <trkpt lat="34.8304728644197" lon="113.65616925640218">
        <ele>89.11501168925315</ele>
        <time>2026-07-31T00:10:42Z</time>
      </trkpt>
      <trkpt lat="34.83039882223244" lon="113.65606640182754">
        <ele>90.35802266281098</ele>
        <time>2026-07-31T00:10:48Z</time>
      </trkpt>
      <trkpt lat="34.8304132400894" lon="113.65600680158649">
        <ele>89.2662921436131</ele>
        <time>2026-07-31T00:10:51Z</time>
      </trkpt>
      <trkpt lat="34.830382673992574" lon="113.65593830729695">
        <ele>89.0642662672326</ele>
        <time>2026-07-31T00:10:54Z</time>
      </trkpt>
      <trkpt lat="34.83033191012012" lon="113.65589563156136">
        <ele>86.14000211004168</ele>
        <time>2026-07-31T00:10:57Z</time>
      </trkpt>
      <trkpt lat="34.8301894315978" lon="113.65588791736225">
        <ele>89.332958730869</ele>
        <time>2026-07-31T00:11:03Z</time>
      </trkpt>
      <trkpt lat="34.830051860724495" lon="113.65596361444283">
        <ele>92.10158363450319</ele>
        <time>2026-07-31T00:11:09Z</time>
      </trkpt>
      <trkpt lat="34.82970579655897" lon="113.65604908630708">
        <ele>92.07739129010588</ele>
        <time>2026-07-31T00:11:25Z</time>
      </trkpt>
      <trkpt lat="34.8295382129407" lon="113.65611580315209">
        <ele>93.28995326440781</ele>
        <time>2026-07-31T00:11:34Z</time>
      </trkpt>
      <trkpt lat="34.829622449351945" lon="113.65604150696977">
        <ele>92.25825066771358</ele>
        <time>2026-07-31T00:11:40Z</time>
      </trkpt>
      <trkpt lat="34.82977395110652" lon="113.65597300377102">
        <ele>90.52810781728476</ele>
        <time>2026-07-31T00:11:46Z</time>
      </trkpt>
      <trkpt lat="34.82981171146187" lon="113.6559331692729">
        <ele>91.15138191357255</ele>
        <time>2026-07-31T00:11:49Z</time>
      </trkpt>
      <trkpt lat="34.8298332972917" lon="113.6558786429649">
        <ele>91.41434201505035</ele>
        <time>2026-07-31T00:11:52Z</time>
      </trkpt>
      <trkpt lat="34.82981751747153" lon="113.65557103925649">
        <ele>91.96437162812799</ele>
        <time>2026-07-31T00:12:04Z</time>
      </trkpt>
      <trkpt lat="34.829858906412504" lon="113.6554389361405">
        <ele>92.11622319370508</ele>
        <time>2026-07-31T00:12:10Z</time>
      </trkpt>
      <trkpt lat="34.82986267119638" lon="113.65535958693307">
        <ele>92.53735798317939</ele>
        <time>2026-07-31T00:12:13Z</time>
      </trkpt>
      <trkpt lat="34.829837873449" lon="113.65513850725166">
        <ele>92.1392663018778</ele>
        <time>2026-07-31T00:12:22Z</time>
      </trkpt>
      <trkpt lat="34.82991165981007" lon="113.65483753881796">
        <ele>94.28846657834947</ele>
        <time>2026-07-31T00:12:34Z</time>
      </trkpt>
      <trkpt lat="34.829869527486" lon="113.65465322177164">
        <ele>95.28441539034247</ele>
        <time>2026-07-31T00:12:43Z</time>
      </trkpt>
      <trkpt lat="34.82990836736685" lon="113.65435481316035">
        <ele>96.62790100835264</ele>
        <time>2026-07-31T00:12:55Z</time>
      </trkpt>
      <trkpt lat="34.82988846866461" lon="113.65424268639356">
        <ele>96.53204373829067</ele>
        <time>2026-07-31T00:12:58Z</time>
      </trkpt>
      <trkpt lat="34.829922043171756" lon="113.65417679616932">
        <ele>95.92492359969765</ele>
        <time>2026-07-31T00:13:04Z</time>
      </trkpt>
      <trkpt lat="34.82982496532438" lon="113.65413263514618">
        <ele>95.74127753637731</ele>
        <time>2026-07-31T00:13:10Z</time>
      </trkpt>
      <trkpt lat="34.82965160717808" lon="113.6541305408496">
        <ele>94.6726759551093</ele>
        <time>2026-07-31T00:13:16Z</time>
      </trkpt>
      <trkpt lat="34.8295359969084" lon="113.65420613031597">
        <ele>93.71534326206893</ele>
        <time>2026-07-31T00:13:23Z</time>
      </trkpt>
      <trkpt lat="34.829489884935036" lon="113.65428491653756">
        <ele>93.41192553378642</ele>
        <time>2026-07-31T00:13:27Z</time>
      </trkpt>
      <trkpt lat="34.829525738274576" lon="113.65435330460114">
        <ele>92.58836957626045</ele>
        <time>2026-07-31T00:13:31Z</time>
      </trkpt>
      <trkpt lat="34.82952858625873" lon="113.65445347575202">
        <ele>92.30212561041117</ele>
        <time>2026-07-31T00:13:35Z</time>
      </trkpt>
      <trkpt lat="34.829488454429466" lon="113.65451169386338">
        <ele>91.50603158120066</ele>
        <time>2026-07-31T00:13:38Z</time>
      </trkpt>
      <trkpt lat="34.82936315142314" lon="113.6545391994735">
        <ele>91.80826646555215</ele>
        <time>2026-07-31T00:13:44Z</time>
      </trkpt>
      <trkpt lat="34.82927834645469" lon="113.65452556939918">
        <ele>91.98082491289824</ele>
        <time>2026-07-31T00:13:47Z</time>
      </trkpt>
      <trkpt lat="34.829225572044855" lon="113.65455568387203">
        <ele>91.31031547114253</ele>
        <time>2026-07-31T00:13:50Z</time>
      </trkpt>
      <trkpt lat="34.82914434986208" lon="113.6546761715946">
        <ele>90.45915630180389</ele>
        <time>2026-07-31T00:13:56Z</time>
      </trkpt>
      <trkpt lat="34.8290761673841" lon="113.65469117714666">
        <ele>90.56169540807605</ele>
        <time>2026-07-31T00:13:59Z</time>
      </trkpt>
      <trkpt lat="34.829004170620145" lon="113.65468437779073">
        <ele>90.36266574356705</ele>
        <time>2026-07-31T00:14:02Z</time>
      </trkpt>
      <trkpt lat="34.82893817070186" lon="113.65470265894403">
        <ele>90.79511008318514</ele>
        <time>2026-07-31T00:14:05Z</time>
      </trkpt>
      <trkpt lat="34.828854538953586" lon="113.65469376297425">
        <ele>90.8289242926985</ele>
        <time>2026-07-31T00:14:08Z</time>
      </trkpt>
      <trkpt lat="34.82867718720735" lon="113.65479696020404">
        <ele>91.17906422447413</ele>
        <time>2026-07-31T00:14:17Z</time>
      </trkpt>
      <trkpt lat="34.828595607344695" lon="113.65479779206417">
        <ele>92.26382120605558</ele>
        <time>2026-07-31T00:14:20Z</time>
      </trkpt>
      <trkpt lat="34.82854741580099" lon="113.65484327835188">
        <ele>91.826073163189</ele>
        <time>2026-07-31T00:14:23Z</time>
      </trkpt>
      <trkpt lat="34.82837057695765" lon="113.65494984636942">
        <ele>93.00097924750298</ele>
        <time>2026-07-31T00:14:32Z</time>
      </trkpt>
      <trkpt lat="34.828206944905446" lon="113.65496732980593">
        <ele>94.3529086895287</ele>
        <time>2026-07-31T00:14:38Z</time>
      </trkpt>
      <trkpt lat="34.828057546833264" lon="113.65504492126415">
        <ele>95.13934618514031</ele>
        <time>2026-07-31T00:14:47Z</time>
      </trkpt>
      <trkpt lat="34.82795153404772" lon="113.65506997532555">
        <ele>95.09787076059729</ele>
        <time>2026-07-31T00:14:53Z</time>
      </trkpt>
      <trkpt lat="34.827662039560494" lon="113.65524114174593">
        <ele>94.38674079533666</ele>
        <time>2026-07-31T00:15:08Z</time>
      </trkpt>
      <trkpt lat="34.827560827952226" lon="113.65529478384485">
        <ele>94.05240712314844</ele>
        <time>2026-07-31T00:15:14Z</time>
      </trkpt>
      <trkpt lat="34.82749662083768" lon="113.65530717369275">
        <ele>93.9384942734614</ele>
        <time>2026-07-31T00:15:17Z</time>
      </trkpt>
      <trkpt lat="34.827394957561026" lon="113.65536871329968">
        <ele>94.98155861906707</ele>
        <time>2026-07-31T00:15:23Z</time>
      </trkpt>
      <trkpt lat="34.82707988342982" lon="113.65546581304348">
        <ele>93.79541174322367</ele>
        <time>2026-07-31T00:15:39Z</time>
      </trkpt>
      <trkpt lat="34.826992560043585" lon="113.65557521351224">
        <ele>91.51587789412588</ele>
        <time>2026-07-31T00:15:48Z</time>
      </trkpt>
      <trkpt lat="34.82678921915696" lon="113.65563448585476">
        <ele>91.94911205861717</ele>
        <time>2026-07-31T00:15:57Z</time>
      </trkpt>
      <trkpt lat="34.82674145476483" lon="113.65567929151933">
        <ele>92.26326551195234</ele>
        <time>2026-07-31T00:16:03Z</time>
      </trkpt>
      <trkpt lat="34.82665459060647" lon="113.65568543944856">
        <ele>91.43715640623122</ele>
        <time>2026-07-31T00:16:06Z</time>
      </trkpt>
      <trkpt lat="34.82659154158565" lon="113.65571353200554">
        <ele>92.33055763226002</ele>
        <time>2026-07-31T00:16:09Z</time>
      </trkpt>
      <trkpt lat="34.826496604413805" lon="113.65569701646862">
        <ele>93.62350243702531</ele>
        <time>2026-07-31T00:16:12Z</time>
      </trkpt>
      <trkpt lat="34.826327287238186" lon="113.65575530505258">
        <ele>92.52386832330376</ele>
        <time>2026-07-31T00:16:24Z</time>
      </trkpt>
      <trkpt lat="34.826255095507584" lon="113.65581930871758">
        <ele>91.24048566725105</ele>
        <time>2026-07-31T00:16:27Z</time>
      </trkpt>
      <trkpt lat="34.82618730621408" lon="113.65583627211865">
        <ele>91.38987529836595</ele>
        <time>2026-07-31T00:16:30Z</time>
      </trkpt>
      <trkpt lat="34.826054045168505" lon="113.65592947161419">
        <ele>91.40415487717837</ele>
        <time>2026-07-31T00:16:39Z</time>
      </trkpt>
      <trkpt lat="34.82588089428783" lon="113.65599049399732">
        <ele>90.7742840461433</ele>
        <time>2026-07-31T00:16:48Z</time>
      </trkpt>
      <trkpt lat="34.825733325815136" lon="113.65601502925902">
        <ele>90.08279837667942</ele>
        <time>2026-07-31T00:16:54Z</time>
      </trkpt>
      <trkpt lat="34.825564344010836" lon="113.65612028044544">
        <ele>92.63232172559947</ele>
        <time>2026-07-31T00:17:03Z</time>
      </trkpt>
      <trkpt lat="34.825393146993086" lon="113.6561489674128">
        <ele>92.94594319351017</ele>
        <time>2026-07-31T00:17:12Z</time>
      </trkpt>
      <trkpt lat="34.825209257305104" lon="113.656257310591">
        <ele>93.06094965990633</ele>
        <time>2026-07-31T00:17:24Z</time>
      </trkpt>
      <trkpt lat="34.8251074069745" lon="113.65628819961228">
        <ele>92.06378323677927</ele>
        <time>2026-07-31T00:17:30Z</time>
      </trkpt>
      <trkpt lat="34.824974527689626" lon="113.65636800062241">
        <ele>93.33873598929495</ele>
        <time>2026-07-31T00:17:38Z</time>
      </trkpt>
      <trkpt lat="34.82489074498824" lon="113.65637924656895">
        <ele>93.39160174131393</ele>
        <time>2026-07-31T00:17:42Z</time>
      </trkpt>
      <trkpt lat="34.82477835547106" lon="113.6564571967598">
        <ele>92.92498816084117</ele>
        <time>2026-07-31T00:17:49Z</time>
      </trkpt>
      <trkpt lat="34.82455297467118" lon="113.65652219501304">
        <ele>93.439642585814</ele>
        <time>2026-07-31T00:18:01Z</time>
      </trkpt>
      <trkpt lat="34.82447008460087" lon="113.65653087903098">
        <ele>94.97979034576565</ele>
        <time>2026-07-31T00:18:04Z</time>
      </trkpt>
      <trkpt lat="34.82417981708553" lon="113.65667350118844">
        <ele>96.21835623215884</ele>
        <time>2026-07-31T00:18:19Z</time>
      </trkpt>
      <trkpt lat="34.823889886843396" lon="113.65680098702961">
        <ele>94.82090634014457</ele>
        <time>2026-07-31T00:18:34Z</time>
      </trkpt>
      <trkpt lat="34.82360146973017" lon="113.65689641414076">
        <ele>95.28414385858923</ele>
        <time>2026-07-31T00:18:49Z</time>
      </trkpt>
      <trkpt lat="34.82331020426266" lon="113.65701043186233">
        <ele>94.18234459031373</ele>
        <time>2026-07-31T00:19:04Z</time>
      </trkpt>
      <trkpt lat="34.82320809281431" lon="113.65703179267364">
        <ele>94.04592045582831</ele>
        <time>2026-07-31T00:19:10Z</time>
      </trkpt>
      <trkpt lat="34.82307030009013" lon="113.65709905110569">
        <ele>94.27501670084894</ele>
        <time>2026-07-31T00:19:16Z</time>
      </trkpt>
      <trkpt lat="34.822967383007565" lon="113.65717571409593">
        <ele>93.65035377629101</ele>
        <time>2026-07-31T00:19:22Z</time>
      </trkpt>
      <trkpt lat="34.82290711632067" lon="113.65720104546509">
        <ele>93.62214116752148</ele>
        <time>2026-07-31T00:19:25Z</time>
      </trkpt>
      <trkpt lat="34.82286202213677" lon="113.65725388870888">
        <ele>93.34844788722694</ele>
        <time>2026-07-31T00:19:28Z</time>
      </trkpt>
      <trkpt lat="34.822796466192294" lon="113.65728088448664">
        <ele>93.67431851383299</ele>
        <time>2026-07-31T00:19:31Z</time>
      </trkpt>
      <trkpt lat="34.822761929392804" lon="113.65734061371337">
        <ele>93.87809460423887</ele>
        <time>2026-07-31T00:19:34Z</time>
      </trkpt>
      <trkpt lat="34.822714210468305" lon="113.6573524013284">
        <ele>93.76700221188366</ele>
        <time>2026-07-31T00:19:37Z</time>
      </trkpt>
      <trkpt lat="34.8226689347527" lon="113.65742054632406">
        <ele>94.12095297500491</ele>
        <time>2026-07-31T00:19:41Z</time>
      </trkpt>
      <trkpt lat="34.82256750781919" lon="113.65748292372153">
        <ele>93.37358987890184</ele>
        <time>2026-07-31T00:19:44Z</time>
      </trkpt>
      <trkpt lat="34.82251811092915" lon="113.65746447521332">
        <ele>93.17001224774867</ele>
        <time>2026-07-31T00:19:47Z</time>
      </trkpt>
      <trkpt lat="34.8224040526819" lon="113.65751229780263">
        <ele>93.48163444921374</ele>
        <time>2026-07-31T00:19:50Z</time>
      </trkpt>
      <trkpt lat="34.82223743526099" lon="113.65755704462076">
        <ele>92.71549526695162</ele>
        <time>2026-07-31T00:19:56Z</time>
      </trkpt>
      <trkpt lat="34.82225018162013" lon="113.65748511554582">
        <ele>93.48366886470467</ele>
        <time>2026-07-31T00:19:59Z</time>
      </trkpt>
      <trkpt lat="34.8220548992444" lon="113.65751430214449">
        <ele>93.10904660727829</ele>
        <time>2026-07-31T00:20:11Z</time>
      </trkpt>
      <trkpt lat="34.82200034581045" lon="113.65754852819616">
        <ele>92.65165524277836</ele>
        <time>2026-07-31T00:20:14Z</time>
      </trkpt>
      <trkpt lat="34.82192663267947" lon="113.65755924181431">
        <ele>93.51013564039022</ele>
        <time>2026-07-31T00:20:17Z</time>
      </trkpt>
      <trkpt lat="34.82174399892074" lon="113.65772258177762">
        <ele>93.67263828404248</ele>
        <time>2026-07-31T00:20:26Z</time>
      </trkpt>
      <trkpt lat="34.821696200159764" lon="113.65769218511115">
        <ele>93.89743401575834</ele>
        <time>2026-07-31T00:20:29Z</time>
      </trkpt>
      <trkpt lat="34.82152087162426" lon="113.6577073395105">
        <ele>93.36810313444585</ele>
        <time>2026-07-31T00:20:38Z</time>
      </trkpt>
      <trkpt lat="34.821277995878916" lon="113.65785241712314">
        <ele>94.72128454316407</ele>
        <time>2026-07-31T00:20:50Z</time>
      </trkpt>
      <trkpt lat="34.821010866941506" lon="113.65795699790529">
        <ele>95.25623921584338</ele>
        <time>2026-07-31T00:21:05Z</time>
      </trkpt>
      <trkpt lat="34.820787440506855" lon="113.65802312909466">
        <ele>98.34764535725117</ele>
        <time>2026-07-31T00:21:17Z</time>
      </trkpt>
      <trkpt lat="34.8206278356268" lon="113.65812906145092">
        <ele>96.73069500923157</ele>
        <time>2026-07-31T00:21:29Z</time>
      </trkpt>
      <trkpt lat="34.8206064909178" lon="113.65817899844379">
        <ele>97.4122676178813</ele>
        <time>2026-07-31T00:21:32Z</time>
      </trkpt>
      <trkpt lat="34.82058259249637" lon="113.65851981424049">
        <ele>96.29965347517282</ele>
        <time>2026-07-31T00:21:45Z</time>
      </trkpt>
      <trkpt lat="34.82056144331113" lon="113.65859224534903">
        <ele>95.46705113630742</ele>
        <time>2026-07-31T00:21:48Z</time>
      </trkpt>
      <trkpt lat="34.8205869366953" lon="113.6586767832554">
        <ele>95.25266385637224</ele>
        <time>2026-07-31T00:21:51Z</time>
      </trkpt>
      <trkpt lat="34.82058553105335" lon="113.6587392097259">
        <ele>95.08309450373054</ele>
        <time>2026-07-31T00:21:54Z</time>
      </trkpt>
      <trkpt lat="34.82060929972145" lon="113.65882221348419">
        <ele>93.73630120046437</ele>
        <time>2026-07-31T00:21:58Z</time>
      </trkpt>
      <trkpt lat="34.82071863047885" lon="113.65881473663853">
        <ele>90.65748190507293</ele>
        <time>2026-07-31T00:22:07Z</time>
      </trkpt>
      <trkpt lat="34.82076153934648" lon="113.65875800320042">
        <ele>91.31788955722004</ele>
        <time>2026-07-31T00:22:13Z</time>
      </trkpt>
      <trkpt lat="34.8209757531424" lon="113.65863595981487">
        <ele>91.90809140820056</ele>
        <time>2026-07-31T00:22:25Z</time>
      </trkpt>
      <trkpt lat="34.821314736609665" lon="113.65852414173898">
        <ele>90.7696251552552</ele>
        <time>2026-07-31T00:22:40Z</time>
      </trkpt>
      <trkpt lat="34.821511998322066" lon="113.65847078169853">
        <ele>91.49244223441929</ele>
        <time>2026-07-31T00:22:49Z</time>
      </trkpt>
      <trkpt lat="34.82177683393234" lon="113.65836260342198">
        <ele>92.28979001473635</ele>
        <time>2026-07-31T00:23:04Z</time>
      </trkpt>
      <trkpt lat="34.821952161487125" lon="113.65826911065888">
        <ele>89.64106369018555</ele>
        <time>2026-07-31T00:23:16Z</time>
      </trkpt>
      <trkpt lat="34.82215876170317" lon="113.65818087641281">
        <ele>87.87715219147503</ele>
        <time>2026-07-31T00:23:29Z</time>
      </trkpt>
    </trkseg>
  </trk>
</gpx>