<?xml version="1.0" encoding="UTF-8"?>
<gpx xmlns="http://www.topografix.com/GPX/1/1" xmlns:gpxtpx="http://www.garmin.com/xmlschemas/TrackPointExtension/v1" xmlns:xsi="http://www.w3.org/2001/XMLSchema-instance" xsi:schemaLocation="http://www.topografix.com/GPX/1/1 http://www.topografix.com/GPX/1/1/gpx.xsd" version="1.1" creator="gpx.py -- https://github.com/tkrajina/gpxpy">
  <trk>
    <name>gpx from keep</name>
    <type>Run</type>
    <trkseg>
      <trkpt lat="34.82934189538197" lon="113.65805581193617">
        <ele>101.7667236328125</ele>
        <time>2026-09-04T01:11:28Z</time>
      </trkpt>
      <trkpt lat="34.82938641163534" lon="113.65795039480442">
        <ele>110.01702880859375</ele>
        <time>2026-09-04T01:11:31Z</time>
      </trkpt>
      <trkpt lat="34.82948483181978" lon="113.65802544221998">
        <ele>107.5859939828515</ele>
        <time>2026-09-04T01:11:38Z</time>
      </trkpt>
      <trkpt lat="34.82954907922752" lon="113.65802054771689">
        <ele>105.82385742105544</ele>
        <time>2026-09-04T01:11:41Z</time>
      </trkpt>
      <trkpt lat="34.829610405470866" lon="113.65805474234438">
        <ele>100.69550673291087</ele>
        <time>2026-09-04T01:11:44Z</time>
      </trkpt>
      <trkpt lat="34.82968055209584" lon="113.65806516425161">
        <ele>99.87654441408813</ele>
        <time>2026-09-04T01:11:47Z</time>
      </trkpt>
      <trkpt lat="34.82972401676135" lon="113.65813947703673">
        <ele>87.4895224655047</ele>
        <time>2026-09-04T01:11:50Z</time>
      </trkpt>
      <trkpt lat="34.82971704803839" lon="113.65839174955835">
        <ele>88.4861228140071</ele>
        <time>2026-09-04T01:11:56Z</time>
      </trkpt>
      <trkpt lat="34.82974951975057" lon="113.65846815545564">
        <ele>84.99947732686996</ele>
        <time>2026-09-04T01:12:02Z</time>
      </trkpt>
      <trkpt lat="34.82993411210142" lon="113.6585151101271">
        <ele>86.51242558751255</ele>
        <time>2026-09-04T01:12:17Z</time>
      </trkpt>
      <trkpt lat="34.83007197267925" lon="113.65851613483517">
        <ele>86.69806380942464</ele>
        <time>2026-09-04T01:12:23Z</time>
      </trkpt>
      <trkpt lat="34.830138597808435" lon="113.65848905526425">
        <ele>86.05343225132674</ele>
        <time>2026-09-04T01:12:26Z</time>
      </trkpt>
      <trkpt lat="34.830181397306546" lon="113.6584477372993">
        <ele>86.753672526218</ele>
        <time>2026-09-04T01:12:29Z</time>
      </trkpt>
      <trkpt lat="34.830275746236396" lon="113.65845363979004">
        <ele>87.65622190851718</ele>
        <time>2026-09-04T01:12:32Z</time>
      </trkpt>
      <trkpt lat="34.83028778852801" lon="113.65851667144118">
        <ele>88.3949157577008</ele>
        <time>2026-09-04T01:12:35Z</time>
      </trkpt>
      <trkpt lat="34.830245517861556" lon="113.65853952193899">
        <ele>87.68245828244835</ele>
        <time>2026-09-04T01:12:38Z</time>
      </trkpt>
      <trkpt lat="34.830238262272644" lon="113.6586910793784">
        <ele>85.99385836161673</ele>
        <time>2026-09-04T01:12:44Z</time>
      </trkpt>
      <trkpt lat="34.83027169712416" lon="113.65877549318687">
        <ele>85.89231216255575</ele>
        <time>2026-09-04T01:12:47Z</time>
      </trkpt>
      <trkpt lat="34.83025474700343" lon="113.65914055769952">
        <ele>86.21382626052946</ele>
        <time>2026-09-04T01:12:59Z</time>
      </trkpt>
      <trkpt lat="34.83027527771887" lon="113.65928675339303">
        <ele>85.30662579741329</ele>
        <time>2026-09-04T01:13:05Z</time>
      </trkpt>
      <trkpt lat="34.8302424132227" lon="113.65966044298767">
        <ele>89.24988107569516</ele>
        <time>2026-09-04T01:13:20Z</time>
      </trkpt>
      <trkpt lat="34.83020500219376" lon="113.65985016501476">
        <ele>87.99076620675623</ele>
        <time>2026-09-04T01:13:29Z</time>
      </trkpt>
      <trkpt lat="34.830253577772005" lon="113.65994142821863">
        <ele>88.44355716649443</ele>
        <time>2026-09-04T01:13:32Z</time>
      </trkpt>
      <trkpt lat="34.8303666194379" lon="113.6599962551134">
        <ele>89.91260935179889</ele>
        <time>2026-09-04T01:13:39Z</time>
      </trkpt>
      <trkpt lat="34.83060486349487" lon="113.65996792285281">
        <ele>91.23432311695069</ele>
        <time>2026-09-04T01:13:51Z</time>
      </trkpt>
      <trkpt lat="34.83088712023763" lon="113.6600048745895">
        <ele>93.15451309643686</ele>
        <time>2026-09-04T01:14:03Z</time>
      </trkpt>
      <trkpt lat="34.83115782691017" lon="113.65994744247146">
        <ele>93.2129868986085</ele>
        <time>2026-09-04T01:14:21Z</time>
      </trkpt>
      <trkpt lat="34.83121684814883" lon="113.65994535081093">
        <ele>92.79038968589157</ele>
        <time>2026-09-04T01:14:24Z</time>
      </trkpt>
      <trkpt lat="34.83131493701057" lon="113.65987949148054">
        <ele>92.84109124541283</ele>
        <time>2026-09-04T01:14:27Z</time>
      </trkpt>
      <trkpt lat="34.83145343996703" lon="113.65992182770151">
        <ele>93.63949554041028</ele>
        <time>2026-09-04T01:14:30Z</time>
      </trkpt>
      <trkpt lat="34.83151447719149" lon="113.65989163409292">
        <ele>92.51662393193692</ele>
        <time>2026-09-04T01:14:33Z</time>
      </trkpt>
      <trkpt lat="34.83167625270098" lon="113.65989141207105">
        <ele>92.48409158922732</ele>
        <time>2026-09-04T01:14:39Z</time>
      </trkpt>
      <trkpt lat="34.831719012715304" lon="113.65992312906661">
        <ele>90.90295306686312</ele>
        <time>2026-09-04T01:14:42Z</time>
      </trkpt>
      <trkpt lat="34.83178632975346" lon="113.65991735108857">
        <ele>90.87903206143528</ele>
        <time>2026-09-04T01:14:45Z</time>
      </trkpt>
      <trkpt lat="34.831980140850916" lon="113.65996881770204">
        <ele>92.87555574066937</ele>
        <time>2026-09-04T01:14:54Z</time>
      </trkpt>
      <trkpt lat="34.83211466864589" lon="113.65984266188218">
        <ele>89.89579846523702</ele>
        <time>2026-09-04T01:15:03Z</time>
      </trkpt>
      <trkpt lat="34.832086689216005" lon="113.6594815439431">
        <ele>88.16935280431062</ele>
        <time>2026-09-04T01:15:18Z</time>
      </trkpt>
      <trkpt lat="34.83214029160535" lon="113.6593465887376">
        <ele>89.20035351533443</ele>
        <time>2026-09-04T01:15:24Z</time>
      </trkpt>
      <trkpt lat="34.83216036230546" lon="113.65921088815097">
        <ele>88.43895634729415</ele>
        <time>2026-09-04T01:15:30Z</time>
      </trkpt>
      <trkpt lat="34.83213583369152" lon="113.65909565508692">
        <ele>91.12776050996035</ele>
        <time>2026-09-04T01:15:36Z</time>
      </trkpt>
      <trkpt lat="34.83214260521875" lon="113.65900669534443">
        <ele>90.82428075838834</ele>
        <time>2026-09-04T01:15:39Z</time>
      </trkpt>
      <trkpt lat="34.832118611493634" lon="113.65889243010349">
        <ele>92.7489343797788</ele>
        <time>2026-09-04T01:15:43Z</time>
      </trkpt>
      <trkpt lat="34.83214062711781" lon="113.6587891849655">
        <ele>92.79147449228913</ele>
        <time>2026-09-04T01:15:47Z</time>
      </trkpt>
      <trkpt lat="34.83212562247212" lon="113.65860727834767">
        <ele>91.84264342859387</ele>
        <time>2026-09-04T01:15:55Z</time>
      </trkpt>
      <trkpt lat="34.832143523083346" lon="113.65852767842685">
        <ele>91.62720750365406</ele>
        <time>2026-09-04T01:15:58Z</time>
      </trkpt>
      <trkpt lat="34.83213337139313" lon="113.65845511065599">
        <ele>92.7414711266756</ele>
        <time>2026-09-04T01:16:01Z</time>
      </trkpt>
      <trkpt lat="34.832153820829745" lon="113.65829584822498">
        <ele>91.8351171547547</ele>
        <time>2026-09-04T01:16:07Z</time>
      </trkpt>
      <trkpt lat="34.83213539506733" lon="113.65822825264436">
        <ele>92.93114197719842</ele>
        <time>2026-09-04T01:16:10Z</time>
      </trkpt>
      <trkpt lat="34.832137853702406" lon="113.65814232382725">
        <ele>92.52093970961869</ele>
        <time>2026-09-04T01:16:13Z</time>
      </trkpt>
      <trkpt lat="34.832183031327396" lon="113.65800140803877">
        <ele>92.34853079169989</ele>
        <time>2026-09-04T01:16:19Z</time>
      </trkpt>
      <trkpt lat="34.83215121549411" lon="113.6578371622587">
        <ele>92.87903940491378</ele>
        <time>2026-09-04T01:16:25Z</time>
      </trkpt>
      <trkpt lat="34.83218294484297" lon="113.65775713404031">
        <ele>92.81605140399188</ele>
        <time>2026-09-04T01:16:28Z</time>
      </trkpt>
      <trkpt lat="34.83214671214496" lon="113.65739515556365">
        <ele>89.39432507380843</ele>
        <time>2026-09-04T01:16:40Z</time>
      </trkpt>
      <trkpt lat="34.83213182546337" lon="113.65732751915323">
        <ele>89.73978993389755</ele>
        <time>2026-09-04T01:16:43Z</time>
      </trkpt>
      <trkpt lat="34.83209545937677" lon="113.65726778670114">
        <ele>89.6279356693849</ele>
        <time>2026-09-04T01:16:46Z</time>
      </trkpt>
      <trkpt lat="34.83205292964845" lon="113.65724221645237">
        <ele>89.94744507689029</ele>
        <time>2026-09-04T01:16:49Z</time>
      </trkpt>
      <trkpt lat="34.83177355332093" lon="113.65722449534945">
        <ele>88.81341085582972</ele>
        <time>2026-09-04T01:17:04Z</time>
      </trkpt>
      <trkpt lat="34.831707636273094" lon="113.65721304466747">
        <ele>88.88846715446562</ele>
        <time>2026-09-04T01:17:07Z</time>
      </trkpt>
      <trkpt lat="34.83164574239668" lon="113.65722843728977">
        <ele>88.4361532619223</ele>
        <time>2026-09-04T01:17:10Z</time>
      </trkpt>
      <trkpt lat="34.83158412368168" lon="113.65721399602214">
        <ele>87.69322194997221</ele>
        <time>2026-09-04T01:17:13Z</time>
      </trkpt>
      <trkpt lat="34.83155085254208" lon="113.65716807029648">
        <ele>88.55429313890636</ele>
        <time>2026-09-04T01:17:16Z</time>
      </trkpt>
      <trkpt lat="34.83155197523454" lon="113.6570667024935">
        <ele>88.11280132085085</ele>
        <time>2026-09-04T01:17:19Z</time>
      </trkpt>
      <trkpt lat="34.83144336457617" lon="113.6569754159644">
        <ele>89.06356959789991</ele>
        <time>2026-09-04T01:17:25Z</time>
      </trkpt>
      <trkpt lat="34.83135765694219" lon="113.65672014263173">
        <ele>88.96303373109549</ele>
        <time>2026-09-04T01:17:37Z</time>
      </trkpt>
      <trkpt lat="34.83142067768032" lon="113.6566718354091">
        <ele>88.10199824534357</ele>
        <time>2026-09-04T01:17:43Z</time>
      </trkpt>
      <trkpt lat="34.83145142174206" lon="113.65638083636806">
        <ele>89.09602283220738</ele>
        <time>2026-09-04T01:17:54Z</time>
      </trkpt>
      <trkpt lat="34.83142402390408" lon="113.65631638331935">
        <ele>88.45858581084758</ele>
        <time>2026-09-04T01:17:58Z</time>
      </trkpt>
      <trkpt lat="34.8315307818883" lon="113.6562742400972">
        <ele>86.3100411100313</ele>
        <time>2026-09-04T01:18:05Z</time>
      </trkpt>
      <trkpt lat="34.8315410252473" lon="113.65620105167422">
        <ele>86.02254108525813</ele>
        <time>2026-09-04T01:18:08Z</time>
      </trkpt>
      <trkpt lat="34.83163690757982" lon="113.65618722887734">
        <ele>86.13445878494531</ele>
        <time>2026-09-04T01:18:11Z</time>
      </trkpt>
      <trkpt lat="34.83168473222442" lon="113.65615277481253">
        <ele>85.83300033397973</ele>
        <time>2026-09-04T01:18:14Z</time>
      </trkpt>
      <trkpt lat="34.831847835805895" lon="113.65597264766564">
        <ele>86.69690922182053</ele>
        <time>2026-09-04T01:18:26Z</time>
      </trkpt>
      <trkpt lat="34.83190776794361" lon="113.65594912733708">
        <ele>86.9170949133113</ele>
        <time>2026-09-04T01:18:29Z</time>
      </trkpt>
      <trkpt lat="34.83196443082943" lon="113.65595766986932">
        <ele>87.02879475709051</ele>
        <time>2026-09-04T01:18:32Z</time>
      </trkpt>
      <trkpt lat="34.83202732221755" lon="113.65599362381101">
        <ele>86.51696724630892</ele>
        <time>2026-09-04T01:18:35Z</time>
      </trkpt>
      <trkpt lat="34.83209993428286" lon="113.65607433582981">
        <ele>87.2909114221111</ele>
        <time>2026-09-04T01:18:41Z</time>
      </trkpt>
      <trkpt lat="34.832209121997465" lon="113.65612890530514">
        <ele>87.27894618175924</ele>
        <time>2026-09-04T01:18:47Z</time>
      </trkpt>
      <trkpt lat="34.832391788955846" lon="113.65612161396271">
        <ele>88.25138495024294</ele>
        <time>2026-09-04T01:18:56Z</time>
      </trkpt>
      <trkpt lat="34.83249340129696" lon="113.65609537051459">
        <ele>87.12869840022177</ele>
        <time>2026-09-04T01:18:59Z</time>
      </trkpt>
      <trkpt lat="34.832676662289806" lon="113.65588007405232">
        <ele>88.10934539232403</ele>
        <time>2026-09-04T01:19:14Z</time>
      </trkpt>
      <trkpt lat="34.832728207011236" lon="113.65586453294664">
        <ele>88.26365828327835</ele>
        <time>2026-09-04T01:19:17Z</time>
      </trkpt>
      <trkpt lat="34.83277021473301" lon="113.65589291495561">
        <ele>87.1239306582138</ele>
        <time>2026-09-04T01:19:20Z</time>
      </trkpt>
      <trkpt lat="34.832910225339816" lon="113.65604917305151">
        <ele>87.415984749794</ele>
        <time>2026-09-04T01:19:29Z</time>
      </trkpt>
      <trkpt lat="34.833002662986" lon="113.65617621958677">
        <ele>87.51300082728267</ele>
        <time>2026-09-04T01:19:35Z</time>
      </trkpt>
      <trkpt lat="34.83311050502358" lon="113.65626555690889">
        <ele>87.13559374120086</ele>
        <time>2026-09-04T01:19:41Z</time>
      </trkpt>
      <trkpt lat="34.83337508852236" lon="113.65634930905982">
        <ele>88.73862086050212</ele>
        <time>2026-09-04T01:19:54Z</time>
      </trkpt>
      <trkpt lat="34.833583870698895" lon="113.65637495631918">
        <ele>88.16773827373981</ele>
        <time>2026-09-04T01:20:04Z</time>
      </trkpt>
      <trkpt lat="34.83384970923701" lon="113.65625110368613">
        <ele>88.94704744033515</ele>
        <time>2026-09-04T01:20:19Z</time>
      </trkpt>
      <trkpt lat="34.834089689251975" lon="113.65604691384954">
        <ele>87.34092718083411</ele>
        <time>2026-09-04T01:20:34Z</time>
      </trkpt>
      <trkpt lat="34.834162666868856" lon="113.65593716094332">
        <ele>87.71799316443503</ele>
        <time>2026-09-04T01:20:40Z</time>
      </trkpt>
      <trkpt lat="34.834255720331875" lon="113.6556598748763">
        <ele>88.58575638756156</ele>
        <time>2026-09-04T01:20:52Z</time>
      </trkpt>
      <trkpt lat="34.83426720827184" lon="113.65542603098073">
        <ele>90.96949256025255</ele>
        <time>2026-09-04T01:21:01Z</time>
      </trkpt>
      <trkpt lat="34.834202346113905" lon="113.65522029641612">
        <ele>90.7753814086318</ele>
        <time>2026-09-04T01:21:10Z</time>
      </trkpt>
      <trkpt lat="34.83413375057713" lon="113.65509007348446">
        <ele>90.97232557833195</ele>
        <time>2026-09-04T01:21:16Z</time>
      </trkpt>
      <trkpt lat="34.83401240463439" lon="113.65505048919829">
        <ele>88.79188168607652</ele>
        <time>2026-09-04T01:21:22Z</time>
      </trkpt>
      <trkpt lat="34.83395010365853" lon="113.65493876916148">
        <ele>88.67802310734987</ele>
        <time>2026-09-04T01:21:28Z</time>
      </trkpt>
      <trkpt lat="34.8339042242101" lon="113.65490134328572">
        <ele>88.74161722511053</ele>
        <time>2026-09-04T01:21:31Z</time>
      </trkpt>
      <trkpt lat="34.83361107086337" lon="113.65483344627437">
        <ele>89.07892656885087</ele>
        <time>2026-09-04T01:21:46Z</time>
      </trkpt>
      <trkpt lat="34.83339889821647" lon="113.65488902539678">
        <ele>88.23065532930195</ele>
        <time>2026-09-04T01:21:58Z</time>
      </trkpt>
      <trkpt lat="34.833324008524826" lon="113.65493522363317">
        <ele>87.6522613177076</ele>
        <time>2026-09-04T01:22:02Z</time>
      </trkpt>
      <trkpt lat="34.83324397318591" lon="113.65511307074586">
        <ele>89.37592252343893</ele>
        <time>2026-09-04T01:22:10Z</time>
      </trkpt>
      <trkpt lat="34.83326674136412" lon="113.65521344277272">
        <ele>88.08765569142997</ele>
        <time>2026-09-04T01:22:14Z</time>
      </trkpt>
      <trkpt lat="34.833310148670044" lon="113.65527389165426">
        <ele>87.57541974447668</ele>
        <time>2026-09-04T01:22:17Z</time>
      </trkpt>
      <trkpt lat="34.8333763308232" lon="113.65530296398646">
        <ele>87.59387820865959</ele>
        <time>2026-09-04T01:22:20Z</time>
      </trkpt>
      <trkpt lat="34.8334578208827" lon="113.65541486912579">
        <ele>87.89920938760042</ele>
        <time>2026-09-04T01:22:26Z</time>
      </trkpt>
      <trkpt lat="34.833629969483894" lon="113.65548069290077">
        <ele>88.35749749001116</ele>
        <time>2026-09-04T01:22:35Z</time>
      </trkpt>
      <trkpt lat="34.833871303929314" lon="113.6556803966067">
        <ele>88.97705637756735</ele>
        <time>2026-09-04T01:22:50Z</time>
      </trkpt>
      <trkpt lat="34.83405848703944" lon="113.65573779736991">
        <ele>89.59898178000003</ele>
        <time>2026-09-04T01:22:59Z</time>
      </trkpt>
      <trkpt lat="34.83410748344971" lon="113.6557839486085">
        <ele>89.05484452936798</ele>
        <time>2026-09-04T01:23:02Z</time>
      </trkpt>
      <trkpt lat="34.83414014890078" lon="113.65584133497389">
        <ele>89.58072308823466</ele>
        <time>2026-09-04T01:23:05Z</time>
      </trkpt>
      <trkpt lat="34.834016550381556" lon="113.6561212238761">
        <ele>88.12224046513438</ele>
        <time>2026-09-04T01:23:17Z</time>
      </trkpt>
      <trkpt lat="34.83382862078566" lon="113.65625224235008">
        <ele>87.52985754515976</ele>
        <time>2026-09-04T01:23:26Z</time>
      </trkpt>
      <trkpt lat="34.83376037110456" lon="113.65632059962518">
        <ele>87.32021752931178</ele>
        <time>2026-09-04T01:23:29Z</time>
      </trkpt>
      <trkpt lat="34.833616090431455" lon="113.65662272110686">
        <ele>87.74983683694154</ele>
        <time>2026-09-04T01:23:41Z</time>
      </trkpt>
      <trkpt lat="34.833558426470205" lon="113.65667659255129">
        <ele>88.34099420718849</ele>
        <time>2026-09-04T01:23:44Z</time>
      </trkpt>
      <trkpt lat="34.83350172168519" lon="113.65679734046844">
        <ele>87.64207960106432</ele>
        <time>2026-09-04T01:23:50Z</time>
      </trkpt>
      <trkpt lat="34.833463636031695" lon="113.65683695359847">
        <ele>87.17246939335018</ele>
        <time>2026-09-04T01:23:53Z</time>
      </trkpt>
      <trkpt lat="34.83317514735234" lon="113.65682308173265">
        <ele>87.14462644513696</ele>
        <time>2026-09-04T01:24:06Z</time>
      </trkpt>
      <trkpt lat="34.8328650125242" lon="113.65683039618942">
        <ele>86.9952605580911</ele>
        <time>2026-09-04T01:24:21Z</time>
      </trkpt>
      <trkpt lat="34.8325939055815" lon="113.65682597966699">
        <ele>85.79573489911854</ele>
        <time>2026-09-04T01:24:33Z</time>
      </trkpt>
      <trkpt lat="34.83230074354473" lon="113.65682509079797">
        <ele>86.67592531535774</ele>
        <time>2026-09-04T01:24:48Z</time>
      </trkpt>
      <trkpt lat="34.83224537979455" lon="113.65680940759793">
        <ele>86.07935339957476</ele>
        <time>2026-09-04T01:24:51Z</time>
      </trkpt>
      <trkpt lat="34.83222662958404" lon="113.65686877446947">
        <ele>87.98713704384863</ele>
        <time>2026-09-04T01:24:57Z</time>
      </trkpt>
      <trkpt lat="34.83225160463825" lon="113.65705658672488">
        <ele>88.2262256667018</ele>
        <time>2026-09-04T01:25:12Z</time>
      </trkpt>
      <trkpt lat="34.832246971503466" lon="113.65735781849087">
        <ele>87.710224901326</ele>
        <time>2026-09-04T01:25:24Z</time>
      </trkpt>
      <trkpt lat="34.832218859311574" lon="113.65747907853293">
        <ele>85.7865048404783</ele>
        <time>2026-09-04T01:25:30Z</time>
      </trkpt>
      <trkpt lat="34.832230255394414" lon="113.65770795420309">
        <ele>85.5331091992557</ele>
        <time>2026-09-04T01:25:36Z</time>
      </trkpt>
      <trkpt lat="34.832253325743196" lon="113.65807118205714">
        <ele>87.10596057400107</ele>
        <time>2026-09-04T01:25:51Z</time>
      </trkpt>
      <trkpt lat="34.83221414284927" lon="113.6584467524971">
        <ele>87.53000186663121</ele>
        <time>2026-09-04T01:26:06Z</time>
      </trkpt>
      <trkpt lat="34.83220181143262" lon="113.65852603024584">
        <ele>88.1154814818874</ele>
        <time>2026-09-04T01:26:09Z</time>
      </trkpt>
      <trkpt lat="34.83213720371881" lon="113.65858442372573">
        <ele>89.66068374086171</ele>
        <time>2026-09-04T01:26:13Z</time>
      </trkpt>
      <trkpt lat="34.83199527085162" lon="113.65859977616512">
        <ele>88.9190640617162</ele>
        <time>2026-09-04T01:26:21Z</time>
      </trkpt>
      <trkpt lat="34.83196129499244" lon="113.65850337545751">
        <ele>88.16793988458812</ele>
        <time>2026-09-04T01:26:25Z</time>
      </trkpt>
      <trkpt lat="34.83192330483412" lon="113.65845752013237">
        <ele>87.72344412840903</ele>
        <time>2026-09-04T01:26:28Z</time>
      </trkpt>
      <trkpt lat="34.83183921475081" lon="113.65838624914609">
        <ele>86.60947696957737</ele>
        <time>2026-09-04T01:26:34Z</time>
      </trkpt>
      <trkpt lat="34.831766336110725" lon="113.65826834390623">
        <ele>86.82760608289391</ele>
        <time>2026-09-04T01:26:40Z</time>
      </trkpt>
      <trkpt lat="34.83174828637403" lon="113.65820172932847">
        <ele>84.92358001414686</ele>
        <time>2026-09-04T01:26:43Z</time>
      </trkpt>
      <trkpt lat="34.8316747331222" lon="113.65813556010478">
        <ele>85.78950571082532</ele>
        <time>2026-09-04T01:26:49Z</time>
      </trkpt>
      <trkpt lat="34.83154293239849" lon="113.65815352521078">
        <ele>86.63124597165734</ele>
        <time>2026-09-04T01:26:55Z</time>
      </trkpt>
      <trkpt lat="34.83148239034486" lon="113.65809962458084">
        <ele>85.90181891527027</ele>
        <time>2026-09-04T01:26:58Z</time>
      </trkpt>
      <trkpt lat="34.83141790437714" lon="113.65807221883453">
        <ele>87.10852129384875</ele>
        <time>2026-09-04T01:27:01Z</time>
      </trkpt>
      <trkpt lat="34.83134568741015" lon="113.65807391969122">
        <ele>88.42071036528796</ele>
        <time>2026-09-04T01:27:04Z</time>
      </trkpt>
      <trkpt lat="34.831263993387026" lon="113.65812348892996">
        <ele>87.56865399330854</ele>
        <time>2026-09-04T01:27:10Z</time>
      </trkpt>
      <trkpt lat="34.8309663572197" lon="113.65818052675354">
        <ele>88.49367314018309</ele>
        <time>2026-09-04T01:27:25Z</time>
      </trkpt>
      <trkpt lat="34.83083552099005" lon="113.65824351001204">
        <ele>87.77201541513205</ele>
        <time>2026-09-04T01:27:31Z</time>
      </trkpt>
      <trkpt lat="34.830708017006664" lon="113.65825460162303">
        <ele>87.47296599671245</ele>
        <time>2026-09-04T01:27:40Z</time>
      </trkpt>
      <trkpt lat="34.83056077088458" lon="113.65820408250137">
        <ele>86.77105823811144</ele>
        <time>2026-09-04T01:27:46Z</time>
      </trkpt>
      <trkpt lat="34.83046586346757" lon="113.658270312672">
        <ele>85.44326114561409</ele>
        <time>2026-09-04T01:27:52Z</time>
      </trkpt>
      <trkpt lat="34.830402630491704" lon="113.65834120418874">
        <ele>86.06688442826271</ele>
        <time>2026-09-04T01:27:58Z</time>
      </trkpt>
      <trkpt lat="34.830370368293046" lon="113.65841249382954">
        <ele>86.88211436755955</ele>
        <time>2026-09-04T01:28:01Z</time>
      </trkpt>
      <trkpt lat="34.83018400288708" lon="113.65844801081234">
        <ele>87.39778359793127</ele>
        <time>2026-09-04T01:28:10Z</time>
      </trkpt>
      <trkpt lat="34.830078342502944" lon="113.65849155175394">
        <ele>87.58508697897196</ele>
        <time>2026-09-04T01:28:16Z</time>
      </trkpt>
      <trkpt lat="34.82990321885831" lon="113.65850347828008">
        <ele>87.93364764656872</ele>
        <time>2026-09-04T01:28:24Z</time>
      </trkpt>
      <trkpt lat="34.82979487661316" lon="113.65834975279635">
        <ele>86.36240505892783</ele>
        <time>2026-09-04T01:28:38Z</time>
      </trkpt>
      <trkpt lat="34.829739540575304" lon="113.65819713711618">
        <ele>88.90550347603858</ele>
        <time>2026-09-04T01:28:50Z</time>
      </trkpt>
      <trkpt lat="34.829739540575304" lon="113.65819713711618">
        <ele>88.90550347603858</ele>
        <time>2026-09-04T01:28:51Z</time>
      </trkpt>
    </trkseg>
  </trk>
</gpx>