<?xml version="1.0" encoding="UTF-8"?>
<gpx xmlns="http://www.topografix.com/GPX/1/1" xmlns:gpxtpx="http://www.garmin.com/xmlschemas/TrackPointExtension/v1" xmlns:xsi="http://www.w3.org/2001/XMLSchema-instance" xsi:schemaLocation="http://www.topografix.com/GPX/1/1 http://www.topografix.com/GPX/1/1/gpx.xsd" version="1.1" creator="gpx.py -- https://github.com/tkrajina/gpxpy">
  <trk>
    <name>gpx from keep</name>
    <type>Run</type>
    <trkseg>
      <trkpt lat="34.83098577715265" lon="113.65997898894643">
        <ele>93.21868896484375</ele>
        <time>2026-07-29T01:03:45Z</time>
      </trkpt>
      <trkpt lat="34.83104096955476" lon="113.66002919421986">
        <ele>91.646484375</ele>
        <time>2026-07-29T01:03:49Z</time>
      </trkpt>
      <trkpt lat="34.83123537682984" lon="113.66001050963919">
        <ele>90.1917498651892</ele>
        <time>2026-07-29T01:04:05Z</time>
      </trkpt>
      <trkpt lat="34.83134047999923" lon="113.66001982789815">
        <ele>93.32518341764808</ele>
        <time>2026-07-29T01:04:13Z</time>
      </trkpt>
      <trkpt lat="34.83156895741566" lon="113.65996629059107">
        <ele>94.64822533074766</ele>
        <time>2026-07-29T01:04:25Z</time>
      </trkpt>
      <trkpt lat="34.83187026270339" lon="113.65993230087153">
        <ele>94.06994318775833</ele>
        <time>2026-07-29T01:04:37Z</time>
      </trkpt>
      <trkpt lat="34.831961540622274" lon="113.65990689875117">
        <ele>94.15216010529548</ele>
        <time>2026-07-29T01:04:41Z</time>
      </trkpt>
      <trkpt lat="34.832044830560484" lon="113.65985842986001">
        <ele>93.46838364563882</ele>
        <time>2026-07-29T01:04:45Z</time>
      </trkpt>
      <trkpt lat="34.83208969561906" lon="113.6597713272194">
        <ele>92.23222531098872</ele>
        <time>2026-07-29T01:04:49Z</time>
      </trkpt>
      <trkpt lat="34.83209670124805" lon="113.65952336388658">
        <ele>90.3759349482134</ele>
        <time>2026-07-29T01:04:58Z</time>
      </trkpt>
      <trkpt lat="34.83208759037118" lon="113.659285459613">
        <ele>89.55158628337085</ele>
        <time>2026-07-29T01:05:07Z</time>
      </trkpt>
      <trkpt lat="34.832143089292344" lon="113.65889469503043">
        <ele>89.6080844886601</ele>
        <time>2026-07-29T01:05:22Z</time>
      </trkpt>
      <trkpt lat="34.83218391221519" lon="113.65857293724385">
        <ele>89.69852107204497</ele>
        <time>2026-07-29T01:05:34Z</time>
      </trkpt>
      <trkpt lat="34.832185015010054" lon="113.65817811576679">
        <ele>89.85144716314971</ele>
        <time>2026-07-29T01:05:49Z</time>
      </trkpt>
      <trkpt lat="34.8321911125048" lon="113.65778646900328">
        <ele>87.53835268784314</ele>
        <time>2026-07-29T01:06:05Z</time>
      </trkpt>
      <trkpt lat="34.83217752486761" lon="113.6576387373132">
        <ele>86.46578805800527</ele>
        <time>2026-07-29T01:06:11Z</time>
      </trkpt>
      <trkpt lat="34.83219134162515" lon="113.65747888009219">
        <ele>86.71320316102356</ele>
        <time>2026-07-29T01:06:17Z</time>
      </trkpt>
      <trkpt lat="34.83216129111426" lon="113.65734153239565">
        <ele>87.56601077783853</ele>
        <time>2026-07-29T01:06:23Z</time>
      </trkpt>
      <trkpt lat="34.83212477626991" lon="113.65727765816705">
        <ele>88.26523390319198</ele>
        <time>2026-07-29T01:06:26Z</time>
      </trkpt>
      <trkpt lat="34.83200886713523" lon="113.65723135333964">
        <ele>90.55385924689472</ele>
        <time>2026-07-29T01:06:32Z</time>
      </trkpt>
      <trkpt lat="34.831719160248824" lon="113.6572543503723">
        <ele>88.89051227085292</ele>
        <time>2026-07-29T01:06:47Z</time>
      </trkpt>
      <trkpt lat="34.83139435920856" lon="113.65722955980071">
        <ele>91.58090991899371</ele>
        <time>2026-07-29T01:07:02Z</time>
      </trkpt>
      <trkpt lat="34.83133653399985" lon="113.65722182510011">
        <ele>90.71312851458788</ele>
        <time>2026-07-29T01:07:05Z</time>
      </trkpt>
      <trkpt lat="34.83110009587148" lon="113.65719497916868">
        <ele>89.03381875064224</ele>
        <time>2026-07-29T01:07:17Z</time>
      </trkpt>
      <trkpt lat="34.83103461816964" lon="113.65720903817636">
        <ele>90.54015916306525</ele>
        <time>2026-07-29T01:07:20Z</time>
      </trkpt>
      <trkpt lat="34.830856267389066" lon="113.65719188679316">
        <ele>89.9345200555399</ele>
        <time>2026-07-29T01:07:29Z</time>
      </trkpt>
      <trkpt lat="34.8306110192089" lon="113.65713176595388">
        <ele>89.38820647913963</ele>
        <time>2026-07-29T01:07:41Z</time>
      </trkpt>
      <trkpt lat="34.830527887861514" lon="113.65716234586897">
        <ele>90.66271049901843</ele>
        <time>2026-07-29T01:07:44Z</time>
      </trkpt>
      <trkpt lat="34.830386473166875" lon="113.65719346659967">
        <ele>94.09579356666654</ele>
        <time>2026-07-29T01:07:50Z</time>
      </trkpt>
      <trkpt lat="34.83033948670551" lon="113.65723952421169">
        <ele>92.43106275331229</ele>
        <time>2026-07-29T01:07:53Z</time>
      </trkpt>
      <trkpt lat="34.830327555547726" lon="113.65743745743856">
        <ele>90.61508300993592</ele>
        <time>2026-07-29T01:08:01Z</time>
      </trkpt>
      <trkpt lat="34.83035019150449" lon="113.65771598588499">
        <ele>90.33658262621611</ele>
        <time>2026-07-29T01:08:12Z</time>
      </trkpt>
      <trkpt lat="34.8303376236745" lon="113.65808574048675">
        <ele>87.97828370239586</ele>
        <time>2026-07-29T01:08:27Z</time>
      </trkpt>
      <trkpt lat="34.83031434444188" lon="113.65842000302378">
        <ele>91.59001231286675</ele>
        <time>2026-07-29T01:08:39Z</time>
      </trkpt>
      <trkpt lat="34.83032221318643" lon="113.65882500430902">
        <ele>92.12489989306778</ele>
        <time>2026-07-29T01:08:54Z</time>
      </trkpt>
      <trkpt lat="34.83029268888639" lon="113.65918553039845">
        <ele>93.56272783782333</ele>
        <time>2026-07-29T01:09:09Z</time>
      </trkpt>
      <trkpt lat="34.83028825684224" lon="113.65932691514448">
        <ele>94.5246808314696</ele>
        <time>2026-07-29T01:09:15Z</time>
      </trkpt>
      <trkpt lat="34.830300878526714" lon="113.65938651608785">
        <ele>93.45511088799685</ele>
        <time>2026-07-29T01:09:18Z</time>
      </trkpt>
      <trkpt lat="34.83026294039694" lon="113.65977920615097">
        <ele>97.0812228191644</ele>
        <time>2026-07-29T01:09:33Z</time>
      </trkpt>
      <trkpt lat="34.830255936749076" lon="113.6598552713119">
        <ele>97.83135581575334</ele>
        <time>2026-07-29T01:09:36Z</time>
      </trkpt>
      <trkpt lat="34.83030254204916" lon="113.65997716286293">
        <ele>97.60809492319822</ele>
        <time>2026-07-29T01:09:42Z</time>
      </trkpt>
      <trkpt lat="34.83039928715608" lon="113.66001456472424">
        <ele>96.75779610592872</ele>
        <time>2026-07-29T01:09:48Z</time>
      </trkpt>
      <trkpt lat="34.8307191270359" lon="113.65999665751359">
        <ele>91.82968848664314</ele>
        <time>2026-07-29T01:10:08Z</time>
      </trkpt>
      <trkpt lat="34.830902054132494" lon="113.65997580137453">
        <ele>90.93916173372418</ele>
        <time>2026-07-29T01:10:16Z</time>
      </trkpt>
      <trkpt lat="34.831152037667636" lon="113.66001860073871">
        <ele>92.73683534562588</ele>
        <time>2026-07-29T01:10:28Z</time>
      </trkpt>
      <trkpt lat="34.8312056214282" lon="113.66004406178438">
        <ele>93.03548865299672</ele>
        <time>2026-07-29T01:10:32Z</time>
      </trkpt>
      <trkpt lat="34.831342152927625" lon="113.66004743846058">
        <ele>92.99463240243495</ele>
        <time>2026-07-29T01:10:38Z</time>
      </trkpt>
      <trkpt lat="34.831621429289385" lon="113.66000784938295">
        <ele>98.67328740563244</ele>
        <time>2026-07-29T01:10:50Z</time>
      </trkpt>
      <trkpt lat="34.83175449621061" lon="113.65996974876366">
        <ele>99.5932977925986</ele>
        <time>2026-07-29T01:10:56Z</time>
      </trkpt>
      <trkpt lat="34.831805590789386" lon="113.66000353933258">
        <ele>97.9229103429243</ele>
        <time>2026-07-29T01:10:59Z</time>
      </trkpt>
      <trkpt lat="34.83187743989623" lon="113.65997459105142">
        <ele>96.54061007127166</ele>
        <time>2026-07-29T01:11:02Z</time>
      </trkpt>
      <trkpt lat="34.83196472376447" lon="113.65997612213582">
        <ele>94.92725228704512</ele>
        <time>2026-07-29T01:11:05Z</time>
      </trkpt>
      <trkpt lat="34.83206756640157" lon="113.65992347412279">
        <ele>93.07285472471267</ele>
        <time>2026-07-29T01:11:11Z</time>
      </trkpt>
      <trkpt lat="34.83210318960586" lon="113.65987242774766">
        <ele>92.96875704266131</ele>
        <time>2026-07-29T01:11:14Z</time>
      </trkpt>
      <trkpt lat="34.832125770257285" lon="113.6597189827175">
        <ele>92.93724740389735</ele>
        <time>2026-07-29T01:11:20Z</time>
      </trkpt>
      <trkpt lat="34.832119922484694" lon="113.6596026301449">
        <ele>92.17719535622746</ele>
        <time>2026-07-29T01:11:26Z</time>
      </trkpt>
      <trkpt lat="34.83208644974486" lon="113.65923463733559">
        <ele>91.64178188610822</ele>
        <time>2026-07-29T01:11:41Z</time>
      </trkpt>
      <trkpt lat="34.832091198099896" lon="113.6590906608038">
        <ele>92.59992845356464</ele>
        <time>2026-07-29T01:11:47Z</time>
      </trkpt>
      <trkpt lat="34.832151159944814" lon="113.65871809242789">
        <ele>90.43354113586247</ele>
        <time>2026-07-29T01:12:02Z</time>
      </trkpt>
      <trkpt lat="34.832170369079236" lon="113.65865679325067">
        <ele>90.04974610544741</ele>
        <time>2026-07-29T01:12:05Z</time>
      </trkpt>
      <trkpt lat="34.832178997080746" lon="113.65828009799762">
        <ele>91.54017192218453</ele>
        <time>2026-07-29T01:12:20Z</time>
      </trkpt>
      <trkpt lat="34.83218766472713" lon="113.65806890456548">
        <ele>90.44208102673292</ele>
        <time>2026-07-29T01:12:30Z</time>
      </trkpt>
      <trkpt lat="34.83216710842289" lon="113.65781183379784">
        <ele>90.04971639905125</ele>
        <time>2026-07-29T01:12:39Z</time>
      </trkpt>
      <trkpt lat="34.832196917121536" lon="113.65764861244179">
        <ele>88.9454850088805</ele>
        <time>2026-07-29T01:12:45Z</time>
      </trkpt>
      <trkpt lat="34.832168940721715" lon="113.65759702948628">
        <ele>88.12372739147395</ele>
        <time>2026-07-29T01:12:48Z</time>
      </trkpt>
      <trkpt lat="34.83216384363226" lon="113.65751650036171">
        <ele>88.60924229212105</ele>
        <time>2026-07-29T01:12:51Z</time>
      </trkpt>
      <trkpt lat="34.832197960296746" lon="113.65735159973426">
        <ele>87.75044013187289</ele>
        <time>2026-07-29T01:12:57Z</time>
      </trkpt>
      <trkpt lat="34.83217997579976" lon="113.65729205876623">
        <ele>89.16331091988832</ele>
        <time>2026-07-29T01:13:00Z</time>
      </trkpt>
      <trkpt lat="34.83212688102667" lon="113.65720798881499">
        <ele>89.76477204542607</ele>
        <time>2026-07-29T01:13:03Z</time>
      </trkpt>
      <trkpt lat="34.83198117703872" lon="113.65717260023295">
        <ele>90.18136473651975</ele>
        <time>2026-07-29T01:13:12Z</time>
      </trkpt>
      <trkpt lat="34.83181800512057" lon="113.65718793255388">
        <ele>89.10726014804095</ele>
        <time>2026-07-29T01:13:21Z</time>
      </trkpt>
      <trkpt lat="34.831703091551915" lon="113.65722093853904">
        <ele>90.24114244803786</ele>
        <time>2026-07-29T01:13:27Z</time>
      </trkpt>
      <trkpt lat="34.83161324701356" lon="113.6571835478537">
        <ele>90.48678375966847</ele>
        <time>2026-07-29T01:13:33Z</time>
      </trkpt>
      <trkpt lat="34.83152734761443" lon="113.65720985698381">
        <ele>89.16301419772208</ele>
        <time>2026-07-29T01:13:36Z</time>
      </trkpt>
      <trkpt lat="34.831460563823015" lon="113.65717723756144">
        <ele>89.77793704718351</ele>
        <time>2026-07-29T01:13:39Z</time>
      </trkpt>
      <trkpt lat="34.83139283670305" lon="113.65719401734557">
        <ele>91.57518927473575</ele>
        <time>2026-07-29T01:13:42Z</time>
      </trkpt>
      <trkpt lat="34.831329557283716" lon="113.65717265806775">
        <ele>91.91698411665857</ele>
        <time>2026-07-29T01:13:45Z</time>
      </trkpt>
      <trkpt lat="34.8312669114204" lon="113.65717536567689">
        <ele>91.68648899067193</ele>
        <time>2026-07-29T01:13:48Z</time>
      </trkpt>
      <trkpt lat="34.831203785672635" lon="113.6571505977504">
        <ele>92.3734740652144</ele>
        <time>2026-07-29T01:13:51Z</time>
      </trkpt>
      <trkpt lat="34.83097064790983" lon="113.65716079041847">
        <ele>92.92639320716262</ele>
        <time>2026-07-29T01:14:03Z</time>
      </trkpt>
      <trkpt lat="34.83075031060026" lon="113.65710016666958">
        <ele>91.25599590037018</ele>
        <time>2026-07-29T01:14:16Z</time>
      </trkpt>
      <trkpt lat="34.83049558471371" lon="113.6571436481137">
        <ele>92.24645727686584</ele>
        <time>2026-07-29T01:14:28Z</time>
      </trkpt>
      <trkpt lat="34.8303395433093" lon="113.65724266109214">
        <ele>92.90036165900528</ele>
        <time>2026-07-29T01:14:36Z</time>
      </trkpt>
      <trkpt lat="34.830330832725735" lon="113.6573194333252">
        <ele>92.13301624450833</ele>
        <time>2026-07-29T01:14:39Z</time>
      </trkpt>
      <trkpt lat="34.83035031676583" lon="113.65746742940769">
        <ele>90.45157061703503</ele>
        <time>2026-07-29T01:14:45Z</time>
      </trkpt>
      <trkpt lat="34.83034698181123" lon="113.6577790430396">
        <ele>89.7904791906476</ele>
        <time>2026-07-29T01:14:57Z</time>
      </trkpt>
      <trkpt lat="34.83037245109746" lon="113.65789741150563">
        <ele>89.83343232050538</ele>
        <time>2026-07-29T01:15:03Z</time>
      </trkpt>
      <trkpt lat="34.830355609147034" lon="113.65804751070625">
        <ele>89.21002805419266</ele>
        <time>2026-07-29T01:15:09Z</time>
      </trkpt>
      <trkpt lat="34.83036965508318" lon="113.6581216431531">
        <ele>89.19586954452097</ele>
        <time>2026-07-29T01:15:12Z</time>
      </trkpt>
      <trkpt lat="34.83044102202584" lon="113.65823852362854">
        <ele>90.3269368764013</ele>
        <time>2026-07-29T01:15:18Z</time>
      </trkpt>
      <trkpt lat="34.830528306826416" lon="113.65827634393133">
        <ele>90.01045378670096</ele>
        <time>2026-07-29T01:15:24Z</time>
      </trkpt>
      <trkpt lat="34.8306437122256" lon="113.6582224453482">
        <ele>85.99140966683626</ele>
        <time>2026-07-29T01:15:36Z</time>
      </trkpt>
      <trkpt lat="34.83097595809882" lon="113.65815149723466">
        <ele>89.16325614415109</ele>
        <time>2026-07-29T01:15:51Z</time>
      </trkpt>
      <trkpt lat="34.83121048643562" lon="113.65817518585969">
        <ele>90.38312819972634</ele>
        <time>2026-07-29T01:16:03Z</time>
      </trkpt>
      <trkpt lat="34.8314548948331" lon="113.65827136666208">
        <ele>94.15533604752272</ele>
        <time>2026-07-29T01:16:15Z</time>
      </trkpt>
      <trkpt lat="34.83155775590305" lon="113.65819075276843">
        <ele>90.88314741104841</ele>
        <time>2026-07-29T01:16:22Z</time>
      </trkpt>
      <trkpt lat="34.8315197594772" lon="113.6582469077816">
        <ele>88.34245592076331</ele>
        <time>2026-07-29T01:16:26Z</time>
      </trkpt>
      <trkpt lat="34.8315660090373" lon="113.65826969787332">
        <ele>87.7882362511009</ele>
        <time>2026-07-29T01:16:34Z</time>
      </trkpt>
      <trkpt lat="34.83161576055366" lon="113.65835556520086">
        <ele>86.62444759532809</ele>
        <time>2026-07-29T01:16:40Z</time>
      </trkpt>
      <trkpt lat="34.831623741807384" lon="113.65841142489819">
        <ele>87.86547903064638</ele>
        <time>2026-07-29T01:16:43Z</time>
      </trkpt>
      <trkpt lat="34.831754979978655" lon="113.65838499558822">
        <ele>83.83298846241087</ele>
        <time>2026-07-29T01:16:49Z</time>
      </trkpt>
      <trkpt lat="34.831801880452026" lon="113.65843597980827">
        <ele>84.07716396823525</ele>
        <time>2026-07-29T01:16:52Z</time>
      </trkpt>
      <trkpt lat="34.831851874016955" lon="113.65845955011049">
        <ele>84.36165117379278</ele>
        <time>2026-07-29T01:16:55Z</time>
      </trkpt>
      <trkpt lat="34.83193448402508" lon="113.65854072679498">
        <ele>86.28359244018793</ele>
        <time>2026-07-29T01:16:58Z</time>
      </trkpt>
      <trkpt lat="34.83201703046313" lon="113.65857743268796">
        <ele>90.71030713617802</ele>
        <time>2026-07-29T01:17:01Z</time>
      </trkpt>
      <trkpt lat="34.832079457043676" lon="113.65858518269921">
        <ele>90.6805573394522</ele>
        <time>2026-07-29T01:17:04Z</time>
      </trkpt>
      <trkpt lat="34.83214498472663" lon="113.65856531753094">
        <ele>91.73132196161896</ele>
        <time>2026-07-29T01:17:07Z</time>
      </trkpt>
      <trkpt lat="34.83218521772288" lon="113.65860519011812">
        <ele>90.99970787297934</ele>
        <time>2026-07-29T01:17:10Z</time>
      </trkpt>
      <trkpt lat="34.832202752640384" lon="113.6586843555912">
        <ele>90.9843535060063</ele>
        <time>2026-07-29T01:17:13Z</time>
      </trkpt>
      <trkpt lat="34.83215711941451" lon="113.65883037231896">
        <ele>91.87080899160355</ele>
        <time>2026-07-29T01:17:19Z</time>
      </trkpt>
      <trkpt lat="34.832145732320846" lon="113.65896787071841">
        <ele>91.855798070319</ele>
        <time>2026-07-29T01:17:25Z</time>
      </trkpt>
      <trkpt lat="34.83208702914723" lon="113.65908419976998">
        <ele>91.32821139879525</ele>
        <time>2026-07-29T01:17:31Z</time>
      </trkpt>
      <trkpt lat="34.83204254036006" lon="113.65912595484511">
        <ele>90.9669427908957</ele>
        <time>2026-07-29T01:17:34Z</time>
      </trkpt>
      <trkpt lat="34.83186688882818" lon="113.65909891335771">
        <ele>89.35676890984178</ele>
        <time>2026-07-29T01:17:43Z</time>
      </trkpt>
      <trkpt lat="34.83180996327782" lon="113.65911570989584">
        <ele>88.85174303781241</ele>
        <time>2026-07-29T01:17:46Z</time>
      </trkpt>
      <trkpt lat="34.831683375444925" lon="113.6591130855784">
        <ele>89.04538686480373</ele>
        <time>2026-07-29T01:17:52Z</time>
      </trkpt>
      <trkpt lat="34.83148365642806" lon="113.65916811585706">
        <ele>91.20025191269815</ele>
        <time>2026-07-29T01:18:01Z</time>
      </trkpt>
      <trkpt lat="34.831409416172185" lon="113.65916221370802">
        <ele>90.89634898025542</ele>
        <time>2026-07-29T01:18:04Z</time>
      </trkpt>
      <trkpt lat="34.83130353244241" lon="113.6590771839903">
        <ele>92.69783504679799</ele>
        <time>2026-07-29T01:18:10Z</time>
      </trkpt>
      <trkpt lat="34.83112487657639" lon="113.65913545905435">
        <ele>94.6889866348356</ele>
        <time>2026-07-29T01:18:19Z</time>
      </trkpt>
      <trkpt lat="34.831018719661905" lon="113.65928268750292">
        <ele>90.96373370289803</ele>
        <time>2026-07-29T01:18:29Z</time>
      </trkpt>
      <trkpt lat="34.83098418343449" lon="113.6593725970935">
        <ele>91.59215032868087</ele>
        <time>2026-07-29T01:18:37Z</time>
      </trkpt>
      <trkpt lat="34.83103612115341" lon="113.65979151296766">
        <ele>90.5100672589615</ele>
        <time>2026-07-29T01:18:50Z</time>
      </trkpt>
      <trkpt lat="34.83102543646768" lon="113.6599252210512">
        <ele>90.4957859357819</ele>
        <time>2026-07-29T01:18:53Z</time>
      </trkpt>
      <trkpt lat="34.83098927205957" lon="113.65998017490253">
        <ele>90.10922033526003</ele>
        <time>2026-07-29T01:18:56Z</time>
      </trkpt>
      <trkpt lat="34.83092799629207" lon="113.65999950112943">
        <ele>90.60999738425016</ele>
        <time>2026-07-29T01:18:59Z</time>
      </trkpt>
      <trkpt lat="34.830638578124216" lon="113.65993451255441">
        <ele>89.62766506895423</ele>
        <time>2026-07-29T01:19:14Z</time>
      </trkpt>
      <trkpt lat="34.83037773689012" lon="113.65993224912117">
        <ele>89.61795882321894</ele>
        <time>2026-07-29T01:19:26Z</time>
      </trkpt>
      <trkpt lat="34.83027177652575" lon="113.65988177935209">
        <ele>89.10491055529565</ele>
        <time>2026-07-29T01:19:32Z</time>
      </trkpt>
      <trkpt lat="34.83024460845753" lon="113.65982312297331">
        <ele>90.61102588661015</ele>
        <time>2026-07-29T01:19:35Z</time>
      </trkpt>
      <trkpt lat="34.830231991267155" lon="113.65966623273516">
        <ele>89.57931224256754</ele>
        <time>2026-07-29T01:19:41Z</time>
      </trkpt>
      <trkpt lat="34.83024152000192" lon="113.65935462743035">
        <ele>87.75025639217347</ele>
        <time>2026-07-29T01:19:53Z</time>
      </trkpt>
      <trkpt lat="34.83022155138799" lon="113.65920187800147">
        <ele>87.30018327571452</ele>
        <time>2026-07-29T01:19:59Z</time>
      </trkpt>
      <trkpt lat="34.83022299318578" lon="113.65885513174298">
        <ele>88.45919364411384</ele>
        <time>2026-07-29T01:20:11Z</time>
      </trkpt>
      <trkpt lat="34.83023422477567" lon="113.65869843946561">
        <ele>89.24679515790194</ele>
        <time>2026-07-29T01:20:17Z</time>
      </trkpt>
      <trkpt lat="34.83026231523495" lon="113.6586045040669">
        <ele>90.54738215915859</ele>
        <time>2026-07-29T01:20:20Z</time>
      </trkpt>
      <trkpt lat="34.83023742929325" lon="113.65843952567174">
        <ele>91.54792436119169</ele>
        <time>2026-07-29T01:20:26Z</time>
      </trkpt>
      <trkpt lat="34.830178418376526" lon="113.65841628841734">
        <ele>90.89319871272892</ele>
        <time>2026-07-29T01:20:29Z</time>
      </trkpt>
      <trkpt lat="34.82999407693275" lon="113.65852513836202">
        <ele>89.91660308465362</ele>
        <time>2026-07-29T01:20:37Z</time>
      </trkpt>
      <trkpt lat="34.82976966640426" lon="113.6584933068537">
        <ele>88.85294124484062</ele>
        <time>2026-07-29T01:20:50Z</time>
      </trkpt>
      <trkpt lat="34.82974088492666" lon="113.65842077202078">
        <ele>90.0541704846546</ele>
        <time>2026-07-29T01:20:56Z</time>
      </trkpt>
      <trkpt lat="34.82970890068326" lon="113.65820207253054">
        <ele>89.35676581412554</ele>
        <time>2026-07-29T01:21:08Z</time>
      </trkpt>
      <trkpt lat="34.82968709693323" lon="113.65814495249263">
        <ele>89.4367132242769</ele>
        <time>2026-07-29T01:21:11Z</time>
      </trkpt>
      <trkpt lat="34.829411216818315" lon="113.65806964725802">
        <ele>87.98108859732747</ele>
        <time>2026-07-29T01:21:29Z</time>
      </trkpt>
      <trkpt lat="34.829337801932795" lon="113.65807417338243">
        <ele>88.02398432139307</ele>
        <time>2026-07-29T01:21:35Z</time>
      </trkpt>
      <trkpt lat="34.82929672152142" lon="113.65799545528593">
        <ele>88.20667141117156</ele>
        <time>2026-07-29T01:21:41Z</time>
      </trkpt>
      <trkpt lat="34.82928715875716" lon="113.65788605076227">
        <ele>88.16257363650948</ele>
        <time>2026-07-29T01:21:47Z</time>
      </trkpt>
      <trkpt lat="34.82930594925565" lon="113.65767409722675">
        <ele>88.86397951189429</ele>
        <time>2026-07-29T01:21:59Z</time>
      </trkpt>
      <trkpt lat="34.82935057210681" lon="113.65758381632904">
        <ele>88.31894913222641</ele>
        <time>2026-07-29T01:22:02Z</time>
      </trkpt>
      <trkpt lat="34.82938785070933" lon="113.65742452646046">
        <ele>90.08481115847826</ele>
        <time>2026-07-29T01:22:14Z</time>
      </trkpt>
      <trkpt lat="34.8293662231652" lon="113.65727993780017">
        <ele>90.09973817877471</ele>
        <time>2026-07-29T01:22:23Z</time>
      </trkpt>
      <trkpt lat="34.82938263568041" lon="113.6572231295494">
        <ele>88.56090063694865</ele>
        <time>2026-07-29T01:22:26Z</time>
      </trkpt>
      <trkpt lat="34.829370511453256" lon="113.65702866198829">
        <ele>90.64978558477014</ele>
        <time>2026-07-29T01:22:39Z</time>
      </trkpt>
      <trkpt lat="34.8293327225281" lon="113.6569291293598">
        <ele>90.93885904550552</ele>
        <time>2026-07-29T01:22:45Z</time>
      </trkpt>
      <trkpt lat="34.82921792439074" lon="113.65680529630177">
        <ele>92.3787628179416</ele>
        <time>2026-07-29T01:22:54Z</time>
      </trkpt>
      <trkpt lat="34.82909414453871" lon="113.6567914630295">
        <ele>92.92334443796426</ele>
        <time>2026-07-29T01:23:03Z</time>
      </trkpt>
      <trkpt lat="34.829013234012734" lon="113.65682218339545">
        <ele>92.56289122905582</ele>
        <time>2026-07-29T01:23:09Z</time>
      </trkpt>
      <trkpt lat="34.82893306067127" lon="113.65680858396085">
        <ele>92.5222100103274</ele>
        <time>2026-07-29T01:23:15Z</time>
      </trkpt>
      <trkpt lat="34.82864810047287" lon="113.65690315504276">
        <ele>91.09554366301745</ele>
        <time>2026-07-29T01:23:36Z</time>
      </trkpt>
      <trkpt lat="34.828491364606705" lon="113.65691950735874">
        <ele>92.26802341546863</ele>
        <time>2026-07-29T01:23:48Z</time>
      </trkpt>
      <trkpt lat="34.828382420644594" lon="113.65686319577625">
        <ele>93.95434475131333</ele>
        <time>2026-07-29T01:23:57Z</time>
      </trkpt>
      <trkpt lat="34.82833056094437" lon="113.65686110754943">
        <ele>95.41490241885185</ele>
        <time>2026-07-29T01:24:00Z</time>
      </trkpt>
      <trkpt lat="34.82827396232869" lon="113.65688790742185">
        <ele>95.82360586244613</ele>
        <time>2026-07-29T01:24:03Z</time>
      </trkpt>
      <trkpt lat="34.82822896943614" lon="113.65697883768371">
        <ele>97.40686991158873</ele>
        <time>2026-07-29T01:24:09Z</time>
      </trkpt>
      <trkpt lat="34.828201344743185" lon="113.65715922444289">
        <ele>93.96785791870207</ele>
        <time>2026-07-29T01:24:21Z</time>
      </trkpt>
      <trkpt lat="34.82820150450401" lon="113.65757177717013">
        <ele>91.33070165663958</ele>
        <time>2026-07-29T01:24:42Z</time>
      </trkpt>
      <trkpt lat="34.828205837955714" lon="113.65774354024296">
        <ele>91.15330818388611</ele>
        <time>2026-07-29T01:24:52Z</time>
      </trkpt>
      <trkpt lat="34.82824711059428" lon="113.65778184886126">
        <ele>91.32177195418626</ele>
        <time>2026-07-29T01:24:55Z</time>
      </trkpt>
      <trkpt lat="34.82818358005236" lon="113.65781122412261">
        <ele>91.39095064345747</ele>
        <time>2026-07-29T01:25:04Z</time>
      </trkpt>
      <trkpt lat="34.8282289442362" lon="113.65779805623342">
        <ele>91.34478325210512</ele>
        <time>2026-07-29T01:25:07Z</time>
      </trkpt>
    </trkseg>
  </trk>
</gpx>