<?xml version="1.0" encoding="UTF-8"?>
<gpx xmlns="http://www.topografix.com/GPX/1/1" xmlns:gpxtpx="http://www.garmin.com/xmlschemas/TrackPointExtension/v1" xmlns:xsi="http://www.w3.org/2001/XMLSchema-instance" xsi:schemaLocation="http://www.topografix.com/GPX/1/1 http://www.topografix.com/GPX/1/1/gpx.xsd" version="1.1" creator="gpx.py -- https://github.com/tkrajina/gpxpy">
  <trk>
    <name>gpx from keep</name>
    <type>Run</type>
    <trkseg>
      <trkpt lat="34.829223317414545" lon="113.65809833885243">
        <ele>110.89918056409806</ele>
        <time>2026-09-25T22:39:47Z</time>
      </trkpt>
      <trkpt lat="34.82938650661255" lon="113.65810088936225">
        <ele>108.14456606842577</ele>
        <time>2026-09-25T22:39:53Z</time>
      </trkpt>
      <trkpt lat="34.82958251501314" lon="113.65814864860572">
        <ele>108.9890091624111</ele>
        <time>2026-09-25T22:40:05Z</time>
      </trkpt>
      <trkpt lat="34.82974129432002" lon="113.65809233161549">
        <ele>96.21674891002476</ele>
        <time>2026-09-25T22:40:08Z</time>
      </trkpt>
      <trkpt lat="34.82979289821335" lon="113.65802696544479">
        <ele>99.01210477761924</ele>
        <time>2026-09-25T22:40:11Z</time>
      </trkpt>
      <trkpt lat="34.8298148429139" lon="113.6579630331257">
        <ele>100.47324660606682</ele>
        <time>2026-09-25T22:40:14Z</time>
      </trkpt>
      <trkpt lat="34.82977698726353" lon="113.65790965376758">
        <ele>99.25063903443515</ele>
        <time>2026-09-25T22:40:17Z</time>
      </trkpt>
      <trkpt lat="34.829751355844635" lon="113.65779667761662">
        <ele>96.510488958098</ele>
        <time>2026-09-25T22:40:23Z</time>
      </trkpt>
      <trkpt lat="34.829785212396345" lon="113.65760430501969">
        <ele>96.16170932818204</ele>
        <time>2026-09-25T22:40:32Z</time>
      </trkpt>
      <trkpt lat="34.82981630254365" lon="113.65753919708547">
        <ele>95.88870740961283</ele>
        <time>2026-09-25T22:40:35Z</time>
      </trkpt>
      <trkpt lat="34.82985899284086" lon="113.65720944502716">
        <ele>98.8897526068613</ele>
        <time>2026-09-25T22:40:47Z</time>
      </trkpt>
      <trkpt lat="34.8298813888464" lon="113.65692261979993">
        <ele>99.98055072221905</ele>
        <time>2026-09-25T22:40:59Z</time>
      </trkpt>
      <trkpt lat="34.82981610568099" lon="113.65670637673064">
        <ele>95.63244927860796</ele>
        <time>2026-09-25T22:41:08Z</time>
      </trkpt>
      <trkpt lat="34.82984062863088" lon="113.65643714485357">
        <ele>93.07915650028735</ele>
        <time>2026-09-25T22:41:23Z</time>
      </trkpt>
      <trkpt lat="34.82982036330994" lon="113.65623173979886">
        <ele>91.41552433464676</ele>
        <time>2026-09-25T22:41:32Z</time>
      </trkpt>
      <trkpt lat="34.82985169210001" lon="113.65599956145596">
        <ele>94.2175753870979</ele>
        <time>2026-09-25T22:41:48Z</time>
      </trkpt>
      <trkpt lat="34.830108045263415" lon="113.65585308426321">
        <ele>93.87201437726617</ele>
        <time>2026-09-25T22:42:03Z</time>
      </trkpt>
      <trkpt lat="34.83022032605651" lon="113.65580292202189">
        <ele>93.42825381085277</ele>
        <time>2026-09-25T22:42:09Z</time>
      </trkpt>
      <trkpt lat="34.83034495268325" lon="113.6558371633867">
        <ele>92.51375880371779</ele>
        <time>2026-09-25T22:42:15Z</time>
      </trkpt>
      <trkpt lat="34.83036445483879" lon="113.65591861701873">
        <ele>91.37028349097818</ele>
        <time>2026-09-25T22:42:18Z</time>
      </trkpt>
      <trkpt lat="34.83040509199242" lon="113.65596645707515">
        <ele>91.12177058774978</ele>
        <time>2026-09-25T22:42:21Z</time>
      </trkpt>
      <trkpt lat="34.83041390978046" lon="113.65604896546611">
        <ele>90.91084239445627</ele>
        <time>2026-09-25T22:42:24Z</time>
      </trkpt>
      <trkpt lat="34.83051582164977" lon="113.65614825716439">
        <ele>90.68767595849931</ele>
        <time>2026-09-25T22:42:31Z</time>
      </trkpt>
      <trkpt lat="34.83069916267531" lon="113.65617516127165">
        <ele>90.21965662389994</ele>
        <time>2026-09-25T22:42:40Z</time>
      </trkpt>
      <trkpt lat="34.830926583003006" lon="113.6560679722697">
        <ele>91.90356461983174</ele>
        <time>2026-09-25T22:42:52Z</time>
      </trkpt>
      <trkpt lat="34.83100461581066" lon="113.65607192956412">
        <ele>92.6639556242153</ele>
        <time>2026-09-25T22:42:55Z</time>
      </trkpt>
      <trkpt lat="34.8311065568736" lon="113.65612251156055">
        <ele>91.14020197745413</ele>
        <time>2026-09-25T22:43:01Z</time>
      </trkpt>
      <trkpt lat="34.83122195986379" lon="113.65612883109945">
        <ele>91.71280377171934</ele>
        <time>2026-09-25T22:43:07Z</time>
      </trkpt>
      <trkpt lat="34.83129603966724" lon="113.65616219857662">
        <ele>92.79782314132899</ele>
        <time>2026-09-25T22:43:10Z</time>
      </trkpt>
      <trkpt lat="34.831345884124154" lon="113.65620633234442">
        <ele>92.47710234299302</ele>
        <time>2026-09-25T22:43:13Z</time>
      </trkpt>
      <trkpt lat="34.83140282282182" lon="113.6562279600354">
        <ele>92.90738255530596</ele>
        <time>2026-09-25T22:43:16Z</time>
      </trkpt>
      <trkpt lat="34.831464325564866" lon="113.65620175505317">
        <ele>91.44720546342432</ele>
        <time>2026-09-25T22:43:19Z</time>
      </trkpt>
      <trkpt lat="34.83150102211126" lon="113.65615254144194">
        <ele>90.40605021174997</ele>
        <time>2026-09-25T22:43:22Z</time>
      </trkpt>
      <trkpt lat="34.831774253514816" lon="113.65599214558053">
        <ele>90.38699587807059</ele>
        <time>2026-09-25T22:43:37Z</time>
      </trkpt>
      <trkpt lat="34.831809747890276" lon="113.6559373707994">
        <ele>90.34912855178118</ele>
        <time>2026-09-25T22:43:40Z</time>
      </trkpt>
      <trkpt lat="34.83187080556364" lon="113.6559019033601">
        <ele>89.19558965135366</ele>
        <time>2026-09-25T22:43:46Z</time>
      </trkpt>
      <trkpt lat="34.831934193376135" lon="113.65590681978924">
        <ele>87.89570341072977</ele>
        <time>2026-09-25T22:43:49Z</time>
      </trkpt>
      <trkpt lat="34.83211998168374" lon="113.65607482315183">
        <ele>87.32379168085754</ele>
        <time>2026-09-25T22:43:59Z</time>
      </trkpt>
      <trkpt lat="34.83218553557231" lon="113.65608291310957">
        <ele>86.30367116816342</ele>
        <time>2026-09-25T22:44:02Z</time>
      </trkpt>
      <trkpt lat="34.83225355510071" lon="113.65611470072653">
        <ele>87.76991438306868</ele>
        <time>2026-09-25T22:44:05Z</time>
      </trkpt>
      <trkpt lat="34.83238625593972" lon="113.65610770672589">
        <ele>86.94333741441369</ele>
        <time>2026-09-25T22:44:11Z</time>
      </trkpt>
      <trkpt lat="34.83254566699112" lon="113.6560083256526">
        <ele>90.1480693873018</ele>
        <time>2026-09-25T22:44:20Z</time>
      </trkpt>
      <trkpt lat="34.832574624579564" lon="113.65595306343131">
        <ele>90.9831309709698</ele>
        <time>2026-09-25T22:44:23Z</time>
      </trkpt>
      <trkpt lat="34.83269165631428" lon="113.65584229298156">
        <ele>89.97031431179494</ele>
        <time>2026-09-25T22:44:32Z</time>
      </trkpt>
      <trkpt lat="34.832755247388086" lon="113.65583814447784">
        <ele>89.67838570009917</ele>
        <time>2026-09-25T22:44:35Z</time>
      </trkpt>
      <trkpt lat="34.83287190070231" lon="113.65592643256569">
        <ele>90.49870414752513</ele>
        <time>2026-09-25T22:44:41Z</time>
      </trkpt>
      <trkpt lat="34.83288366164002" lon="113.6559981946771">
        <ele>91.06723193638027</ele>
        <time>2026-09-25T22:44:44Z</time>
      </trkpt>
      <trkpt lat="34.83307088214419" lon="113.65619932835027">
        <ele>90.8349980218336</ele>
        <time>2026-09-25T22:44:56Z</time>
      </trkpt>
      <trkpt lat="34.833130510507615" lon="113.65622174374266">
        <ele>89.01241743937135</ele>
        <time>2026-09-25T22:44:59Z</time>
      </trkpt>
      <trkpt lat="34.8331810917897" lon="113.65628489438649">
        <ele>91.49419654160738</ele>
        <time>2026-09-25T22:45:02Z</time>
      </trkpt>
      <trkpt lat="34.83334127992622" lon="113.65634040039517">
        <ele>91.68822390213609</ele>
        <time>2026-09-25T22:45:11Z</time>
      </trkpt>
      <trkpt lat="34.833617241835334" lon="113.65633433336858">
        <ele>90.24202109128237</ele>
        <time>2026-09-25T22:45:26Z</time>
      </trkpt>
      <trkpt lat="34.83382498736884" lon="113.65624224742533">
        <ele>91.76716845668852</ele>
        <time>2026-09-25T22:45:38Z</time>
      </trkpt>
      <trkpt lat="34.83406038585146" lon="113.65607080448447">
        <ele>89.04167742282152</ele>
        <time>2026-09-25T22:45:53Z</time>
      </trkpt>
      <trkpt lat="34.83416203047474" lon="113.65594774457445">
        <ele>89.9899157397449</ele>
        <time>2026-09-25T22:46:00Z</time>
      </trkpt>
      <trkpt lat="34.83420166768822" lon="113.6558652478628">
        <ele>89.65094884671271</ele>
        <time>2026-09-25T22:46:04Z</time>
      </trkpt>
      <trkpt lat="34.8342645009874" lon="113.65553638624196">
        <ele>91.5267840353772</ele>
        <time>2026-09-25T22:46:18Z</time>
      </trkpt>
      <trkpt lat="34.834256519922775" lon="113.65539155041999">
        <ele>91.86909847613424</ele>
        <time>2026-09-25T22:46:24Z</time>
      </trkpt>
      <trkpt lat="34.83416552632694" lon="113.65511868880611">
        <ele>93.69404839258641</ele>
        <time>2026-09-25T22:46:36Z</time>
      </trkpt>
      <trkpt lat="34.83412893370338" lon="113.65505328132414">
        <ele>94.64216246362776</ele>
        <time>2026-09-25T22:46:39Z</time>
      </trkpt>
      <trkpt lat="34.83402573087854" lon="113.6550276005044">
        <ele>93.90592724364251</ele>
        <time>2026-09-25T22:46:45Z</time>
      </trkpt>
      <trkpt lat="34.83395850853599" lon="113.65490676821078">
        <ele>93.49854680802673</ele>
        <time>2026-09-25T22:46:51Z</time>
      </trkpt>
      <trkpt lat="34.83379470146667" lon="113.65481204721796">
        <ele>93.99176905862987</ele>
        <time>2026-09-25T22:47:00Z</time>
      </trkpt>
      <trkpt lat="34.8335697689491" lon="113.65477720739521">
        <ele>93.81998868193477</ele>
        <time>2026-09-25T22:47:12Z</time>
      </trkpt>
      <trkpt lat="34.83336445751639" lon="113.65484992934374">
        <ele>92.16076142992824</ele>
        <time>2026-09-25T22:47:24Z</time>
      </trkpt>
      <trkpt lat="34.83332241678657" lon="113.65489301227647">
        <ele>91.62501551862806</ele>
        <time>2026-09-25T22:47:27Z</time>
      </trkpt>
      <trkpt lat="34.833180766976696" lon="113.65514780441221">
        <ele>91.92851226311177</ele>
        <time>2026-09-25T22:47:39Z</time>
      </trkpt>
      <trkpt lat="34.83308754272198" lon="113.65522981243409">
        <ele>91.22434894647449</ele>
        <time>2026-09-25T22:47:45Z</time>
      </trkpt>
      <trkpt lat="34.83286260427563" lon="113.65524647542765">
        <ele>89.98613247089088</ele>
        <time>2026-09-25T22:47:57Z</time>
      </trkpt>
      <trkpt lat="34.83273957429223" lon="113.65520856200689">
        <ele>90.21310418378562</ele>
        <time>2026-09-25T22:48:04Z</time>
      </trkpt>
      <trkpt lat="34.83276779435723" lon="113.65510988099442">
        <ele>90.4968273891136</ele>
        <time>2026-09-25T22:48:08Z</time>
      </trkpt>
      <trkpt lat="34.832946663409004" lon="113.65491426130468">
        <ele>91.34724024310708</ele>
        <time>2026-09-25T22:48:20Z</time>
      </trkpt>
      <trkpt lat="34.83292381975547" lon="113.65482516597386">
        <ele>91.22581496369094</ele>
        <time>2026-09-25T22:48:24Z</time>
      </trkpt>
      <trkpt lat="34.832852267481776" lon="113.65477226344652">
        <ele>90.84152931440622</ele>
        <time>2026-09-25T22:48:28Z</time>
      </trkpt>
      <trkpt lat="34.83267125992704" lon="113.65474799716449">
        <ele>90.40771019458771</ele>
        <time>2026-09-25T22:48:40Z</time>
      </trkpt>
      <trkpt lat="34.832628482703896" lon="113.65455450069828">
        <ele>89.60876019485295</ele>
        <time>2026-09-25T22:48:49Z</time>
      </trkpt>
      <trkpt lat="34.83267845629896" lon="113.6544713012784">
        <ele>90.04994658194482</ele>
        <time>2026-09-25T22:48:55Z</time>
      </trkpt>
      <trkpt lat="34.832794245320976" lon="113.65444139919782">
        <ele>90.76833472494036</ele>
        <time>2026-09-25T22:49:01Z</time>
      </trkpt>
      <trkpt lat="34.83283936129992" lon="113.65440929030308">
        <ele>90.74185323342681</ele>
        <time>2026-09-25T22:49:04Z</time>
      </trkpt>
      <trkpt lat="34.832838876226205" lon="113.65406171200189">
        <ele>91.62861759588122</ele>
        <time>2026-09-25T22:49:22Z</time>
      </trkpt>
      <trkpt lat="34.83284022782484" lon="113.65373131229332">
        <ele>90.37114226911217</ele>
        <time>2026-09-25T22:49:37Z</time>
      </trkpt>
      <trkpt lat="34.83275817914485" lon="113.65357796927258">
        <ele>88.94333458412439</ele>
        <time>2026-09-25T22:49:46Z</time>
      </trkpt>
      <trkpt lat="34.83275465899536" lon="113.65351125562258">
        <ele>88.04020692128688</ele>
        <time>2026-09-25T22:49:49Z</time>
      </trkpt>
      <trkpt lat="34.83277544487004" lon="113.65346157665715">
        <ele>86.31284604780376</ele>
        <time>2026-09-25T22:49:52Z</time>
      </trkpt>
      <trkpt lat="34.8329303442462" lon="113.65329498171307">
        <ele>87.48974417056888</ele>
        <time>2026-09-25T22:50:07Z</time>
      </trkpt>
      <trkpt lat="34.832989921403254" lon="113.65325274518659">
        <ele>88.45111275650561</ele>
        <time>2026-09-25T22:50:11Z</time>
      </trkpt>
      <trkpt lat="34.833049584870665" lon="113.65313704370324">
        <ele>87.61981657333672</ele>
        <time>2026-09-25T22:50:19Z</time>
      </trkpt>
      <trkpt lat="34.833059728413566" lon="113.65303152412946">
        <ele>89.02974323928356</ele>
        <time>2026-09-25T22:50:23Z</time>
      </trkpt>
      <trkpt lat="34.833118563321285" lon="113.65290466439106">
        <ele>89.99473143462092</ele>
        <time>2026-09-25T22:50:29Z</time>
      </trkpt>
      <trkpt lat="34.83317485215489" lon="113.65285546115969">
        <ele>90.35976473614573</ele>
        <time>2026-09-25T22:50:32Z</time>
      </trkpt>
      <trkpt lat="34.83335620561853" lon="113.65279026036094">
        <ele>90.18353694770485</ele>
        <time>2026-09-25T22:50:41Z</time>
      </trkpt>
      <trkpt lat="34.83343121763153" lon="113.652688432955">
        <ele>89.74419172015041</ele>
        <time>2026-09-25T22:50:47Z</time>
      </trkpt>
      <trkpt lat="34.83346182517411" lon="113.6525582113213">
        <ele>89.46686476096511</ele>
        <time>2026-09-25T22:50:53Z</time>
      </trkpt>
      <trkpt lat="34.833559971026915" lon="113.6525756995013">
        <ele>89.72364063374698</ele>
        <time>2026-09-25T22:50:59Z</time>
      </trkpt>
      <trkpt lat="34.83359646061043" lon="113.65262192436569">
        <ele>89.91665798332542</ele>
        <time>2026-09-25T22:51:02Z</time>
      </trkpt>
      <trkpt lat="34.833860959290135" lon="113.65258849751598">
        <ele>89.58917837869376</ele>
        <time>2026-09-25T22:51:17Z</time>
      </trkpt>
      <trkpt lat="34.83414655827188" lon="113.65250558434978">
        <ele>90.2930834647268</ele>
        <time>2026-09-25T22:51:32Z</time>
      </trkpt>
      <trkpt lat="34.83441595515704" lon="113.65240018136458">
        <ele>89.99261777009815</ele>
        <time>2026-09-25T22:51:47Z</time>
      </trkpt>
      <trkpt lat="34.834684737218254" lon="113.65228994511108">
        <ele>90.89113485813141</ele>
        <time>2026-09-25T22:52:02Z</time>
      </trkpt>
      <trkpt lat="34.83497511489865" lon="113.65217767909071">
        <ele>91.86523257754743</ele>
        <time>2026-09-25T22:52:18Z</time>
      </trkpt>
      <trkpt lat="34.83523818906624" lon="113.6520566702148">
        <ele>92.04720857087523</ele>
        <time>2026-09-25T22:52:33Z</time>
      </trkpt>
      <trkpt lat="34.8355151379285" lon="113.65194263892674">
        <ele>91.34572694450617</ele>
        <time>2026-09-25T22:52:48Z</time>
      </trkpt>
      <trkpt lat="34.83566618217085" lon="113.65187929765948">
        <ele>90.94788608979434</ele>
        <time>2026-09-25T22:52:57Z</time>
      </trkpt>
      <trkpt lat="34.8357120852027" lon="113.6518059155617">
        <ele>92.03071771655232</ele>
        <time>2026-09-25T22:53:03Z</time>
      </trkpt>
      <trkpt lat="34.835572499679586" lon="113.65158372157866">
        <ele>91.23234080709517</ele>
        <time>2026-09-25T22:53:18Z</time>
      </trkpt>
      <trkpt lat="34.835586407968535" lon="113.65151655140849">
        <ele>90.08972116559744</ele>
        <time>2026-09-25T22:53:21Z</time>
      </trkpt>
      <trkpt lat="34.83557516847302" lon="113.65128836808428">
        <ele>88.23922434076667</ele>
        <time>2026-09-25T22:53:33Z</time>
      </trkpt>
      <trkpt lat="34.83584422941391" lon="113.65116858521858">
        <ele>89.5506682144478</ele>
        <time>2026-09-25T22:53:48Z</time>
      </trkpt>
      <trkpt lat="34.83588898335445" lon="113.65113566718969">
        <ele>88.9592743543908</ele>
        <time>2026-09-25T22:53:51Z</time>
      </trkpt>
      <trkpt lat="34.836180465335694" lon="113.65101263935901">
        <ele>89.10661292634904</ele>
        <time>2026-09-25T22:54:09Z</time>
      </trkpt>
      <trkpt lat="34.8364572971554" lon="113.65090604276509">
        <ele>89.97267030738294</ele>
        <time>2026-09-25T22:54:22Z</time>
      </trkpt>
      <trkpt lat="34.83675573887609" lon="113.65075714463316">
        <ele>89.77435711119324</ele>
        <time>2026-09-25T22:54:37Z</time>
      </trkpt>
      <trkpt lat="34.83704591161906" lon="113.6506239657829">
        <ele>89.18028077855706</ele>
        <time>2026-09-25T22:54:52Z</time>
      </trkpt>
      <trkpt lat="34.83717579571168" lon="113.65057015487882">
        <ele>89.56455237045884</ele>
        <time>2026-09-25T22:54:58Z</time>
      </trkpt>
      <trkpt lat="34.837369811024594" lon="113.65055825057885">
        <ele>89.25459978915751</ele>
        <time>2026-09-25T22:55:07Z</time>
      </trkpt>
      <trkpt lat="34.83760537312865" lon="113.65059020921609">
        <ele>90.38644174672663</ele>
        <time>2026-09-25T22:55:19Z</time>
      </trkpt>
      <trkpt lat="34.83789095613261" lon="113.65044074128923">
        <ele>90.14444903936237</ele>
        <time>2026-09-25T22:55:34Z</time>
      </trkpt>
      <trkpt lat="34.838051846391416" lon="113.650345282738">
        <ele>90.750613857992</ele>
        <time>2026-09-25T22:55:43Z</time>
      </trkpt>
      <trkpt lat="34.83823997071948" lon="113.6501761258327">
        <ele>89.81717785354704</ele>
        <time>2026-09-25T22:55:55Z</time>
      </trkpt>
      <trkpt lat="34.83852226571443" lon="113.65006934404354">
        <ele>89.83303433191031</ele>
        <time>2026-09-25T22:56:10Z</time>
      </trkpt>
      <trkpt lat="34.83857181163264" lon="113.65006850199356">
        <ele>89.60585060529411</ele>
        <time>2026-09-25T22:56:13Z</time>
      </trkpt>
      <trkpt lat="34.83858027211461" lon="113.6501231174295">
        <ele>89.5422140546143</ele>
        <time>2026-09-25T22:56:16Z</time>
      </trkpt>
      <trkpt lat="34.83856797708637" lon="113.65018607172038">
        <ele>89.78450594935566</ele>
        <time>2026-09-25T22:56:19Z</time>
      </trkpt>
      <trkpt lat="34.838575005448746" lon="113.65024449224471">
        <ele>89.98661927785724</ele>
        <time>2026-09-25T22:56:22Z</time>
      </trkpt>
      <trkpt lat="34.83867458468407" lon="113.65031267615481">
        <ele>90.34057549852878</ele>
        <time>2026-09-25T22:56:29Z</time>
      </trkpt>
      <trkpt lat="34.83874774729908" lon="113.65031850223842">
        <ele>90.27768562268466</ele>
        <time>2026-09-25T22:56:33Z</time>
      </trkpt>
      <trkpt lat="34.838816179168084" lon="113.65029340773337">
        <ele>89.57648753467947</ele>
        <time>2026-09-25T22:56:37Z</time>
      </trkpt>
      <trkpt lat="34.83893034854321" lon="113.65015465778428">
        <ele>90.20175367128104</ele>
        <time>2026-09-25T22:56:44Z</time>
      </trkpt>
      <trkpt lat="34.838943466884814" lon="113.65008637476387">
        <ele>89.79565029311925</ele>
        <time>2026-09-25T22:56:47Z</time>
      </trkpt>
      <trkpt lat="34.83891357005257" lon="113.64992664422519">
        <ele>89.53965006396174</ele>
        <time>2026-09-25T22:56:53Z</time>
      </trkpt>
      <trkpt lat="34.83894058612868" lon="113.64986078142172">
        <ele>89.98151950351894</ele>
        <time>2026-09-25T22:56:56Z</time>
      </trkpt>
      <trkpt lat="34.83909956895668" lon="113.64972206241458">
        <ele>91.25838920753449</ele>
        <time>2026-09-25T22:57:05Z</time>
      </trkpt>
      <trkpt lat="34.83917361929595" lon="113.64959453581895">
        <ele>91.17150568775833</ele>
        <time>2026-09-25T22:57:11Z</time>
      </trkpt>
      <trkpt lat="34.83946071366801" lon="113.64949352461255">
        <ele>91.6479352414608</ele>
        <time>2026-09-25T22:57:26Z</time>
      </trkpt>
      <trkpt lat="34.839632915313416" lon="113.64941419484147">
        <ele>91.66317734215409</ele>
        <time>2026-09-25T22:57:35Z</time>
      </trkpt>
      <trkpt lat="34.839654365965394" lon="113.64948250771074">
        <ele>90.93075157981366</ele>
        <time>2026-09-25T22:57:38Z</time>
      </trkpt>
      <trkpt lat="34.83963688335369" lon="113.64955958053038">
        <ele>90.51853159442544</ele>
        <time>2026-09-25T22:57:41Z</time>
      </trkpt>
      <trkpt lat="34.83963960206732" lon="113.64964132854355">
        <ele>90.3863964267075</ele>
        <time>2026-09-25T22:57:44Z</time>
      </trkpt>
      <trkpt lat="34.839703132022535" lon="113.64974752700721">
        <ele>90.62727800756693</ele>
        <time>2026-09-25T22:57:50Z</time>
      </trkpt>
      <trkpt lat="34.839899203313564" lon="113.64988776358231">
        <ele>89.82376869395375</ele>
        <time>2026-09-25T22:58:02Z</time>
      </trkpt>
      <trkpt lat="34.840014123362884" lon="113.6500439971811">
        <ele>89.47441584803164</ele>
        <time>2026-09-25T22:58:11Z</time>
      </trkpt>
      <trkpt lat="34.840064074824994" lon="113.65024034310083">
        <ele>89.70036979392171</ele>
        <time>2026-09-25T22:58:20Z</time>
      </trkpt>
      <trkpt lat="34.84003985962176" lon="113.65036011412947">
        <ele>89.95170563645661</ele>
        <time>2026-09-25T22:58:26Z</time>
      </trkpt>
      <trkpt lat="34.8399843091399" lon="113.65045422129104">
        <ele>89.66441708430648</ele>
        <time>2026-09-25T22:58:32Z</time>
      </trkpt>
      <trkpt lat="34.839833023928605" lon="113.65053377024846">
        <ele>88.05975250992924</ele>
        <time>2026-09-25T22:58:40Z</time>
      </trkpt>
      <trkpt lat="34.83988230333651" lon="113.6506313965154">
        <ele>86.42079704534262</ele>
        <time>2026-09-25T22:58:48Z</time>
      </trkpt>
      <trkpt lat="34.83993302238916" lon="113.65065187917628">
        <ele>86.6543587334454</ele>
        <time>2026-09-25T22:58:52Z</time>
      </trkpt>
      <trkpt lat="34.84000909400172" lon="113.65063708673468">
        <ele>87.36406622920185</ele>
        <time>2026-09-25T22:58:56Z</time>
      </trkpt>
      <trkpt lat="34.840119352882375" lon="113.6503719193818">
        <ele>87.25743856374174</ele>
        <time>2026-09-25T22:59:12Z</time>
      </trkpt>
      <trkpt lat="34.84026750352155" lon="113.65012593013084">
        <ele>83.02920843847096</ele>
        <time>2026-09-25T22:59:27Z</time>
      </trkpt>
      <trkpt lat="34.840547625853475" lon="113.65010392429247">
        <ele>86.81373572535813</ele>
        <time>2026-09-25T22:59:33Z</time>
      </trkpt>
      <trkpt lat="34.84059921996851" lon="113.65010626309517">
        <ele>85.90401185490191</ele>
        <time>2026-09-25T22:59:36Z</time>
      </trkpt>
      <trkpt lat="34.8407025125408" lon="113.6500487547933">
        <ele>86.67133198585361</ele>
        <time>2026-09-25T22:59:42Z</time>
      </trkpt>
      <trkpt lat="34.84082642149954" lon="113.64996222728546">
        <ele>85.48821455333382</ele>
        <time>2026-09-25T22:59:51Z</time>
      </trkpt>
      <trkpt lat="34.841103824285774" lon="113.64987271770376">
        <ele>86.48196581285447</ele>
        <time>2026-09-25T23:00:06Z</time>
      </trkpt>
      <trkpt lat="34.84123427670376" lon="113.64983666166479">
        <ele>86.93842674139887</ele>
        <time>2026-09-25T23:00:12Z</time>
      </trkpt>
      <trkpt lat="34.84149946678743" lon="113.64971185670392">
        <ele>86.02310813311487</ele>
        <time>2026-09-25T23:00:27Z</time>
      </trkpt>
      <trkpt lat="34.841662037508684" lon="113.64967852796858">
        <ele>87.34609068185091</ele>
        <time>2026-09-25T23:00:36Z</time>
      </trkpt>
      <trkpt lat="34.84194237028826" lon="113.64952450643081">
        <ele>87.91878938674927</ele>
        <time>2026-09-25T23:00:52Z</time>
      </trkpt>
      <trkpt lat="34.84221071362772" lon="113.64943067287112">
        <ele>84.85747790243477</ele>
        <time>2026-09-25T23:01:04Z</time>
      </trkpt>
      <trkpt lat="34.84227152107898" lon="113.6493870156984">
        <ele>84.52233431115746</ele>
        <time>2026-09-25T23:01:10Z</time>
      </trkpt>
      <trkpt lat="34.842530758631725" lon="113.64928715723485">
        <ele>84.95987811032683</ele>
        <time>2026-09-25T23:01:25Z</time>
      </trkpt>
      <trkpt lat="34.84285086568488" lon="113.64912516935225">
        <ele>85.24248011689633</ele>
        <time>2026-09-25T23:01:46Z</time>
      </trkpt>
      <trkpt lat="34.843014113493545" lon="113.64904296057041">
        <ele>85.66295526083559</ele>
        <time>2026-09-25T23:01:55Z</time>
      </trkpt>
      <trkpt lat="34.84317946673737" lon="113.64904730945129">
        <ele>84.93602078873664</ele>
        <time>2026-09-25T23:02:04Z</time>
      </trkpt>
      <trkpt lat="34.843161753771625" lon="113.6488562905737">
        <ele>88.91027686465532</ele>
        <time>2026-09-25T23:02:16Z</time>
      </trkpt>
      <trkpt lat="34.843182664001276" lon="113.64879695232204">
        <ele>89.66056829411536</ele>
        <time>2026-09-25T23:02:19Z</time>
      </trkpt>
      <trkpt lat="34.84322881381556" lon="113.64876130318765">
        <ele>89.94190307240933</ele>
        <time>2026-09-25T23:02:22Z</time>
      </trkpt>
      <trkpt lat="34.84334401786365" lon="113.64880723886374">
        <ele>90.72048666700721</ele>
        <time>2026-09-25T23:02:28Z</time>
      </trkpt>
      <trkpt lat="34.84337986685601" lon="113.6488500168651">
        <ele>89.3939866963774</ele>
        <time>2026-09-25T23:02:31Z</time>
      </trkpt>
      <trkpt lat="34.8434125481386" lon="113.64907544083833">
        <ele>89.4210811983794</ele>
        <time>2026-09-25T23:02:40Z</time>
      </trkpt>
      <trkpt lat="34.8434030164616" lon="113.64942460651615">
        <ele>89.87410350888968</ele>
        <time>2026-09-25T23:02:55Z</time>
      </trkpt>
      <trkpt lat="34.84337403473404" lon="113.64969198643142">
        <ele>89.2810105457902</ele>
        <time>2026-09-25T23:03:07Z</time>
      </trkpt>
      <trkpt lat="34.84329640519942" lon="113.64974728522556">
        <ele>89.50626426003873</ele>
        <time>2026-09-25T23:03:11Z</time>
      </trkpt>
      <trkpt lat="34.84302762318072" lon="113.64985288566616">
        <ele>90.59746034443378</ele>
        <time>2026-09-25T23:03:24Z</time>
      </trkpt>
      <trkpt lat="34.84283272479279" lon="113.64991337488313">
        <ele>88.91301792021841</ele>
        <time>2026-09-25T23:03:33Z</time>
      </trkpt>
      <trkpt lat="34.84264990682341" lon="113.6499901410573">
        <ele>88.40463490132242</ele>
        <time>2026-09-25T23:03:42Z</time>
      </trkpt>
      <trkpt lat="34.84259933493963" lon="113.6500298153292">
        <ele>88.72899910155684</ele>
        <time>2026-09-25T23:03:45Z</time>
      </trkpt>
      <trkpt lat="34.842341611249694" lon="113.65012947992581">
        <ele>88.84031192865223</ele>
        <time>2026-09-25T23:03:57Z</time>
      </trkpt>
      <trkpt lat="34.842085401723644" lon="113.65023825892979">
        <ele>87.68398253247142</ele>
        <time>2026-09-25T23:04:09Z</time>
      </trkpt>
      <trkpt lat="34.84202600115537" lon="113.65028211949458">
        <ele>87.68862856831402</ele>
        <time>2026-09-25T23:04:12Z</time>
      </trkpt>
      <trkpt lat="34.84174216165649" lon="113.65030536592293">
        <ele>87.36092594452202</ele>
        <time>2026-09-25T23:04:24Z</time>
      </trkpt>
      <trkpt lat="34.84145648501821" lon="113.65036566661952">
        <ele>85.38588861841708</ele>
        <time>2026-09-25T23:04:39Z</time>
      </trkpt>
      <trkpt lat="34.84139053182527" lon="113.65039996222951">
        <ele>85.5754272788763</ele>
        <time>2026-09-25T23:04:42Z</time>
      </trkpt>
      <trkpt lat="34.84131589270963" lon="113.6504066782576">
        <ele>85.69116374664009</ele>
        <time>2026-09-25T23:04:45Z</time>
      </trkpt>
      <trkpt lat="34.841044696815416" lon="113.65053130024404">
        <ele>85.58516439050436</ele>
        <time>2026-09-25T23:05:00Z</time>
      </trkpt>
      <trkpt lat="34.8408936765093" lon="113.65055212159238">
        <ele>86.64929704647511</ele>
        <time>2026-09-25T23:05:08Z</time>
      </trkpt>
      <trkpt lat="34.840719273188014" lon="113.6505217172369">
        <ele>87.81964987143874</ele>
        <time>2026-09-25T23:05:16Z</time>
      </trkpt>
      <trkpt lat="34.84044434068653" lon="113.65059634533934">
        <ele>86.74696937482804</ele>
        <time>2026-09-25T23:05:31Z</time>
      </trkpt>
      <trkpt lat="34.840389668033595" lon="113.65061751648084">
        <ele>87.11289483960718</ele>
        <time>2026-09-25T23:05:34Z</time>
      </trkpt>
      <trkpt lat="34.84035163646191" lon="113.65075802304004">
        <ele>85.7853260198608</ele>
        <time>2026-09-25T23:05:38Z</time>
      </trkpt>
      <trkpt lat="34.84032029945338" lon="113.6508062580584">
        <ele>86.03168954793364</ele>
        <time>2026-09-25T23:05:41Z</time>
      </trkpt>
      <trkpt lat="34.840147522999445" lon="113.6508027505522">
        <ele>87.24043233133852</ele>
        <time>2026-09-25T23:05:47Z</time>
      </trkpt>
      <trkpt lat="34.84009629324542" lon="113.65083451596114">
        <ele>87.7604005895555</ele>
        <time>2026-09-25T23:05:50Z</time>
      </trkpt>
      <trkpt lat="34.84007107190974" lon="113.65088800751772">
        <ele>88.1209728103131</ele>
        <time>2026-09-25T23:05:53Z</time>
      </trkpt>
      <trkpt lat="34.83990225269947" lon="113.6509710159118">
        <ele>88.23398184403777</ele>
        <time>2026-09-25T23:06:02Z</time>
      </trkpt>
      <trkpt lat="34.83984889829761" lon="113.65105060661247">
        <ele>87.31469835620373</ele>
        <time>2026-09-25T23:06:08Z</time>
      </trkpt>
      <trkpt lat="34.83976050009084" lon="113.65113049458371">
        <ele>88.28779244143516</ele>
        <time>2026-09-25T23:06:14Z</time>
      </trkpt>
      <trkpt lat="34.839728806107495" lon="113.6511861403327">
        <ele>88.3564782505855</ele>
        <time>2026-09-25T23:06:17Z</time>
      </trkpt>
      <trkpt lat="34.83962197810024" lon="113.65124107226154">
        <ele>88.19184146262705</ele>
        <time>2026-09-25T23:06:23Z</time>
      </trkpt>
      <trkpt lat="34.83949399990573" lon="113.65125984020338">
        <ele>88.66802442166954</ele>
        <time>2026-09-25T23:06:29Z</time>
      </trkpt>
      <trkpt lat="34.83922611489257" lon="113.65135939243582">
        <ele>89.9006760334596</ele>
        <time>2026-09-25T23:06:41Z</time>
      </trkpt>
      <trkpt lat="34.83896674831361" lon="113.65146525702436">
        <ele>89.95696588791907</ele>
        <time>2026-09-25T23:06:53Z</time>
      </trkpt>
      <trkpt lat="34.838645093816865" lon="113.65161525989605">
        <ele>89.29525678884238</ele>
        <time>2026-09-25T23:07:08Z</time>
      </trkpt>
      <trkpt lat="34.83834867819057" lon="113.65177899247253">
        <ele>90.1601991308853</ele>
        <time>2026-09-25T23:07:24Z</time>
      </trkpt>
      <trkpt lat="34.838086980159765" lon="113.6519719143042">
        <ele>89.50709457881749</ele>
        <time>2026-09-25T23:07:39Z</time>
      </trkpt>
      <trkpt lat="34.83782346647291" lon="113.65214120129126">
        <ele>90.62979465164244</ele>
        <time>2026-09-25T23:07:54Z</time>
      </trkpt>
      <trkpt lat="34.83752755662646" lon="113.65224338302932">
        <ele>90.7185125425458</ele>
        <time>2026-09-25T23:08:09Z</time>
      </trkpt>
      <trkpt lat="34.837227195974826" lon="113.65235694499592">
        <ele>90.68099801335484</ele>
        <time>2026-09-25T23:08:24Z</time>
      </trkpt>
      <trkpt lat="34.837164930109495" lon="113.6523794737903">
        <ele>90.64709320385009</ele>
        <time>2026-09-25T23:08:27Z</time>
      </trkpt>
      <trkpt lat="34.8369080756335" lon="113.65259019387852">
        <ele>89.9728887565434</ele>
        <time>2026-09-25T23:08:42Z</time>
      </trkpt>
      <trkpt lat="34.83661935078057" lon="113.6527798752638">
        <ele>88.53102469909936</ele>
        <time>2026-09-25T23:08:57Z</time>
      </trkpt>
      <trkpt lat="34.836348706658484" lon="113.65296107323478">
        <ele>87.92765118740499</ele>
        <time>2026-09-25T23:09:11Z</time>
      </trkpt>
      <trkpt lat="34.83617420867533" lon="113.6530834517096">
        <ele>87.37754407338798</ele>
        <time>2026-09-25T23:09:20Z</time>
      </trkpt>
      <trkpt lat="34.83614118549028" lon="113.65315139977679">
        <ele>87.94188746064901</ele>
        <time>2026-09-25T23:09:23Z</time>
      </trkpt>
      <trkpt lat="34.83587061461346" lon="113.65326016940288">
        <ele>85.71954335272312</ele>
        <time>2026-09-25T23:09:35Z</time>
      </trkpt>
      <trkpt lat="34.83554668152808" lon="113.65341908877684">
        <ele>87.44200080167502</ele>
        <time>2026-09-25T23:09:47Z</time>
      </trkpt>
      <trkpt lat="34.83524539645475" lon="113.65353442628584">
        <ele>87.39079203642905</ele>
        <time>2026-09-25T23:09:59Z</time>
      </trkpt>
      <trkpt lat="34.834933237192416" lon="113.65366132853363">
        <ele>88.02261394727975</ele>
        <time>2026-09-25T23:10:11Z</time>
      </trkpt>
      <trkpt lat="34.83469057230846" lon="113.65377492739935">
        <ele>88.02694192901254</ele>
        <time>2026-09-25T23:10:20Z</time>
      </trkpt>
      <trkpt lat="34.83460846454303" lon="113.653791046155">
        <ele>87.80776751507074</ele>
        <time>2026-09-25T23:10:23Z</time>
      </trkpt>
      <trkpt lat="34.83445853623615" lon="113.6538601703633">
        <ele>88.34820836037397</ele>
        <time>2026-09-25T23:10:29Z</time>
      </trkpt>
      <trkpt lat="34.83437825613654" lon="113.65386380678038">
        <ele>88.30215867701918</ele>
        <time>2026-09-25T23:10:32Z</time>
      </trkpt>
      <trkpt lat="34.83407521091329" lon="113.65401633264622">
        <ele>86.56735754851252</ele>
        <time>2026-09-25T23:10:44Z</time>
      </trkpt>
      <trkpt lat="34.8340121855486" lon="113.6540572537623">
        <ele>87.65566319227219</ele>
        <time>2026-09-25T23:10:47Z</time>
      </trkpt>
      <trkpt lat="34.83388160387281" lon="113.65400904677175">
        <ele>87.34704030305147</ele>
        <time>2026-09-25T23:10:53Z</time>
      </trkpt>
      <trkpt lat="34.833756853486875" lon="113.65403340139473">
        <ele>87.63179980684072</ele>
        <time>2026-09-25T23:10:59Z</time>
      </trkpt>
      <trkpt lat="34.83345372421192" lon="113.6541809426219">
        <ele>88.44596293196082</ele>
        <time>2026-09-25T23:11:12Z</time>
      </trkpt>
      <trkpt lat="34.83317829304976" lon="113.65427481499826">
        <ele>88.19766187015921</ele>
        <time>2026-09-25T23:11:24Z</time>
      </trkpt>
      <trkpt lat="34.83289251581756" lon="113.6544210263534">
        <ele>87.29192341305315</ele>
        <time>2026-09-25T23:11:39Z</time>
      </trkpt>
      <trkpt lat="34.832608649723404" lon="113.65453372588235">
        <ele>89.07279514987022</ele>
        <time>2026-09-25T23:11:54Z</time>
      </trkpt>
      <trkpt lat="34.83231036579882" lon="113.65462032310144">
        <ele>89.38042633235455</ele>
        <time>2026-09-25T23:12:09Z</time>
      </trkpt>
      <trkpt lat="34.83201033340781" lon="113.6547048521125">
        <ele>88.01689503155649</ele>
        <time>2026-09-25T23:12:24Z</time>
      </trkpt>
      <trkpt lat="34.83182339631661" lon="113.65479343538664">
        <ele>87.66196399088949</ele>
        <time>2026-09-25T23:12:33Z</time>
      </trkpt>
      <trkpt lat="34.831553863072216" lon="113.65498453047532">
        <ele>87.94333392661065</ele>
        <time>2026-09-25T23:12:48Z</time>
      </trkpt>
      <trkpt lat="34.831232280698025" lon="113.65505882977196">
        <ele>89.9290032600984</ele>
        <time>2026-09-25T23:13:03Z</time>
      </trkpt>
      <trkpt lat="34.83093635131188" lon="113.65519274951168">
        <ele>89.04058616515249</ele>
        <time>2026-09-25T23:13:19Z</time>
      </trkpt>
      <trkpt lat="34.83087414628047" lon="113.65521059205079">
        <ele>89.38507981039584</ele>
        <time>2026-09-25T23:13:22Z</time>
      </trkpt>
      <trkpt lat="34.83082633320302" lon="113.65524744015794">
        <ele>89.59051057696342</ele>
        <time>2026-09-25T23:13:25Z</time>
      </trkpt>
      <trkpt lat="34.83059038778241" lon="113.65530002489145">
        <ele>89.5468862587586</ele>
        <time>2026-09-25T23:13:37Z</time>
      </trkpt>
      <trkpt lat="34.83055351929826" lon="113.65534509283614">
        <ele>90.42691211681813</ele>
        <time>2026-09-25T23:13:40Z</time>
      </trkpt>
      <trkpt lat="34.830484151031264" lon="113.6553891532569">
        <ele>89.49538646358997</ele>
        <time>2026-09-25T23:13:43Z</time>
      </trkpt>
      <trkpt lat="34.83020820385585" lon="113.65545840644182">
        <ele>89.57430461142212</ele>
        <time>2026-09-25T23:13:55Z</time>
      </trkpt>
      <trkpt lat="34.83002283884692" lon="113.6555475981564">
        <ele>89.92550132703036</ele>
        <time>2026-09-25T23:14:04Z</time>
      </trkpt>
      <trkpt lat="34.82984922112133" lon="113.65557166823346">
        <ele>89.48359116818756</ele>
        <time>2026-09-25T23:14:13Z</time>
      </trkpt>
      <trkpt lat="34.82986334183455" lon="113.65522173195491">
        <ele>88.58949096873403</ele>
        <time>2026-09-25T23:14:28Z</time>
      </trkpt>
      <trkpt lat="34.829870916499715" lon="113.65501398360124">
        <ele>88.87833120301366</ele>
        <time>2026-09-25T23:14:37Z</time>
      </trkpt>
      <trkpt lat="34.829846908068085" lon="113.65495199122019">
        <ele>89.66270078253001</ele>
        <time>2026-09-25T23:14:40Z</time>
      </trkpt>
      <trkpt lat="34.829661311318766" lon="113.65507270555611">
        <ele>89.04605255462229</ele>
        <time>2026-09-25T23:14:52Z</time>
      </trkpt>
      <trkpt lat="34.82937598317019" lon="113.65521249140922">
        <ele>89.69483246188611</ele>
        <time>2026-09-25T23:15:07Z</time>
      </trkpt>
      <trkpt lat="34.82923471790916" lon="113.65525473776329">
        <ele>89.20451518055052</ele>
        <time>2026-09-25T23:15:13Z</time>
      </trkpt>
      <trkpt lat="34.82894402311904" lon="113.6553831132033">
        <ele>88.49420679546893</ele>
        <time>2026-09-25T23:15:23Z</time>
      </trkpt>
      <trkpt lat="34.82870129716738" lon="113.65547022441233">
        <ele>89.67174229957163</ele>
        <time>2026-09-25T23:15:32Z</time>
      </trkpt>
      <trkpt lat="34.82847359273492" lon="113.6555638670393">
        <ele>88.23104511853307</ele>
        <time>2026-09-25T23:15:41Z</time>
      </trkpt>
      <trkpt lat="34.82838242336845" lon="113.65562626176585">
        <ele>88.04502836894244</ele>
        <time>2026-09-25T23:15:44Z</time>
      </trkpt>
      <trkpt lat="34.82823779792125" lon="113.65567101349653">
        <ele>88.7240428244695</ele>
        <time>2026-09-25T23:15:50Z</time>
      </trkpt>
      <trkpt lat="34.82814387711816" lon="113.65572327159298">
        <ele>87.87426914647222</ele>
        <time>2026-09-25T23:15:53Z</time>
      </trkpt>
      <trkpt lat="34.82784841300184" lon="113.65583471201934">
        <ele>88.09223724529147</ele>
        <time>2026-09-25T23:16:02Z</time>
      </trkpt>
      <trkpt lat="34.82777615692009" lon="113.65588620559603">
        <ele>88.68956110533327</ele>
        <time>2026-09-25T23:16:05Z</time>
      </trkpt>
      <trkpt lat="34.827425347205065" lon="113.6560077927151">
        <ele>91.1309889741242</ele>
        <time>2026-09-25T23:16:17Z</time>
      </trkpt>
      <trkpt lat="34.82733289435982" lon="113.65605799397218">
        <ele>89.97788615711033</ele>
        <time>2026-09-25T23:16:20Z</time>
      </trkpt>
      <trkpt lat="34.82724684626601" lon="113.65606027348075">
        <ele>90.8238887609914</ele>
        <time>2026-09-25T23:16:23Z</time>
      </trkpt>
      <trkpt lat="34.82699246105923" lon="113.6561831081889">
        <ele>88.45984892360866</ele>
        <time>2026-09-25T23:16:35Z</time>
      </trkpt>
      <trkpt lat="34.82676443781456" lon="113.65627729947109">
        <ele>88.59049146994948</ele>
        <time>2026-09-25T23:16:47Z</time>
      </trkpt>
      <trkpt lat="34.82671173182438" lon="113.65631880222163">
        <ele>88.78652361407876</ele>
        <time>2026-09-25T23:16:50Z</time>
      </trkpt>
      <trkpt lat="34.82649151028968" lon="113.65641311549948">
        <ele>89.12459911778569</ele>
        <time>2026-09-25T23:17:05Z</time>
      </trkpt>
    </trkseg>
  </trk>
</gpx>