<?xml version="1.0" encoding="UTF-8"?>
<gpx xmlns="http://www.topografix.com/GPX/1/1" xmlns:gpxtpx="http://www.garmin.com/xmlschemas/TrackPointExtension/v1" xmlns:xsi="http://www.w3.org/2001/XMLSchema-instance" xsi:schemaLocation="http://www.topografix.com/GPX/1/1 http://www.topografix.com/GPX/1/1/gpx.xsd" version="1.1" creator="gpx.py -- https://github.com/tkrajina/gpxpy">
  <trk>
    <name>gpx from keep</name>
    <type>Run</type>
    <trkseg>
      <trkpt lat="34.82994959657625" lon="113.65854491767827">
        <ele>82.32208251953125</ele>
        <time>2026-10-07T23:46:25Z</time>
      </trkpt>
      <trkpt lat="34.83003668208586" lon="113.65858908787872">
        <ele>83.58892822265625</ele>
        <time>2026-10-07T23:46:29Z</time>
      </trkpt>
      <trkpt lat="34.8301084313807" lon="113.65865106046763">
        <ele>87.0307829650119</ele>
        <time>2026-10-07T23:46:33Z</time>
      </trkpt>
      <trkpt lat="34.83016855175574" lon="113.65873604128194">
        <ele>86.94893298950046</ele>
        <time>2026-10-07T23:46:37Z</time>
      </trkpt>
      <trkpt lat="34.83024884577177" lon="113.65914500505704">
        <ele>92.10492061916739</ele>
        <time>2026-10-07T23:46:52Z</time>
      </trkpt>
      <trkpt lat="34.83026949530524" lon="113.65944377730251">
        <ele>92.143743513152</ele>
        <time>2026-10-07T23:47:04Z</time>
      </trkpt>
      <trkpt lat="34.83023858032481" lon="113.65982708473074">
        <ele>91.13316642027348</ele>
        <time>2026-10-07T23:47:19Z</time>
      </trkpt>
      <trkpt lat="34.83025203806262" lon="113.65990196401512">
        <ele>91.48766948096454</ele>
        <time>2026-10-07T23:47:22Z</time>
      </trkpt>
      <trkpt lat="34.830301431420395" lon="113.65995854048775">
        <ele>91.51790496520698</ele>
        <time>2026-10-07T23:47:25Z</time>
      </trkpt>
      <trkpt lat="34.83041227086118" lon="113.66000555630146">
        <ele>91.66896097175777</ele>
        <time>2026-10-07T23:47:31Z</time>
      </trkpt>
      <trkpt lat="34.83060825039635" lon="113.65998868306221">
        <ele>90.54402725119144</ele>
        <time>2026-10-07T23:47:40Z</time>
      </trkpt>
      <trkpt lat="34.83092978045622" lon="113.66000241851027">
        <ele>94.07271023839712</ele>
        <time>2026-10-07T23:47:55Z</time>
      </trkpt>
      <trkpt lat="34.83120837785477" lon="113.66000762146383">
        <ele>90.7540677646175</ele>
        <time>2026-10-07T23:48:10Z</time>
      </trkpt>
      <trkpt lat="34.83138248508043" lon="113.65999165633396">
        <ele>90.97883956506848</ele>
        <time>2026-10-07T23:48:19Z</time>
      </trkpt>
      <trkpt lat="34.83165017544561" lon="113.65994037632021">
        <ele>88.70579811371863</ele>
        <time>2026-10-07T23:48:32Z</time>
      </trkpt>
      <trkpt lat="34.83194545562513" lon="113.6599086366037">
        <ele>89.50110821146518</ele>
        <time>2026-10-07T23:48:47Z</time>
      </trkpt>
      <trkpt lat="34.83200013686276" lon="113.65991003405453">
        <ele>89.94086283817887</ele>
        <time>2026-10-07T23:48:50Z</time>
      </trkpt>
      <trkpt lat="34.83205993498832" lon="113.65988014305319">
        <ele>90.46748841833323</ele>
        <time>2026-10-07T23:48:53Z</time>
      </trkpt>
      <trkpt lat="34.832109054058634" lon="113.65974991514312">
        <ele>90.51359482388943</ele>
        <time>2026-10-07T23:48:59Z</time>
      </trkpt>
      <trkpt lat="34.832125809004005" lon="113.6594069220218">
        <ele>89.57966401707381</ele>
        <time>2026-10-07T23:49:14Z</time>
      </trkpt>
      <trkpt lat="34.83211207149647" lon="113.6590521326132">
        <ele>90.1099811559543</ele>
        <time>2026-10-07T23:49:29Z</time>
      </trkpt>
      <trkpt lat="34.8321078533729" lon="113.65898385873926">
        <ele>89.88196521438658</ele>
        <time>2026-10-07T23:49:32Z</time>
      </trkpt>
      <trkpt lat="34.832170364695536" lon="113.6586864928737">
        <ele>90.06243498809636</ele>
        <time>2026-10-07T23:49:44Z</time>
      </trkpt>
      <trkpt lat="34.83217345518948" lon="113.65834003293774">
        <ele>88.03662494104356</ele>
        <time>2026-10-07T23:49:59Z</time>
      </trkpt>
      <trkpt lat="34.832194822228026" lon="113.65805175456407">
        <ele>88.0494415173307</ele>
        <time>2026-10-07T23:50:11Z</time>
      </trkpt>
      <trkpt lat="34.832197791330074" lon="113.65769809049671">
        <ele>87.58771206717938</ele>
        <time>2026-10-07T23:50:26Z</time>
      </trkpt>
      <trkpt lat="34.83226426844397" lon="113.65741269489052">
        <ele>84.85725655872375</ele>
        <time>2026-10-07T23:50:39Z</time>
      </trkpt>
      <trkpt lat="34.83227620682439" lon="113.65713161131993">
        <ele>87.05079909879714</ele>
        <time>2026-10-07T23:50:51Z</time>
      </trkpt>
      <trkpt lat="34.832259849100495" lon="113.65676297835061">
        <ele>86.37971367686987</ele>
        <time>2026-10-07T23:51:08Z</time>
      </trkpt>
      <trkpt lat="34.83229971171045" lon="113.65670527302747">
        <ele>86.97447021305561</ele>
        <time>2026-10-07T23:51:11Z</time>
      </trkpt>
      <trkpt lat="34.832593324388476" lon="113.6567339087226">
        <ele>88.43135265819728</ele>
        <time>2026-10-07T23:51:26Z</time>
      </trkpt>
      <trkpt lat="34.83275411209153" lon="113.65673475994184">
        <ele>89.89291971828789</ele>
        <time>2026-10-07T23:51:35Z</time>
      </trkpt>
      <trkpt lat="34.833047376014704" lon="113.6567725152516">
        <ele>91.17115794681013</ele>
        <time>2026-10-07T23:51:50Z</time>
      </trkpt>
      <trkpt lat="34.83321319870138" lon="113.65676678325741">
        <ele>89.8742909533903</ele>
        <time>2026-10-07T23:51:59Z</time>
      </trkpt>
      <trkpt lat="34.83325315720111" lon="113.6567256258625">
        <ele>90.09765560366213</ele>
        <time>2026-10-07T23:52:02Z</time>
      </trkpt>
      <trkpt lat="34.83325440250688" lon="113.65639712191944">
        <ele>89.15348754450679</ele>
        <time>2026-10-07T23:52:17Z</time>
      </trkpt>
      <trkpt lat="34.83330496050615" lon="113.65634677943572">
        <ele>88.68654505163431</ele>
        <time>2026-10-07T23:52:20Z</time>
      </trkpt>
      <trkpt lat="34.8335982603971" lon="113.65633598156157">
        <ele>88.56334908958524</ele>
        <time>2026-10-07T23:52:35Z</time>
      </trkpt>
      <trkpt lat="34.83393636717874" lon="113.6561857516178">
        <ele>90.1015055552125</ele>
        <time>2026-10-07T23:52:53Z</time>
      </trkpt>
      <trkpt lat="34.834060964738" lon="113.65607185036531">
        <ele>89.81435792613775</ele>
        <time>2026-10-07T23:53:01Z</time>
      </trkpt>
      <trkpt lat="34.834182080254365" lon="113.65590523582712">
        <ele>87.92859899811447</ele>
        <time>2026-10-07T23:53:09Z</time>
      </trkpt>
      <trkpt lat="34.83426943546724" lon="113.65566405448632">
        <ele>87.47113716881722</ele>
        <time>2026-10-07T23:53:19Z</time>
      </trkpt>
      <trkpt lat="34.8342779248813" lon="113.65544395288318">
        <ele>88.09873848967254</ele>
        <time>2026-10-07T23:53:28Z</time>
      </trkpt>
      <trkpt lat="34.834250746159874" lon="113.65530481080627">
        <ele>87.71580710448325</ele>
        <time>2026-10-07T23:53:34Z</time>
      </trkpt>
      <trkpt lat="34.83415034055962" lon="113.65510192969349">
        <ele>87.95264928229153</ele>
        <time>2026-10-07T23:53:43Z</time>
      </trkpt>
      <trkpt lat="34.8340411085522" lon="113.65505307926716">
        <ele>86.96058214269578</ele>
        <time>2026-10-07T23:53:49Z</time>
      </trkpt>
      <trkpt lat="34.83385341522806" lon="113.65485254273565">
        <ele>87.69607446435839</ele>
        <time>2026-10-07T23:54:01Z</time>
      </trkpt>
      <trkpt lat="34.833603611572066" lon="113.65479802793628">
        <ele>89.07377349026501</ele>
        <time>2026-10-07T23:54:13Z</time>
      </trkpt>
      <trkpt lat="34.83347852898335" lon="113.65483137807202">
        <ele>89.16461571585387</ele>
        <time>2026-10-07T23:54:19Z</time>
      </trkpt>
      <trkpt lat="34.83335462427664" lon="113.65488993701109">
        <ele>88.47182233445346</ele>
        <time>2026-10-07T23:54:25Z</time>
      </trkpt>
      <trkpt lat="34.83330837011006" lon="113.65494347521684">
        <ele>88.73289478663355</ele>
        <time>2026-10-07T23:54:28Z</time>
      </trkpt>
      <trkpt lat="34.83320643612652" lon="113.65515448119946">
        <ele>90.11648174747825</ele>
        <time>2026-10-07T23:54:37Z</time>
      </trkpt>
      <trkpt lat="34.83310822795855" lon="113.65525942553829">
        <ele>90.12480290140957</ele>
        <time>2026-10-07T23:54:43Z</time>
      </trkpt>
      <trkpt lat="34.83297216425094" lon="113.65529873976323">
        <ele>88.91633414383978</ele>
        <time>2026-10-07T23:54:50Z</time>
      </trkpt>
      <trkpt lat="34.83281834002225" lon="113.65527983915133">
        <ele>88.31692723743618</ele>
        <time>2026-10-07T23:54:58Z</time>
      </trkpt>
      <trkpt lat="34.83254892375365" lon="113.65514469514113">
        <ele>86.5132277449593</ele>
        <time>2026-10-07T23:55:14Z</time>
      </trkpt>
      <trkpt lat="34.83240208720591" lon="113.65517633577757">
        <ele>87.72604748606682</ele>
        <time>2026-10-07T23:55:20Z</time>
      </trkpt>
      <trkpt lat="34.832350220514726" lon="113.65520546899778">
        <ele>87.77619515359402</ele>
        <time>2026-10-07T23:55:23Z</time>
      </trkpt>
      <trkpt lat="34.832268560497376" lon="113.65533292568131">
        <ele>88.89488364290446</ele>
        <time>2026-10-07T23:55:29Z</time>
      </trkpt>
      <trkpt lat="34.83222082471897" lon="113.65556911271844">
        <ele>91.08091938495636</ele>
        <time>2026-10-07T23:55:38Z</time>
      </trkpt>
      <trkpt lat="34.83213287480881" lon="113.65568179190224">
        <ele>91.06797693483531</ele>
        <time>2026-10-07T23:55:44Z</time>
      </trkpt>
      <trkpt lat="34.832033592746036" lon="113.655737671852">
        <ele>88.7911062259227</ele>
        <time>2026-10-07T23:55:50Z</time>
      </trkpt>
      <trkpt lat="34.83198740118803" lon="113.65580759098994">
        <ele>89.412169508636</ele>
        <time>2026-10-07T23:55:53Z</time>
      </trkpt>
      <trkpt lat="34.83198164602625" lon="113.65594891567234">
        <ele>89.7728909701109</ele>
        <time>2026-10-07T23:55:59Z</time>
      </trkpt>
      <trkpt lat="34.8320936377302" lon="113.65608552283493">
        <ele>90.48886520974338</ele>
        <time>2026-10-07T23:56:05Z</time>
      </trkpt>
      <trkpt lat="34.832209681806354" lon="113.65614456110616">
        <ele>90.86718806158751</ele>
        <time>2026-10-07T23:56:11Z</time>
      </trkpt>
      <trkpt lat="34.83233791162706" lon="113.65614660688308">
        <ele>90.59518666565418</ele>
        <time>2026-10-07T23:56:17Z</time>
      </trkpt>
      <trkpt lat="34.83244996150998" lon="113.65610228111451">
        <ele>89.96190644614398</ele>
        <time>2026-10-07T23:56:23Z</time>
      </trkpt>
      <trkpt lat="34.83266867892788" lon="113.65589854540858">
        <ele>90.59406932536513</ele>
        <time>2026-10-07T23:56:35Z</time>
      </trkpt>
      <trkpt lat="34.83277913590723" lon="113.65588329285092">
        <ele>88.68769557401538</ele>
        <time>2026-10-07T23:56:41Z</time>
      </trkpt>
      <trkpt lat="34.832844019897095" lon="113.65600326965567">
        <ele>88.66716023813933</ele>
        <time>2026-10-07T23:56:47Z</time>
      </trkpt>
      <trkpt lat="34.83303831121017" lon="113.65620804434828">
        <ele>89.3823870178312</ele>
        <time>2026-10-07T23:57:01Z</time>
      </trkpt>
      <trkpt lat="34.83317995953024" lon="113.6562935549559">
        <ele>89.16996874287724</ele>
        <time>2026-10-07T23:57:09Z</time>
      </trkpt>
      <trkpt lat="34.83322885158313" lon="113.65634068284054">
        <ele>89.22610532864928</ele>
        <time>2026-10-07T23:57:13Z</time>
      </trkpt>
      <trkpt lat="34.83325330615118" lon="113.65641393418372">
        <ele>89.93675541412085</ele>
        <time>2026-10-07T23:57:17Z</time>
      </trkpt>
      <trkpt lat="34.83324357822355" lon="113.65672702656029">
        <ele>90.68511515390128</ele>
        <time>2026-10-07T23:57:29Z</time>
      </trkpt>
      <trkpt lat="34.8332140764138" lon="113.65677922020569">
        <ele>89.84100668691099</ele>
        <time>2026-10-07T23:57:32Z</time>
      </trkpt>
      <trkpt lat="34.832883045895926" lon="113.65677983428253">
        <ele>86.56490561272949</ele>
        <time>2026-10-07T23:57:50Z</time>
      </trkpt>
      <trkpt lat="34.83260817219507" lon="113.6567821838601">
        <ele>86.59080763347447</ele>
        <time>2026-10-07T23:58:05Z</time>
      </trkpt>
      <trkpt lat="34.832546225479234" lon="113.65676814520964">
        <ele>86.81009646411985</ele>
        <time>2026-10-07T23:58:08Z</time>
      </trkpt>
      <trkpt lat="34.83223233942803" lon="113.65678096701939">
        <ele>86.03456765972078</ele>
        <time>2026-10-07T23:58:26Z</time>
      </trkpt>
      <trkpt lat="34.832271700616204" lon="113.65681683570665">
        <ele>86.31988812144846</ele>
        <time>2026-10-07T23:58:32Z</time>
      </trkpt>
      <trkpt lat="34.8323188593443" lon="113.6568190449125">
        <ele>85.33162321802229</ele>
        <time>2026-10-07T23:58:38Z</time>
      </trkpt>
      <trkpt lat="34.832268607344396" lon="113.6568195229687">
        <ele>86.26581371761858</ele>
        <time>2026-10-07T23:58:44Z</time>
      </trkpt>
      <trkpt lat="34.83226684267145" lon="113.65695416904818">
        <ele>87.43960876110941</ele>
        <time>2026-10-07T23:58:50Z</time>
      </trkpt>
      <trkpt lat="34.83224817877209" lon="113.65700807898394">
        <ele>87.55183516442776</ele>
        <time>2026-10-07T23:58:53Z</time>
      </trkpt>
      <trkpt lat="34.832202201117354" lon="113.65704237240189">
        <ele>87.68796698004007</ele>
        <time>2026-10-07T23:58:56Z</time>
      </trkpt>
      <trkpt lat="34.831902352290044" lon="113.65703905644637">
        <ele>85.09709866344929</ele>
        <time>2026-10-07T23:59:11Z</time>
      </trkpt>
      <trkpt lat="34.831602320864995" lon="113.65706669611801">
        <ele>83.88739977497607</ele>
        <time>2026-10-07T23:59:27Z</time>
      </trkpt>
      <trkpt lat="34.83155627739333" lon="113.65710306465206">
        <ele>83.93962850794196</ele>
        <time>2026-10-07T23:59:30Z</time>
      </trkpt>
      <trkpt lat="34.83150904104474" lon="113.6571125933831">
        <ele>83.24436396360397</ele>
        <time>2026-10-07T23:59:33Z</time>
      </trkpt>
      <trkpt lat="34.831466975104924" lon="113.65715688517014">
        <ele>82.96648921072483</ele>
        <time>2026-10-07T23:59:36Z</time>
      </trkpt>
      <trkpt lat="34.831300534414815" lon="113.6571829394593">
        <ele>80.97183641791344</ele>
        <time>2026-10-07T23:59:45Z</time>
      </trkpt>
      <trkpt lat="34.83113571636502" lon="113.657184691699">
        <ele>81.30190370418131</ele>
        <time>2026-10-07T23:59:54Z</time>
      </trkpt>
      <trkpt lat="34.83104591835844" lon="113.65726062188455">
        <ele>82.25646385550499</ele>
        <time>2026-10-08T00:00:00Z</time>
      </trkpt>
      <trkpt lat="34.83103743317128" lon="113.6575991902867">
        <ele>85.71505319140851</ele>
        <time>2026-10-08T00:00:15Z</time>
      </trkpt>
      <trkpt lat="34.83099421400964" lon="113.65774789457924">
        <ele>86.48593821562827</ele>
        <time>2026-10-08T00:00:21Z</time>
      </trkpt>
      <trkpt lat="34.8309892683901" lon="113.65790332457382">
        <ele>88.06944264378399</ele>
        <time>2026-10-08T00:00:27Z</time>
      </trkpt>
      <trkpt lat="34.830972464881064" lon="113.6579669390031">
        <ele>87.49042809475213</ele>
        <time>2026-10-08T00:00:30Z</time>
      </trkpt>
      <trkpt lat="34.830980316310985" lon="113.6580562490381">
        <ele>87.34913628082722</ele>
        <time>2026-10-08T00:00:33Z</time>
      </trkpt>
      <trkpt lat="34.83123688918727" lon="113.65822438235686">
        <ele>91.11953695584089</ele>
        <time>2026-10-08T00:00:48Z</time>
      </trkpt>
      <trkpt lat="34.83134410288532" lon="113.6582965008382">
        <ele>92.6772978240624</ele>
        <time>2026-10-08T00:00:54Z</time>
      </trkpt>
      <trkpt lat="34.831414202719344" lon="113.65841554184405">
        <ele>93.95709907636046</ele>
        <time>2026-10-08T00:01:00Z</time>
      </trkpt>
      <trkpt lat="34.831460347377735" lon="113.65857533382292">
        <ele>93.85852255579084</ele>
        <time>2026-10-08T00:01:07Z</time>
      </trkpt>
      <trkpt lat="34.831444136454934" lon="113.65880778474761">
        <ele>91.91287992615253</ele>
        <time>2026-10-08T00:01:17Z</time>
      </trkpt>
      <trkpt lat="34.831382385866114" lon="113.65895768934365">
        <ele>90.6948297182098</ele>
        <time>2026-10-08T00:01:24Z</time>
      </trkpt>
      <trkpt lat="34.83133980134217" lon="113.6590196910265">
        <ele>89.74098196718842</ele>
        <time>2026-10-08T00:01:27Z</time>
      </trkpt>
      <trkpt lat="34.831132391687945" lon="113.65914681551473">
        <ele>89.56692348513752</ele>
        <time>2026-10-08T00:01:39Z</time>
      </trkpt>
      <trkpt lat="34.830914817275534" lon="113.65916224433599">
        <ele>87.36555751226842</ele>
        <time>2026-10-08T00:01:51Z</time>
      </trkpt>
      <trkpt lat="34.83086291702982" lon="113.65913302514488">
        <ele>86.15138160903007</ele>
        <time>2026-10-08T00:01:54Z</time>
      </trkpt>
      <trkpt lat="34.83081340053546" lon="113.6589932681354">
        <ele>85.16019318345934</ele>
        <time>2026-10-08T00:02:03Z</time>
      </trkpt>
      <trkpt lat="34.83088482744597" lon="113.65878522879883">
        <ele>85.27353549934924</ele>
        <time>2026-10-08T00:02:18Z</time>
      </trkpt>
      <trkpt lat="34.83088482744597" lon="113.65878522879883">
        <ele>85.27353549934924</ele>
        <time>2026-10-08T00:02:18Z</time>
      </trkpt>
    </trkseg>
  </trk>
</gpx>