<?xml version="1.0" encoding="UTF-8"?>
<gpx xmlns="http://www.topografix.com/GPX/1/1" xmlns:gpxtpx="http://www.garmin.com/xmlschemas/TrackPointExtension/v1" xmlns:xsi="http://www.w3.org/2001/XMLSchema-instance" xsi:schemaLocation="http://www.topografix.com/GPX/1/1 http://www.topografix.com/GPX/1/1/gpx.xsd" version="1.1" creator="gpx.py -- https://github.com/tkrajina/gpxpy">
  <trk>
    <name>gpx from keep</name>
    <type>Run</type>
    <trkseg>
      <trkpt lat="34.82943436827416" lon="113.65451399072163">
        <ele>87.6463623046875</ele>
        <time>2026-08-05T00:29:36Z</time>
      </trkpt>
      <trkpt lat="34.82915123674911" lon="113.65461717219108">
        <ele>90.35559592675418</ele>
        <time>2026-08-05T00:29:51Z</time>
      </trkpt>
      <trkpt lat="34.828824550014765" lon="113.6547553532351">
        <ele>93.22463703714311</ele>
        <time>2026-08-05T00:30:09Z</time>
      </trkpt>
      <trkpt lat="34.82852754883143" lon="113.65487195632294">
        <ele>94.79330456443131</ele>
        <time>2026-08-05T00:30:24Z</time>
      </trkpt>
      <trkpt lat="34.82824020985312" lon="113.65498850699188">
        <ele>95.43264824990183</ele>
        <time>2026-08-05T00:30:39Z</time>
      </trkpt>
      <trkpt lat="34.827947467195834" lon="113.6551064482768">
        <ele>94.47867985442281</ele>
        <time>2026-08-05T00:30:54Z</time>
      </trkpt>
      <trkpt lat="34.82764316108397" lon="113.65523601283205">
        <ele>95.80101378355175</ele>
        <time>2026-08-05T00:31:09Z</time>
      </trkpt>
      <trkpt lat="34.827516274123816" lon="113.65529818227542">
        <ele>95.7068868232891</ele>
        <time>2026-08-05T00:31:15Z</time>
      </trkpt>
      <trkpt lat="34.82746044247904" lon="113.65529451717147">
        <ele>96.86550684925169</ele>
        <time>2026-08-05T00:31:18Z</time>
      </trkpt>
      <trkpt lat="34.82719596684199" lon="113.65544121226812">
        <ele>96.5781581941992</ele>
        <time>2026-08-05T00:31:33Z</time>
      </trkpt>
      <trkpt lat="34.82697917783666" lon="113.6555271533428">
        <ele>95.37783896923065</ele>
        <time>2026-08-05T00:31:43Z</time>
      </trkpt>
      <trkpt lat="34.826716720815526" lon="113.65562641304119">
        <ele>96.11329206544906</ele>
        <time>2026-08-05T00:31:55Z</time>
      </trkpt>
      <trkpt lat="34.82643716690491" lon="113.65574116371744">
        <ele>94.65663907676935</ele>
        <time>2026-08-05T00:32:10Z</time>
      </trkpt>
      <trkpt lat="34.826163703196976" lon="113.65586492679014">
        <ele>95.15483764093369</ele>
        <time>2026-08-05T00:32:25Z</time>
      </trkpt>
      <trkpt lat="34.82586656313775" lon="113.65598245166365">
        <ele>93.6853823363781</ele>
        <time>2026-08-05T00:32:43Z</time>
      </trkpt>
      <trkpt lat="34.82559313236443" lon="113.65609407578854">
        <ele>93.86553870048374</ele>
        <time>2026-08-05T00:32:58Z</time>
      </trkpt>
      <trkpt lat="34.825325044563805" lon="113.65621747795191">
        <ele>95.29487840645015</ele>
        <time>2026-08-05T00:33:10Z</time>
      </trkpt>
      <trkpt lat="34.82503281586435" lon="113.65633107083355">
        <ele>96.39309328049421</ele>
        <time>2026-08-05T00:33:25Z</time>
      </trkpt>
      <trkpt lat="34.82476585437063" lon="113.656455478488">
        <ele>96.82747316267341</ele>
        <time>2026-08-05T00:33:40Z</time>
      </trkpt>
      <trkpt lat="34.8245898334354" lon="113.65653254971542">
        <ele>94.60418023914099</ele>
        <time>2026-08-05T00:33:51Z</time>
      </trkpt>
      <trkpt lat="34.82445434207102" lon="113.65656367310957">
        <ele>93.12659180629998</ele>
        <time>2026-08-05T00:33:59Z</time>
      </trkpt>
      <trkpt lat="34.82414050697479" lon="113.65670776506975">
        <ele>92.98637982457876</ele>
        <time>2026-08-05T00:34:15Z</time>
      </trkpt>
      <trkpt lat="34.823888299477666" lon="113.65681193248166">
        <ele>92.33218518085778</ele>
        <time>2026-08-05T00:34:27Z</time>
      </trkpt>
      <trkpt lat="34.823835582546046" lon="113.65685937366018">
        <ele>92.57724844757468</ele>
        <time>2026-08-05T00:34:30Z</time>
      </trkpt>
      <trkpt lat="34.82371708264404" lon="113.6568763657513">
        <ele>93.14188023842871</ele>
        <time>2026-08-05T00:34:45Z</time>
      </trkpt>
      <trkpt lat="34.823445978957196" lon="113.65699335886825">
        <ele>92.86469163373113</ele>
        <time>2026-08-05T00:35:00Z</time>
      </trkpt>
      <trkpt lat="34.82327466933847" lon="113.65705819403203">
        <ele>92.27281331643462</ele>
        <time>2026-08-05T00:35:09Z</time>
      </trkpt>
      <trkpt lat="34.82309021930752" lon="113.65724346997067">
        <ele>92.6541722426191</ele>
        <time>2026-08-05T00:35:18Z</time>
      </trkpt>
      <trkpt lat="34.823033026202175" lon="113.65726549308651">
        <ele>92.41190452408046</ele>
        <time>2026-08-05T00:35:21Z</time>
      </trkpt>
      <trkpt lat="34.82294763757365" lon="113.65739088065715">
        <ele>93.07895299512893</ele>
        <time>2026-08-05T00:35:27Z</time>
      </trkpt>
      <trkpt lat="34.82287468177788" lon="113.65755221893174">
        <ele>91.75918015744537</ele>
        <time>2026-08-05T00:35:33Z</time>
      </trkpt>
      <trkpt lat="34.822807428144046" lon="113.65752921330505">
        <ele>92.5055380417034</ele>
        <time>2026-08-05T00:35:36Z</time>
      </trkpt>
      <trkpt lat="34.822755248021615" lon="113.657611927585">
        <ele>91.89112690836191</ele>
        <time>2026-08-05T00:35:39Z</time>
      </trkpt>
      <trkpt lat="34.8226061646749" lon="113.65765389594112">
        <ele>91.46531739830971</ele>
        <time>2026-08-05T00:35:45Z</time>
      </trkpt>
      <trkpt lat="34.82237490196295" lon="113.65743714371337">
        <ele>93.19144588522613</ele>
        <time>2026-08-05T00:35:52Z</time>
      </trkpt>
      <trkpt lat="34.82207846609321" lon="113.65752812185357">
        <ele>92.17408031132072</ele>
        <time>2026-08-05T00:36:07Z</time>
      </trkpt>
      <trkpt lat="34.82201912769129" lon="113.65755170497295">
        <ele>93.26611792296171</ele>
        <time>2026-08-05T00:36:10Z</time>
      </trkpt>
      <trkpt lat="34.82197548418025" lon="113.65761492334035">
        <ele>92.53436814434826</ele>
        <time>2026-08-05T00:36:13Z</time>
      </trkpt>
      <trkpt lat="34.82186068548706" lon="113.65763320324076">
        <ele>92.3654483538121</ele>
        <time>2026-08-05T00:36:19Z</time>
      </trkpt>
      <trkpt lat="34.82180888405063" lon="113.65762340922441">
        <ele>92.43480650056154</ele>
        <time>2026-08-05T00:36:22Z</time>
      </trkpt>
      <trkpt lat="34.821760449846295" lon="113.6576357558416">
        <ele>92.26099639479071</ele>
        <time>2026-08-05T00:36:25Z</time>
      </trkpt>
      <trkpt lat="34.82153240286609" lon="113.65776908913297">
        <ele>92.62761133722961</ele>
        <time>2026-08-05T00:36:37Z</time>
      </trkpt>
      <trkpt lat="34.82126750404884" lon="113.65787465858901">
        <ele>93.29535627644509</ele>
        <time>2026-08-05T00:36:49Z</time>
      </trkpt>
      <trkpt lat="34.821142688790296" lon="113.6578919631488">
        <ele>93.47984054032713</ele>
        <time>2026-08-05T00:36:55Z</time>
      </trkpt>
      <trkpt lat="34.82102965940652" lon="113.65797170563297">
        <ele>93.67234497051686</ele>
        <time>2026-08-05T00:37:01Z</time>
      </trkpt>
      <trkpt lat="34.82093960286629" lon="113.65799000524723">
        <ele>93.54786249250174</ele>
        <time>2026-08-05T00:37:07Z</time>
      </trkpt>
      <trkpt lat="34.8208006937205" lon="113.65808590488191">
        <ele>92.55781994294375</ele>
        <time>2026-08-05T00:37:16Z</time>
      </trkpt>
      <trkpt lat="34.820694040725115" lon="113.65813531225838">
        <ele>93.33634169958532</ele>
        <time>2026-08-05T00:37:22Z</time>
      </trkpt>
      <trkpt lat="34.82063383465312" lon="113.65813351912388">
        <ele>93.14413693826646</ele>
        <time>2026-08-05T00:37:25Z</time>
      </trkpt>
      <trkpt lat="34.820609293761834" lon="113.65828379885755">
        <ele>91.74179364088923</ele>
        <time>2026-08-05T00:37:40Z</time>
      </trkpt>
      <trkpt lat="34.82015054209718" lon="113.6583120853784">
        <ele>84.1676025390625</ele>
        <time>2026-08-05T00:37:55Z</time>
      </trkpt>
      <trkpt lat="34.8202735162372" lon="113.65841422895711">
        <ele>91.26803608518094</ele>
        <time>2026-08-05T00:37:58Z</time>
      </trkpt>
      <trkpt lat="34.82019043874262" lon="113.65845056590908">
        <ele>91.36157459206879</ele>
        <time>2026-08-05T00:38:02Z</time>
      </trkpt>
      <trkpt lat="34.82009602133469" lon="113.65844096208167">
        <ele>90.87600121926516</ele>
        <time>2026-08-05T00:38:06Z</time>
      </trkpt>
      <trkpt lat="34.81982307790801" lon="113.65859062502962">
        <ele>92.60463614948094</ele>
        <time>2026-08-05T00:38:23Z</time>
      </trkpt>
      <trkpt lat="34.81957911674208" lon="113.65869517919161">
        <ele>90.67086454294622</ele>
        <time>2026-08-05T00:38:35Z</time>
      </trkpt>
      <trkpt lat="34.8194344872588" lon="113.65871488229348">
        <ele>90.0321944206953</ele>
        <time>2026-08-05T00:38:44Z</time>
      </trkpt>
      <trkpt lat="34.819141608382296" lon="113.65881497371124">
        <ele>90.29534670617431</ele>
        <time>2026-08-05T00:39:02Z</time>
      </trkpt>
      <trkpt lat="34.81909680337632" lon="113.65884993175696">
        <ele>90.54405227769166</ele>
        <time>2026-08-05T00:39:08Z</time>
      </trkpt>
      <trkpt lat="34.818993830349406" lon="113.65885006387514">
        <ele>90.71434111706913</ele>
        <time>2026-08-05T00:39:11Z</time>
      </trkpt>
      <trkpt lat="34.81889451533901" lon="113.65891467866486">
        <ele>88.96692140679806</ele>
        <time>2026-08-05T00:39:17Z</time>
      </trkpt>
      <trkpt lat="34.81884908523504" lon="113.6589688960248">
        <ele>89.46293365396559</ele>
        <time>2026-08-05T00:39:20Z</time>
      </trkpt>
      <trkpt lat="34.81878479521754" lon="113.65898379027382">
        <ele>90.31059595383704</ele>
        <time>2026-08-05T00:39:23Z</time>
      </trkpt>
      <trkpt lat="34.818723258611044" lon="113.6590299097765">
        <ele>90.34720626007766</ele>
        <time>2026-08-05T00:39:26Z</time>
      </trkpt>
      <trkpt lat="34.81864647206173" lon="113.65905362569018">
        <ele>89.36282287258655</ele>
        <time>2026-08-05T00:39:29Z</time>
      </trkpt>
      <trkpt lat="34.818538908588124" lon="113.6590693243153">
        <ele>88.92168689519167</ele>
        <time>2026-08-05T00:39:35Z</time>
      </trkpt>
      <trkpt lat="34.81844634805651" lon="113.65912986757246">
        <ele>89.8686842257157</ele>
        <time>2026-08-05T00:39:41Z</time>
      </trkpt>
      <trkpt lat="34.8181373441335" lon="113.65922569532933">
        <ele>90.81865285430104</ele>
        <time>2026-08-05T00:39:56Z</time>
      </trkpt>
      <trkpt lat="34.81808673713036" lon="113.65924548168256">
        <ele>90.80234287399799</ele>
        <time>2026-08-05T00:39:59Z</time>
      </trkpt>
      <trkpt lat="34.81805671962959" lon="113.65930515350531">
        <ele>90.94053089153022</ele>
        <time>2026-08-05T00:40:02Z</time>
      </trkpt>
      <trkpt lat="34.817978023751685" lon="113.65932535243624">
        <ele>91.29586411919445</ele>
        <time>2026-08-05T00:40:05Z</time>
      </trkpt>
      <trkpt lat="34.81775169268238" lon="113.65944966034998">
        <ele>91.80879213660955</ele>
        <time>2026-08-05T00:40:17Z</time>
      </trkpt>
      <trkpt lat="34.81769428249923" lon="113.65944299578396">
        <ele>91.55995719879866</ele>
        <time>2026-08-05T00:40:21Z</time>
      </trkpt>
      <trkpt lat="34.817598559017156" lon="113.65949992653421">
        <ele>90.21995200775564</ele>
        <time>2026-08-05T00:40:27Z</time>
      </trkpt>
      <trkpt lat="34.817554530052234" lon="113.65954838313196">
        <ele>89.64467065408826</ele>
        <time>2026-08-05T00:40:30Z</time>
      </trkpt>
      <trkpt lat="34.81748850791695" lon="113.65954674080842">
        <ele>88.70288910716772</ele>
        <time>2026-08-05T00:40:33Z</time>
      </trkpt>
      <trkpt lat="34.817320982755824" lon="113.65961646428278">
        <ele>88.71789138671011</ele>
        <time>2026-08-05T00:40:42Z</time>
      </trkpt>
      <trkpt lat="34.81726687934522" lon="113.6596615204887">
        <ele>89.51322900597006</ele>
        <time>2026-08-05T00:40:45Z</time>
      </trkpt>
      <trkpt lat="34.817197402723075" lon="113.65966861228156">
        <ele>89.03633916284889</ele>
        <time>2026-08-05T00:40:48Z</time>
      </trkpt>
      <trkpt lat="34.81716380521789" lon="113.65972080911185">
        <ele>89.03038522414863</ele>
        <time>2026-08-05T00:40:51Z</time>
      </trkpt>
      <trkpt lat="34.81704587829306" lon="113.65977643561558">
        <ele>90.15436406899244</ele>
        <time>2026-08-05T00:40:57Z</time>
      </trkpt>
      <trkpt lat="34.8168141933974" lon="113.6598283258945">
        <ele>90.37698679883033</ele>
        <time>2026-08-05T00:41:09Z</time>
      </trkpt>
      <trkpt lat="34.81667604582526" lon="113.65988655593496">
        <ele>90.32529612164944</ele>
        <time>2026-08-05T00:41:15Z</time>
      </trkpt>
      <trkpt lat="34.81662905924257" lon="113.6598825148419">
        <ele>89.32364582363516</ele>
        <time>2026-08-05T00:41:18Z</time>
      </trkpt>
      <trkpt lat="34.81648055653727" lon="113.66000815685857">
        <ele>89.10320967342705</ele>
        <time>2026-08-05T00:41:27Z</time>
      </trkpt>
      <trkpt lat="34.81637146620984" lon="113.6600638338716">
        <ele>88.29264779388905</ele>
        <time>2026-08-05T00:41:33Z</time>
      </trkpt>
      <trkpt lat="34.81630847687508" lon="113.66005955659976">
        <ele>89.87928867805749</ele>
        <time>2026-08-05T00:41:36Z</time>
      </trkpt>
      <trkpt lat="34.81627120911253" lon="113.6601221704782">
        <ele>89.24737103935331</ele>
        <time>2026-08-05T00:41:39Z</time>
      </trkpt>
      <trkpt lat="34.81624697850292" lon="113.65982546076484">
        <ele>91.38113829214126</ele>
        <time>2026-08-05T00:41:51Z</time>
      </trkpt>
      <trkpt lat="34.81613896746072" lon="113.65977710269745">
        <ele>92.5891251731664</ele>
        <time>2026-08-05T00:41:57Z</time>
      </trkpt>
      <trkpt lat="34.81614877888824" lon="113.65998615377826">
        <ele>92.86036745924503</ele>
        <time>2026-08-05T00:42:09Z</time>
      </trkpt>
      <trkpt lat="34.816262384761636" lon="113.6601136899087">
        <ele>91.76451475732028</ele>
        <time>2026-08-05T00:42:16Z</time>
      </trkpt>
      <trkpt lat="34.81622419694805" lon="113.6602745890589">
        <ele>90.44769380893558</ele>
        <time>2026-08-05T00:42:20Z</time>
      </trkpt>
      <trkpt lat="34.81624644735643" lon="113.66038617370963">
        <ele>89.3695324677974</ele>
        <time>2026-08-05T00:42:24Z</time>
      </trkpt>
      <trkpt lat="34.816322691298296" lon="113.6604245867763">
        <ele>89.44253095984459</ele>
        <time>2026-08-05T00:42:28Z</time>
      </trkpt>
      <trkpt lat="34.816340753731694" lon="113.66053947876263">
        <ele>89.91124547366053</ele>
        <time>2026-08-05T00:42:31Z</time>
      </trkpt>
      <trkpt lat="34.816286975062795" lon="113.66059847403601">
        <ele>89.36150026135147</ele>
        <time>2026-08-05T00:42:34Z</time>
      </trkpt>
      <trkpt lat="34.816291928111625" lon="113.6606644808078">
        <ele>91.01375423930585</ele>
        <time>2026-08-05T00:42:37Z</time>
      </trkpt>
      <trkpt lat="34.816330123730026" lon="113.6607353148454">
        <ele>91.06969441659749</ele>
        <time>2026-08-05T00:42:40Z</time>
      </trkpt>
      <trkpt lat="34.81639047650767" lon="113.66076936770686">
        <ele>91.9870011145249</ele>
        <time>2026-08-05T00:42:43Z</time>
      </trkpt>
      <trkpt lat="34.816563360052285" lon="113.66071642819081">
        <ele>89.24939213413745</ele>
        <time>2026-08-05T00:42:52Z</time>
      </trkpt>
      <trkpt lat="34.816615045630506" lon="113.66067206020696">
        <ele>89.7045885566622</ele>
        <time>2026-08-05T00:42:55Z</time>
      </trkpt>
      <trkpt lat="34.81664809067173" lon="113.66046467159568">
        <ele>88.7298409678042</ele>
        <time>2026-08-05T00:43:04Z</time>
      </trkpt>
      <trkpt lat="34.81677372876078" lon="113.66041186433735">
        <ele>88.91060619428754</ele>
        <time>2026-08-05T00:43:10Z</time>
      </trkpt>
      <trkpt lat="34.81690833576354" lon="113.66045054422902">
        <ele>88.9688241649419</ele>
        <time>2026-08-05T00:43:16Z</time>
      </trkpt>
      <trkpt lat="34.816970932542354" lon="113.66040150313412">
        <ele>88.2893598927185</ele>
        <time>2026-08-05T00:43:22Z</time>
      </trkpt>
      <trkpt lat="34.81704664162682" lon="113.66036915317414">
        <ele>88.64189785160124</ele>
        <time>2026-08-05T00:43:25Z</time>
      </trkpt>
      <trkpt lat="34.8170976954865" lon="113.66031615504284">
        <ele>88.10772492177784</ele>
        <time>2026-08-05T00:43:28Z</time>
      </trkpt>
      <trkpt lat="34.81709184376569" lon="113.66021248584832">
        <ele>88.07961771264672</ele>
        <time>2026-08-05T00:43:31Z</time>
      </trkpt>
      <trkpt lat="34.8171696586683" lon="113.66018225561254">
        <ele>88.55390393361449</ele>
        <time>2026-08-05T00:43:34Z</time>
      </trkpt>
      <trkpt lat="34.817211243086035" lon="113.66014260442108">
        <ele>88.99195863679051</ele>
        <time>2026-08-05T00:43:37Z</time>
      </trkpt>
      <trkpt lat="34.81741271492109" lon="113.6601688101483">
        <ele>90.12079944647849</ele>
        <time>2026-08-05T00:43:46Z</time>
      </trkpt>
      <trkpt lat="34.81757343982373" lon="113.66012373723574">
        <ele>89.28498679026961</ele>
        <time>2026-08-05T00:43:55Z</time>
      </trkpt>
      <trkpt lat="34.81762709493466" lon="113.660091807004">
        <ele>89.59311140701175</ele>
        <time>2026-08-05T00:43:58Z</time>
      </trkpt>
      <trkpt lat="34.8176798148793" lon="113.66011790701627">
        <ele>88.83770342450589</ele>
        <time>2026-08-05T00:44:01Z</time>
      </trkpt>
      <trkpt lat="34.81790613814919" lon="113.66000219614051">
        <ele>87.92637854162604</ele>
        <time>2026-08-05T00:44:13Z</time>
      </trkpt>
      <trkpt lat="34.81806320726323" lon="113.65983851634435">
        <ele>87.7107145646587</ele>
        <time>2026-08-05T00:44:23Z</time>
      </trkpt>
      <trkpt lat="34.81821418773131" lon="113.65975524102986">
        <ele>87.85133206751198</ele>
        <time>2026-08-05T00:44:29Z</time>
      </trkpt>
      <trkpt lat="34.818301052147376" lon="113.65967980095219">
        <ele>87.87504220381379</ele>
        <time>2026-08-05T00:44:35Z</time>
      </trkpt>
      <trkpt lat="34.81849077977036" lon="113.65958545759837">
        <ele>88.25332187581807</ele>
        <time>2026-08-05T00:44:47Z</time>
      </trkpt>
      <trkpt lat="34.81857469267751" lon="113.65958323408586">
        <ele>87.77528875786811</ele>
        <time>2026-08-05T00:44:50Z</time>
      </trkpt>
      <trkpt lat="34.818753377318856" lon="113.65950164597237">
        <ele>87.556083005853</ele>
        <time>2026-08-05T00:44:59Z</time>
      </trkpt>
      <trkpt lat="34.818805655729314" lon="113.65952979387944">
        <ele>88.71887253504246</ele>
        <time>2026-08-05T00:45:05Z</time>
      </trkpt>
      <trkpt lat="34.81886835062034" lon="113.65953032661217">
        <ele>90.03783707693219</ele>
        <time>2026-08-05T00:45:08Z</time>
      </trkpt>
      <trkpt lat="34.81896834951903" lon="113.65960020829857">
        <ele>88.23970567062497</ele>
        <time>2026-08-05T00:45:14Z</time>
      </trkpt>
      <trkpt lat="34.819013882887795" lon="113.65956062740558">
        <ele>88.32944819331169</ele>
        <time>2026-08-05T00:45:17Z</time>
      </trkpt>
      <trkpt lat="34.81909057460484" lon="113.65946136525521">
        <ele>87.92421421129256</ele>
        <time>2026-08-05T00:45:23Z</time>
      </trkpt>
      <trkpt lat="34.81918337258503" lon="113.65938356573318">
        <ele>87.14905069302768</ele>
        <time>2026-08-05T00:45:29Z</time>
      </trkpt>
      <trkpt lat="34.819274222249305" lon="113.65936984039703">
        <ele>86.75064152199775</ele>
        <time>2026-08-05T00:45:32Z</time>
      </trkpt>
      <trkpt lat="34.81932047963929" lon="113.659385645179">
        <ele>87.2972482740879</ele>
        <time>2026-08-05T00:45:35Z</time>
      </trkpt>
      <trkpt lat="34.8194689433655" lon="113.65937293913358">
        <ele>87.47944843675941</ele>
        <time>2026-08-05T00:45:41Z</time>
      </trkpt>
      <trkpt lat="34.81955790667458" lon="113.65940378621164">
        <ele>86.8645057361573</ele>
        <time>2026-08-05T00:45:47Z</time>
      </trkpt>
      <trkpt lat="34.819621973524235" lon="113.65934032123761">
        <ele>91.19523059669882</ele>
        <time>2026-08-05T00:45:53Z</time>
      </trkpt>
      <trkpt lat="34.819669224553934" lon="113.65934047383476">
        <ele>91.13338631018996</ele>
        <time>2026-08-05T00:45:56Z</time>
      </trkpt>
      <trkpt lat="34.81960967989724" lon="113.65930610264037">
        <ele>91.00207115802914</ele>
        <time>2026-08-05T00:46:08Z</time>
      </trkpt>
      <trkpt lat="34.819900493441175" lon="113.65916754431375">
        <ele>90.12434131558985</ele>
        <time>2026-08-05T00:58:50Z</time>
      </trkpt>
      <trkpt lat="34.8199998750689" lon="113.6591630152504">
        <ele>89.4575731465593</ele>
        <time>2026-08-05T00:58:56Z</time>
      </trkpt>
      <trkpt lat="34.82011871785623" lon="113.65907192601419">
        <ele>90.51295174192637</ele>
        <time>2026-08-05T00:59:03Z</time>
      </trkpt>
      <trkpt lat="34.82030050571145" lon="113.65903060253365">
        <ele>92.24541000556201</ele>
        <time>2026-08-05T00:59:15Z</time>
      </trkpt>
      <trkpt lat="34.8203061846484" lon="113.6590976728208">
        <ele>91.65062614995986</ele>
        <time>2026-08-05T00:59:18Z</time>
      </trkpt>
      <trkpt lat="34.82027286520624" lon="113.65916442235599">
        <ele>91.4921059217304</ele>
        <time>2026-08-05T00:59:21Z</time>
      </trkpt>
      <trkpt lat="34.82010761417528" lon="113.65924896764848">
        <ele>91.75366378482431</ele>
        <time>2026-08-05T00:59:30Z</time>
      </trkpt>
      <trkpt lat="34.82002314532085" lon="113.65933186923787">
        <ele>91.76695974171162</ele>
        <time>2026-08-05T00:59:36Z</time>
      </trkpt>
      <trkpt lat="34.820021118598845" lon="113.65939630607399">
        <ele>91.29468876495957</ele>
        <time>2026-08-05T00:59:39Z</time>
      </trkpt>
      <trkpt lat="34.82007308188442" lon="113.65939283031402">
        <ele>90.5755452523008</ele>
        <time>2026-08-05T00:59:42Z</time>
      </trkpt>
      <trkpt lat="34.8201779891655" lon="113.65933274283623">
        <ele>91.42914216592908</ele>
        <time>2026-08-05T00:59:48Z</time>
      </trkpt>
      <trkpt lat="34.82018089423461" lon="113.65921646460296">
        <ele>90.93822705000639</ele>
        <time>2026-08-05T00:59:54Z</time>
      </trkpt>
      <trkpt lat="34.82023601968336" lon="113.65918986030127">
        <ele>90.5765847209841</ele>
        <time>2026-08-05T01:00:00Z</time>
      </trkpt>
      <trkpt lat="34.82025070112182" lon="113.65924607611679">
        <ele>89.33787958323956</ele>
        <time>2026-08-05T01:00:03Z</time>
      </trkpt>
      <trkpt lat="34.82019805140387" lon="113.65931947942046">
        <ele>89.61116455215961</ele>
        <time>2026-08-05T01:00:06Z</time>
      </trkpt>
      <trkpt lat="34.82006987151599" lon="113.65938865440168">
        <ele>91.45475984364748</ele>
        <time>2026-08-05T01:00:12Z</time>
      </trkpt>
      <trkpt lat="34.82001730834958" lon="113.65939620888187">
        <ele>91.46922434400767</ele>
        <time>2026-08-05T01:00:15Z</time>
      </trkpt>
      <trkpt lat="34.820003580481945" lon="113.65932490985045">
        <ele>91.39215835370123</ele>
        <time>2026-08-05T01:00:18Z</time>
      </trkpt>
      <trkpt lat="34.82004922138378" lon="113.65926955979839">
        <ele>91.76968001853675</ele>
        <time>2026-08-05T01:00:21Z</time>
      </trkpt>
      <trkpt lat="34.82020902654151" lon="113.65918484462547">
        <ele>92.53093865793198</ele>
        <time>2026-08-05T01:00:30Z</time>
      </trkpt>
      <trkpt lat="34.82029760625121" lon="113.6591866570919">
        <ele>91.47906940057874</ele>
        <time>2026-08-05T01:00:36Z</time>
      </trkpt>
      <trkpt lat="34.820360753598855" lon="113.65921657498">
        <ele>91.06398571841419</ele>
        <time>2026-08-05T01:00:42Z</time>
      </trkpt>
      <trkpt lat="34.8206323668654" lon="113.65908466215666">
        <ele>91.23096889723092</ele>
        <time>2026-08-05T01:00:57Z</time>
      </trkpt>
      <trkpt lat="34.82079568497713" lon="113.65891137694949">
        <ele>90.87655816785991</ele>
        <time>2026-08-05T01:01:10Z</time>
      </trkpt>
      <trkpt lat="34.82077738285313" lon="113.65880154558445">
        <ele>91.3574367435649</ele>
        <time>2026-08-05T01:01:16Z</time>
      </trkpt>
      <trkpt lat="34.82080792967458" lon="113.65872532614338">
        <ele>90.8241609595716</ele>
        <time>2026-08-05T01:01:22Z</time>
      </trkpt>
      <trkpt lat="34.82107458687917" lon="113.6586199195273">
        <ele>88.67393768485636</ele>
        <time>2026-08-05T01:01:37Z</time>
      </trkpt>
      <trkpt lat="34.82135027167745" lon="113.65852422361183">
        <ele>88.2900683907792</ele>
        <time>2026-08-05T01:01:52Z</time>
      </trkpt>
      <trkpt lat="34.82142537959612" lon="113.6585036530014">
        <ele>88.69944672938436</ele>
        <time>2026-08-05T01:01:55Z</time>
      </trkpt>
      <trkpt lat="34.82169154903864" lon="113.65837614776076">
        <ele>90.35609079524875</ele>
        <time>2026-08-05T01:02:10Z</time>
      </trkpt>
      <trkpt lat="34.82195932258207" lon="113.6582604611161">
        <ele>89.15631208661944</ele>
        <time>2026-08-05T01:02:25Z</time>
      </trkpt>
      <trkpt lat="34.8221375984548" lon="113.658201259279">
        <ele>89.59280974045396</ele>
        <time>2026-08-05T01:02:34Z</time>
      </trkpt>
      <trkpt lat="34.82236629248564" lon="113.65809126666761">
        <ele>90.73308116476983</ele>
        <time>2026-08-05T01:02:46Z</time>
      </trkpt>
      <trkpt lat="34.8224899341143" lon="113.6580867809215">
        <ele>89.19341410696507</ele>
        <time>2026-08-05T01:02:52Z</time>
      </trkpt>
      <trkpt lat="34.82276742494825" lon="113.65795584418379">
        <ele>89.26637669932097</ele>
        <time>2026-08-05T01:03:07Z</time>
      </trkpt>
      <trkpt lat="34.822968252242205" lon="113.65790220593644">
        <ele>90.55670586880296</ele>
        <time>2026-08-05T01:03:17Z</time>
      </trkpt>
      <trkpt lat="34.823113222073005" lon="113.65782177835015">
        <ele>89.86106981988996</ele>
        <time>2026-08-05T01:03:24Z</time>
      </trkpt>
      <trkpt lat="34.823296029902025" lon="113.65775195129291">
        <ele>89.77659789752215</ele>
        <time>2026-08-05T01:03:34Z</time>
      </trkpt>
      <trkpt lat="34.82357049965635" lon="113.65762850450041">
        <ele>90.6297434028238</ele>
        <time>2026-08-05T01:03:49Z</time>
      </trkpt>
      <trkpt lat="34.82384622948798" lon="113.65752447465307">
        <ele>90.84867485519499</ele>
        <time>2026-08-05T01:04:04Z</time>
      </trkpt>
      <trkpt lat="34.82410597137668" lon="113.65741599627624">
        <ele>89.95702102314681</ele>
        <time>2026-08-05T01:04:19Z</time>
      </trkpt>
      <trkpt lat="34.82433041763003" lon="113.65733301102644">
        <ele>89.0223846109584</ele>
        <time>2026-08-05T01:04:31Z</time>
      </trkpt>
      <trkpt lat="34.824550554189116" lon="113.65720694979402">
        <ele>90.94152753148228</ele>
        <time>2026-08-05T01:04:43Z</time>
      </trkpt>
      <trkpt lat="34.824885425302384" lon="113.65708797079124">
        <ele>90.25342688616365</ele>
        <time>2026-08-05T01:04:55Z</time>
      </trkpt>
      <trkpt lat="34.82515746330945" lon="113.6569596114643">
        <ele>91.78060905635357</ele>
        <time>2026-08-05T01:05:07Z</time>
      </trkpt>
      <trkpt lat="34.82520934732394" lon="113.65695671468077">
        <ele>92.09355909563601</ele>
        <time>2026-08-05T01:05:10Z</time>
      </trkpt>
      <trkpt lat="34.82550263501696" lon="113.65683579331743">
        <ele>90.19114697352052</ele>
        <time>2026-08-05T01:05:26Z</time>
      </trkpt>
      <trkpt lat="34.82576414587554" lon="113.65671776323963">
        <ele>89.86523985303938</ele>
        <time>2026-08-05T01:05:41Z</time>
      </trkpt>
      <trkpt lat="34.826046353514045" lon="113.65659710363023">
        <ele>90.81081657391042</ele>
        <time>2026-08-05T01:05:56Z</time>
      </trkpt>
      <trkpt lat="34.826342725619945" lon="113.6564805463616">
        <ele>90.90859837457538</ele>
        <time>2026-08-05T01:06:11Z</time>
      </trkpt>
      <trkpt lat="34.82640723887459" lon="113.65646807003446">
        <ele>90.48791520204395</ele>
        <time>2026-08-05T01:06:14Z</time>
      </trkpt>
      <trkpt lat="34.82663722423868" lon="113.65635766626993">
        <ele>91.11584570538253</ele>
        <time>2026-08-05T01:06:29Z</time>
      </trkpt>
      <trkpt lat="34.826932619341314" lon="113.6562376161602">
        <ele>90.47129931021482</ele>
        <time>2026-08-05T01:06:47Z</time>
      </trkpt>
      <trkpt lat="34.82697704542703" lon="113.65630830013674">
        <ele>91.45679851062596</ele>
        <time>2026-08-05T01:06:56Z</time>
      </trkpt>
    </trkseg>
  </trk>
</gpx>