<?xml version="1.0" encoding="UTF-8"?>
<gpx xmlns="http://www.topografix.com/GPX/1/1" xmlns:gpxtpx="http://www.garmin.com/xmlschemas/TrackPointExtension/v1" xmlns:xsi="http://www.w3.org/2001/XMLSchema-instance" xsi:schemaLocation="http://www.topografix.com/GPX/1/1 http://www.topografix.com/GPX/1/1/gpx.xsd" version="1.1" creator="gpx.py -- https://github.com/tkrajina/gpxpy">
  <trk>
    <name>gpx from keep</name>
    <type>Run</type>
    <trkseg>
      <trkpt lat="34.82990941883431" lon="113.65848541239406">
        <ele>89.76905003748834</ele>
        <time>2026-09-13T22:53:33Z</time>
      </trkpt>
      <trkpt lat="34.83012929395048" lon="113.65848936777871">
        <ele>86.8305036900565</ele>
        <time>2026-09-13T22:53:44Z</time>
      </trkpt>
      <trkpt lat="34.830209955528694" lon="113.65845021616529">
        <ele>86.34465524181724</ele>
        <time>2026-09-13T22:53:48Z</time>
      </trkpt>
      <trkpt lat="34.830281168868346" lon="113.6584434882357">
        <ele>86.8840281413868</ele>
        <time>2026-09-13T22:53:52Z</time>
      </trkpt>
      <trkpt lat="34.8303391086284" lon="113.65840303498506">
        <ele>86.8160307770595</ele>
        <time>2026-09-13T22:53:56Z</time>
      </trkpt>
      <trkpt lat="34.830461482411856" lon="113.65838422868377">
        <ele>87.21385937090963</ele>
        <time>2026-09-13T22:54:03Z</time>
      </trkpt>
      <trkpt lat="34.830542583313516" lon="113.65839800040409">
        <ele>88.2713164454326</ele>
        <time>2026-09-13T22:54:07Z</time>
      </trkpt>
      <trkpt lat="34.83050696092857" lon="113.65857444498127">
        <ele>88.09938669390976</ele>
        <time>2026-09-13T22:54:23Z</time>
      </trkpt>
      <trkpt lat="34.83062129560616" lon="113.6586633153924">
        <ele>88.60765451937914</ele>
        <time>2026-09-13T22:54:27Z</time>
      </trkpt>
      <trkpt lat="34.83063755900506" lon="113.65872684205763">
        <ele>87.53523430228233</ele>
        <time>2026-09-13T22:54:31Z</time>
      </trkpt>
      <trkpt lat="34.83075599638196" lon="113.65877698809108">
        <ele>88.04693730920553</ele>
        <time>2026-09-13T22:54:35Z</time>
      </trkpt>
      <trkpt lat="34.83074280303226" lon="113.6588553507976">
        <ele>87.66167474444956</ele>
        <time>2026-09-13T22:54:38Z</time>
      </trkpt>
      <trkpt lat="34.830847840866696" lon="113.65907092026967">
        <ele>88.23176209069788</ele>
        <time>2026-09-13T22:54:46Z</time>
      </trkpt>
      <trkpt lat="34.830960585246736" lon="113.6590844854161">
        <ele>90.7945845387876</ele>
        <time>2026-09-13T22:54:50Z</time>
      </trkpt>
      <trkpt lat="34.83100115507435" lon="113.65905842099698">
        <ele>92.28518992383033</ele>
        <time>2026-09-13T22:54:53Z</time>
      </trkpt>
      <trkpt lat="34.8310868251741" lon="113.65904779631693">
        <ele>94.46488740388304</ele>
        <time>2026-09-13T22:54:57Z</time>
      </trkpt>
      <trkpt lat="34.83123751033346" lon="113.65907612536401">
        <ele>92.73886138666421</ele>
        <time>2026-09-13T22:55:04Z</time>
      </trkpt>
      <trkpt lat="34.83130968112657" lon="113.65903182238827">
        <ele>92.94685548078269</ele>
        <time>2026-09-13T22:55:08Z</time>
      </trkpt>
      <trkpt lat="34.83142183208884" lon="113.65891103573239">
        <ele>94.46160563919693</ele>
        <time>2026-09-13T22:55:15Z</time>
      </trkpt>
      <trkpt lat="34.831522937898676" lon="113.65881290428315">
        <ele>94.96717105526477</ele>
        <time>2026-09-13T22:55:21Z</time>
      </trkpt>
      <trkpt lat="34.83169059255199" lon="113.65883390084038">
        <ele>94.62818626873195</ele>
        <time>2026-09-13T22:55:29Z</time>
      </trkpt>
      <trkpt lat="34.83184853022139" lon="113.65878654486046">
        <ele>94.57056856527925</ele>
        <time>2026-09-13T22:55:37Z</time>
      </trkpt>
      <trkpt lat="34.83192066400726" lon="113.65874449049983">
        <ele>94.79636545106769</ele>
        <time>2026-09-13T22:55:41Z</time>
      </trkpt>
      <trkpt lat="34.83202227226428" lon="113.65860056135806">
        <ele>93.91978872660547</ele>
        <time>2026-09-13T22:55:49Z</time>
      </trkpt>
      <trkpt lat="34.83214378488774" lon="113.65848288601818">
        <ele>92.57762649469078</ele>
        <time>2026-09-13T22:55:57Z</time>
      </trkpt>
      <trkpt lat="34.832156625040405" lon="113.65834146287858">
        <ele>91.59572226181626</ele>
        <time>2026-09-13T22:56:03Z</time>
      </trkpt>
      <trkpt lat="34.83217836126419" lon="113.65826632939964">
        <ele>91.1617377512157</ele>
        <time>2026-09-13T22:56:06Z</time>
      </trkpt>
      <trkpt lat="34.832183080060425" lon="113.65807019657113">
        <ele>89.12027610559016</ele>
        <time>2026-09-13T22:56:15Z</time>
      </trkpt>
      <trkpt lat="34.83220234083542" lon="113.65792735013333">
        <ele>89.14965392369777</ele>
        <time>2026-09-13T22:56:21Z</time>
      </trkpt>
      <trkpt lat="34.832183859490456" lon="113.65772077295797">
        <ele>87.43219991959631</ele>
        <time>2026-09-13T22:56:30Z</time>
      </trkpt>
      <trkpt lat="34.832241044125155" lon="113.65737445414311">
        <ele>85.0518852295354</ele>
        <time>2026-09-13T22:56:45Z</time>
      </trkpt>
      <trkpt lat="34.83226693527934" lon="113.65710963127778">
        <ele>86.93135232850909</ele>
        <time>2026-09-13T22:56:54Z</time>
      </trkpt>
      <trkpt lat="34.83225727305941" lon="113.6570277650889">
        <ele>87.54704666230828</ele>
        <time>2026-09-13T22:56:57Z</time>
      </trkpt>
      <trkpt lat="34.83227343371109" lon="113.65678948764065">
        <ele>88.55611928552389</ele>
        <time>2026-09-13T22:57:06Z</time>
      </trkpt>
      <trkpt lat="34.832257652943184" lon="113.65673553134056">
        <ele>88.16452796198428</ele>
        <time>2026-09-13T22:57:09Z</time>
      </trkpt>
      <trkpt lat="34.83229115301523" lon="113.65669647218553">
        <ele>88.61464686132967</ele>
        <time>2026-09-13T22:57:12Z</time>
      </trkpt>
      <trkpt lat="34.83247891203438" lon="113.65671578876108">
        <ele>90.01683579664677</ele>
        <time>2026-09-13T22:57:21Z</time>
      </trkpt>
      <trkpt lat="34.83270547995638" lon="113.6567591627903">
        <ele>89.47363267093897</ele>
        <time>2026-09-13T22:57:32Z</time>
      </trkpt>
      <trkpt lat="34.832988674304666" lon="113.65676051403945">
        <ele>90.08025223575532</ele>
        <time>2026-09-13T22:57:48Z</time>
      </trkpt>
      <trkpt lat="34.833258231259066" lon="113.6567633403006">
        <ele>91.159444113262</ele>
        <time>2026-09-13T22:58:02Z</time>
      </trkpt>
      <trkpt lat="34.83324798017571" lon="113.65642132281785">
        <ele>90.4866992039606</ele>
        <time>2026-09-13T22:58:20Z</time>
      </trkpt>
      <trkpt lat="34.833417236623035" lon="113.65634121229262">
        <ele>89.74318397417665</ele>
        <time>2026-09-13T22:58:29Z</time>
      </trkpt>
      <trkpt lat="34.833643036534845" lon="113.65632094182831">
        <ele>89.73560998216271</ele>
        <time>2026-09-13T22:58:41Z</time>
      </trkpt>
      <trkpt lat="34.83386002648118" lon="113.65618124201711">
        <ele>90.25702733080834</ele>
        <time>2026-09-13T22:58:53Z</time>
      </trkpt>
      <trkpt lat="34.83393228015579" lon="113.6561674724947">
        <ele>90.4500025678426</ele>
        <time>2026-09-13T22:58:56Z</time>
      </trkpt>
      <trkpt lat="34.834163513604" lon="113.6559459844498">
        <ele>90.647440969944</ele>
        <time>2026-09-13T22:59:11Z</time>
      </trkpt>
      <trkpt lat="34.83427402624306" lon="113.65571494610121">
        <ele>91.66428541671485</ele>
        <time>2026-09-13T22:59:23Z</time>
      </trkpt>
      <trkpt lat="34.83427607027648" lon="113.65539552475232">
        <ele>91.16655261255801</ele>
        <time>2026-09-13T22:59:37Z</time>
      </trkpt>
      <trkpt lat="34.834186412713834" lon="113.65512881884096">
        <ele>89.02222908474505</ele>
        <time>2026-09-13T22:59:49Z</time>
      </trkpt>
      <trkpt lat="34.83414331735768" lon="113.6550704127421">
        <ele>89.03775167930871</ele>
        <time>2026-09-13T22:59:53Z</time>
      </trkpt>
      <trkpt lat="34.83410120171571" lon="113.65505079878112">
        <ele>88.31764298211783</ele>
        <time>2026-09-13T22:59:56Z</time>
      </trkpt>
      <trkpt lat="34.83404793336306" lon="113.65505223869698">
        <ele>88.42409720085561</ele>
        <time>2026-09-13T22:59:59Z</time>
      </trkpt>
      <trkpt lat="34.83400014798791" lon="113.65502801898518">
        <ele>88.84797294065356</ele>
        <time>2026-09-13T23:00:02Z</time>
      </trkpt>
      <trkpt lat="34.83398645991034" lon="113.65496886488025">
        <ele>88.9364260295406</ele>
        <time>2026-09-13T23:00:05Z</time>
      </trkpt>
      <trkpt lat="34.83394668940302" lon="113.65491640006996">
        <ele>89.19388898648322</ele>
        <time>2026-09-13T23:00:08Z</time>
      </trkpt>
      <trkpt lat="34.8338498615987" lon="113.65484726832955">
        <ele>89.27261415868998</ele>
        <time>2026-09-13T23:00:14Z</time>
      </trkpt>
      <trkpt lat="34.83370700764095" lon="113.65480535640553">
        <ele>87.87668150383979</ele>
        <time>2026-09-13T23:00:23Z</time>
      </trkpt>
      <trkpt lat="34.83359909662569" lon="113.65479480429094">
        <ele>89.0398801472038</ele>
        <time>2026-09-13T23:00:29Z</time>
      </trkpt>
      <trkpt lat="34.83336280867188" lon="113.65487668329163">
        <ele>88.25849984958768</ele>
        <time>2026-09-13T23:00:44Z</time>
      </trkpt>
      <trkpt lat="34.83331053025009" lon="113.6549130686269">
        <ele>88.69847429078072</ele>
        <time>2026-09-13T23:00:47Z</time>
      </trkpt>
      <trkpt lat="34.83326582601693" lon="113.65492083909447">
        <ele>88.67116950452328</ele>
        <time>2026-09-13T23:00:50Z</time>
      </trkpt>
      <trkpt lat="34.8332237603048" lon="113.65487776539554">
        <ele>88.74074213020504</ele>
        <time>2026-09-13T23:00:53Z</time>
      </trkpt>
      <trkpt lat="34.83317409833947" lon="113.6546745220669">
        <ele>88.105776976794</ele>
        <time>2026-09-13T23:01:02Z</time>
      </trkpt>
      <trkpt lat="34.83313265130328" lon="113.65461927900608">
        <ele>88.29942677821964</ele>
        <time>2026-09-13T23:01:05Z</time>
      </trkpt>
      <trkpt lat="34.833068490183294" lon="113.6546279369039">
        <ele>88.61435920000076</ele>
        <time>2026-09-13T23:01:08Z</time>
      </trkpt>
      <trkpt lat="34.83296775989836" lon="113.65470268454956">
        <ele>88.47593232430518</ele>
        <time>2026-09-13T23:01:14Z</time>
      </trkpt>
      <trkpt lat="34.83285473099288" lon="113.65472208977786">
        <ele>88.44502726010978</ele>
        <time>2026-09-13T23:01:20Z</time>
      </trkpt>
      <trkpt lat="34.83274762448443" lon="113.65477570742554">
        <ele>88.5707573350519</ele>
        <time>2026-09-13T23:01:26Z</time>
      </trkpt>
      <trkpt lat="34.83270000593544" lon="113.65477292101413">
        <ele>89.59199636615813</ele>
        <time>2026-09-13T23:01:29Z</time>
      </trkpt>
      <trkpt lat="34.832657312024374" lon="113.65469387523979">
        <ele>90.03995769284666</ele>
        <time>2026-09-13T23:01:35Z</time>
      </trkpt>
      <trkpt lat="34.83261879079834" lon="113.65452389833916">
        <ele>89.23524721991271</ele>
        <time>2026-09-13T23:01:43Z</time>
      </trkpt>
      <trkpt lat="34.83267620330651" lon="113.65447868045516">
        <ele>88.68811893649399</ele>
        <time>2026-09-13T23:01:47Z</time>
      </trkpt>
      <trkpt lat="34.83276542132831" lon="113.65446836267208">
        <ele>88.96336626913399</ele>
        <time>2026-09-13T23:01:51Z</time>
      </trkpt>
      <trkpt lat="34.832825662198466" lon="113.65443301076415">
        <ele>89.19781620055437</ele>
        <time>2026-09-13T23:01:55Z</time>
      </trkpt>
      <trkpt lat="34.83283498239139" lon="113.65408571105422">
        <ele>90.91759360954165</ele>
        <time>2026-09-13T23:02:12Z</time>
      </trkpt>
      <trkpt lat="34.83284051607087" lon="113.65377351528149">
        <ele>92.7935284068808</ele>
        <time>2026-09-13T23:02:27Z</time>
      </trkpt>
      <trkpt lat="34.832755170642734" lon="113.6535987036584">
        <ele>89.95288613252342</ele>
        <time>2026-09-13T23:02:36Z</time>
      </trkpt>
      <trkpt lat="34.832774967917345" lon="113.65347981843709">
        <ele>88.94690446183085</ele>
        <time>2026-09-13T23:02:42Z</time>
      </trkpt>
      <trkpt lat="34.832815648328214" lon="113.65342326775584">
        <ele>89.4364603580907</ele>
        <time>2026-09-13T23:02:45Z</time>
      </trkpt>
      <trkpt lat="34.83298727326828" lon="113.65326374494788">
        <ele>89.85954773332924</ele>
        <time>2026-09-13T23:02:57Z</time>
      </trkpt>
      <trkpt lat="34.83305984953202" lon="113.65309756817514">
        <ele>87.58088381402194</ele>
        <time>2026-09-13T23:03:09Z</time>
      </trkpt>
      <trkpt lat="34.8330672054691" lon="113.65302860009915">
        <ele>87.49783428851515</ele>
        <time>2026-09-13T23:03:12Z</time>
      </trkpt>
      <trkpt lat="34.83317014324027" lon="113.65287884043222">
        <ele>87.38694528397173</ele>
        <time>2026-09-13T23:03:21Z</time>
      </trkpt>
      <trkpt lat="34.83333289558462" lon="113.65281882061126">
        <ele>88.70816007535905</ele>
        <time>2026-09-13T23:03:27Z</time>
      </trkpt>
      <trkpt lat="34.833534001237425" lon="113.65268527254092">
        <ele>88.75020714849234</ele>
        <time>2026-09-13T23:03:39Z</time>
      </trkpt>
      <trkpt lat="34.83380847864922" lon="113.65260030193093">
        <ele>89.1988416435197</ele>
        <time>2026-09-13T23:03:54Z</time>
      </trkpt>
      <trkpt lat="34.83403497606571" lon="113.65253857846182">
        <ele>90.90491210110486</ele>
        <time>2026-09-13T23:04:05Z</time>
      </trkpt>
      <trkpt lat="34.83407574052497" lon="113.65251131710221">
        <ele>91.29716474376619</ele>
        <time>2026-09-13T23:04:08Z</time>
      </trkpt>
      <trkpt lat="34.834364670758774" lon="113.65245271094601">
        <ele>90.48253846541047</ele>
        <time>2026-09-13T23:04:23Z</time>
      </trkpt>
      <trkpt lat="34.83466010199985" lon="113.6523258837186">
        <ele>90.51866499055177</ele>
        <time>2026-09-13T23:04:38Z</time>
      </trkpt>
      <trkpt lat="34.834945933320625" lon="113.65219278036301">
        <ele>90.5415573026985</ele>
        <time>2026-09-13T23:04:56Z</time>
      </trkpt>
      <trkpt lat="34.834989746374156" lon="113.65215399024773">
        <ele>91.48449221532792</ele>
        <time>2026-09-13T23:04:59Z</time>
      </trkpt>
      <trkpt lat="34.83521350485419" lon="113.65209794085499">
        <ele>90.8957563135773</ele>
        <time>2026-09-13T23:05:11Z</time>
      </trkpt>
      <trkpt lat="34.83538200910069" lon="113.65203661011333">
        <ele>90.70175968576223</ele>
        <time>2026-09-13T23:05:20Z</time>
      </trkpt>
      <trkpt lat="34.835419556388786" lon="113.65199007600938">
        <ele>90.32024033274502</ele>
        <time>2026-09-13T23:05:23Z</time>
      </trkpt>
      <trkpt lat="34.83572008479581" lon="113.6518794366321">
        <ele>92.17842289526016</ele>
        <time>2026-09-13T23:05:38Z</time>
      </trkpt>
      <trkpt lat="34.835711746131565" lon="113.65179999581224">
        <ele>92.22022772673517</ele>
        <time>2026-09-13T23:05:44Z</time>
      </trkpt>
      <trkpt lat="34.8355898156558" lon="113.65164830937663">
        <ele>92.9347774060443</ele>
        <time>2026-09-13T23:05:55Z</time>
      </trkpt>
      <trkpt lat="34.83558532611308" lon="113.65128932503438">
        <ele>88.0307276379317</ele>
        <time>2026-09-13T23:06:10Z</time>
      </trkpt>
      <trkpt lat="34.83561255527903" lon="113.65122958448035">
        <ele>87.52967007830739</ele>
        <time>2026-09-13T23:06:16Z</time>
      </trkpt>
      <trkpt lat="34.83590854006652" lon="113.65111064210535">
        <ele>87.67149328161031</ele>
        <time>2026-09-13T23:06:28Z</time>
      </trkpt>
      <trkpt lat="34.83620166439536" lon="113.65099658349938">
        <ele>87.56482100021094</ele>
        <time>2026-09-13T23:06:43Z</time>
      </trkpt>
      <trkpt lat="34.83625745157216" lon="113.6509859676467">
        <ele>87.73171065468341</ele>
        <time>2026-09-13T23:06:46Z</time>
      </trkpt>
      <trkpt lat="34.836313813848335" lon="113.65094725350001">
        <ele>88.37007708381861</ele>
        <time>2026-09-13T23:06:49Z</time>
      </trkpt>
      <trkpt lat="34.83643728280351" lon="113.6509234929976">
        <ele>88.01352494768798</ele>
        <time>2026-09-13T23:06:55Z</time>
      </trkpt>
      <trkpt lat="34.83672641636433" lon="113.65077651334119">
        <ele>86.37703892309219</ele>
        <time>2026-09-13T23:07:10Z</time>
      </trkpt>
      <trkpt lat="34.83701466533231" lon="113.65063891985129">
        <ele>87.40164955798537</ele>
        <time>2026-09-13T23:07:25Z</time>
      </trkpt>
      <trkpt lat="34.83726520490576" lon="113.65057360832346">
        <ele>87.36929129157215</ele>
        <time>2026-09-13T23:07:37Z</time>
      </trkpt>
      <trkpt lat="34.837559411726275" lon="113.65060373186421">
        <ele>89.06502315681428</ele>
        <time>2026-09-13T23:07:52Z</time>
      </trkpt>
      <trkpt lat="34.83762190901171" lon="113.65060066201713">
        <ele>88.99938333127648</ele>
        <time>2026-09-13T23:07:55Z</time>
      </trkpt>
      <trkpt lat="34.837752365345736" lon="113.65053064214246">
        <ele>89.3982404153794</ele>
        <time>2026-09-13T23:08:03Z</time>
      </trkpt>
      <trkpt lat="34.83784056465492" lon="113.65050543542124">
        <ele>88.97505792230368</ele>
        <time>2026-09-13T23:08:07Z</time>
      </trkpt>
      <trkpt lat="34.83809468235339" lon="113.6503014581485">
        <ele>88.57623043749481</ele>
        <time>2026-09-13T23:08:21Z</time>
      </trkpt>
      <trkpt lat="34.8382083575091" lon="113.65020864285162">
        <ele>89.26326566841453</ele>
        <time>2026-09-13T23:08:27Z</time>
      </trkpt>
      <trkpt lat="34.83840820168674" lon="113.65011870843959">
        <ele>89.70683772023767</ele>
        <time>2026-09-13T23:08:36Z</time>
      </trkpt>
      <trkpt lat="34.8384666762646" lon="113.65007597834087">
        <ele>89.97869326360524</ele>
        <time>2026-09-13T23:08:39Z</time>
      </trkpt>
      <trkpt lat="34.838594412028066" lon="113.65006045858573">
        <ele>90.17850084230304</ele>
        <time>2026-09-13T23:08:45Z</time>
      </trkpt>
      <trkpt lat="34.83865189102998" lon="113.65003213846862">
        <ele>90.78120305296034</ele>
        <time>2026-09-13T23:08:48Z</time>
      </trkpt>
      <trkpt lat="34.83872049763021" lon="113.64995563933084">
        <ele>91.25382163189352</ele>
        <time>2026-09-13T23:08:51Z</time>
      </trkpt>
      <trkpt lat="34.8389509137079" lon="113.64983061403535">
        <ele>91.7251306772232</ele>
        <time>2026-09-13T23:09:03Z</time>
      </trkpt>
      <trkpt lat="34.839065394742235" lon="113.64981292770835">
        <ele>90.82373631745577</ele>
        <time>2026-09-13T23:09:09Z</time>
      </trkpt>
      <trkpt lat="34.83911515615082" lon="113.64965377749803">
        <ele>91.00700217857957</ele>
        <time>2026-09-13T23:09:18Z</time>
      </trkpt>
      <trkpt lat="34.83926252104926" lon="113.6495516453223">
        <ele>92.08187384344637</ele>
        <time>2026-09-13T23:09:27Z</time>
      </trkpt>
      <trkpt lat="34.83941759919828" lon="113.64953528561851">
        <ele>91.0450526624918</ele>
        <time>2026-09-13T23:09:33Z</time>
      </trkpt>
      <trkpt lat="34.839509238778994" lon="113.64945501648444">
        <ele>90.67573658190668</ele>
        <time>2026-09-13T23:09:39Z</time>
      </trkpt>
      <trkpt lat="34.83957487343001" lon="113.64944064692476">
        <ele>89.93496813625097</ele>
        <time>2026-09-13T23:09:42Z</time>
      </trkpt>
      <trkpt lat="34.8396505069637" lon="113.64944871427">
        <ele>89.10368091892451</ele>
        <time>2026-09-13T23:09:45Z</time>
      </trkpt>
      <trkpt lat="34.839626537987634" lon="113.64960458556762">
        <ele>88.53094874694943</ele>
        <time>2026-09-13T23:09:51Z</time>
      </trkpt>
      <trkpt lat="34.8396304403488" lon="113.64967831417954">
        <ele>87.66109257284552</ele>
        <time>2026-09-13T23:09:54Z</time>
      </trkpt>
      <trkpt lat="34.839674797873506" lon="113.64973497041049">
        <ele>89.15601646713912</ele>
        <time>2026-09-13T23:09:57Z</time>
      </trkpt>
      <trkpt lat="34.83973121518388" lon="113.64975430164996">
        <ele>88.47128292731941</ele>
        <time>2026-09-13T23:10:00Z</time>
      </trkpt>
      <trkpt lat="34.839836199546646" lon="113.64984999243268">
        <ele>87.86256720777601</ele>
        <time>2026-09-13T23:10:07Z</time>
      </trkpt>
      <trkpt lat="34.83988523947148" lon="113.6498754939035">
        <ele>87.46124147437513</ele>
        <time>2026-09-13T23:10:10Z</time>
      </trkpt>
      <trkpt lat="34.84001110317777" lon="113.65006412920654">
        <ele>87.68065697140992</ele>
        <time>2026-09-13T23:10:20Z</time>
      </trkpt>
      <trkpt lat="34.84004821517885" lon="113.6501685788111">
        <ele>87.68185843806714</ele>
        <time>2026-09-13T23:10:26Z</time>
      </trkpt>
      <trkpt lat="34.84003527499" lon="113.65031831128583">
        <ele>87.25185072142631</ele>
        <time>2026-09-13T23:10:32Z</time>
      </trkpt>
      <trkpt lat="34.83994006750606" lon="113.65047432385742">
        <ele>87.38316822983325</ele>
        <time>2026-09-13T23:10:41Z</time>
      </trkpt>
      <trkpt lat="34.83980442933007" lon="113.65058096806835">
        <ele>87.8308005221188</ele>
        <time>2026-09-13T23:10:50Z</time>
      </trkpt>
      <trkpt lat="34.83983618845898" lon="113.65065987066168">
        <ele>87.7469292441383</ele>
        <time>2026-09-13T23:10:56Z</time>
      </trkpt>
      <trkpt lat="34.84000800287775" lon="113.65067581543332">
        <ele>87.39866446796805</ele>
        <time>2026-09-13T23:11:05Z</time>
      </trkpt>
      <trkpt lat="34.840111462735045" lon="113.65041422223118">
        <ele>86.60130747966468</ele>
        <time>2026-09-13T23:11:18Z</time>
      </trkpt>
      <trkpt lat="34.84019532657711" lon="113.65023905126152">
        <ele>86.405727901496</ele>
        <time>2026-09-13T23:11:30Z</time>
      </trkpt>
      <trkpt lat="34.8404287094816" lon="113.6501342213332">
        <ele>85.88621954536698</ele>
        <time>2026-09-13T23:11:42Z</time>
      </trkpt>
      <trkpt lat="34.84039822296789" lon="113.65004552842082">
        <ele>86.35888242255896</ele>
        <time>2026-09-13T23:11:46Z</time>
      </trkpt>
      <trkpt lat="34.84058233476672" lon="113.65011753448609">
        <ele>86.32625629007816</ele>
        <time>2026-09-13T23:11:49Z</time>
      </trkpt>
      <trkpt lat="34.840712184547925" lon="113.65006107288562">
        <ele>87.01517077535391</ele>
        <time>2026-09-13T23:11:55Z</time>
      </trkpt>
      <trkpt lat="34.84075568968889" lon="113.64997309710932">
        <ele>87.36657135095447</ele>
        <time>2026-09-13T23:12:01Z</time>
      </trkpt>
      <trkpt lat="34.840818758982515" lon="113.64996719408862">
        <ele>87.01419210154563</ele>
        <time>2026-09-13T23:12:04Z</time>
      </trkpt>
      <trkpt lat="34.841154204680514" lon="113.64984841973617">
        <ele>86.91954897437245</ele>
        <time>2026-09-13T23:12:22Z</time>
      </trkpt>
      <trkpt lat="34.841265403452994" lon="113.64979626481791">
        <ele>86.54967394750565</ele>
        <time>2026-09-13T23:12:28Z</time>
      </trkpt>
      <trkpt lat="34.841333143201915" lon="113.64978870175148">
        <ele>86.4942357270047</ele>
        <time>2026-09-13T23:12:31Z</time>
      </trkpt>
      <trkpt lat="34.84145620645668" lon="113.64973262436148">
        <ele>87.44100655894727</ele>
        <time>2026-09-13T23:12:37Z</time>
      </trkpt>
      <trkpt lat="34.8415702796951" lon="113.64971289876542">
        <ele>87.68788606394082</ele>
        <time>2026-09-13T23:12:43Z</time>
      </trkpt>
      <trkpt lat="34.84184982040551" lon="113.6495245403381">
        <ele>84.9461349984631</ele>
        <time>2026-09-13T23:13:01Z</time>
      </trkpt>
      <trkpt lat="34.84197169031892" lon="113.64951356033868">
        <ele>85.68356911931187</ele>
        <time>2026-09-13T23:13:07Z</time>
      </trkpt>
      <trkpt lat="34.84214854536235" lon="113.64943483015945">
        <ele>85.10439239628613</ele>
        <time>2026-09-13T23:13:16Z</time>
      </trkpt>
      <trkpt lat="34.84220630858226" lon="113.64944158098469">
        <ele>85.14651532936841</ele>
        <time>2026-09-13T23:13:19Z</time>
      </trkpt>
      <trkpt lat="34.842282409042525" lon="113.6494205210827">
        <ele>84.07004409190267</ele>
        <time>2026-09-13T23:13:22Z</time>
      </trkpt>
      <trkpt lat="34.842326952246346" lon="113.64936578947592">
        <ele>85.5420918352902</ele>
        <time>2026-09-13T23:13:25Z</time>
      </trkpt>
      <trkpt lat="34.84252187649589" lon="113.6492978234841">
        <ele>85.63806353043765</ele>
        <time>2026-09-13T23:13:35Z</time>
      </trkpt>
      <trkpt lat="34.84269462945125" lon="113.64918046930497">
        <ele>83.934141038917</ele>
        <time>2026-09-13T23:13:44Z</time>
      </trkpt>
      <trkpt lat="34.842979857560366" lon="113.64906840168497">
        <ele>84.06428077537566</ele>
        <time>2026-09-13T23:13:59Z</time>
      </trkpt>
      <trkpt lat="34.84310902620795" lon="113.64902455742121">
        <ele>84.78091975487769</ele>
        <time>2026-09-13T23:14:08Z</time>
      </trkpt>
      <trkpt lat="34.84317771081021" lon="113.64904043765601">
        <ele>85.66066234745085</ele>
        <time>2026-09-13T23:14:11Z</time>
      </trkpt>
      <trkpt lat="34.84312978118859" lon="113.64891036737438">
        <ele>90.01386614330113</ele>
        <time>2026-09-13T23:14:19Z</time>
      </trkpt>
      <trkpt lat="34.84314371202551" lon="113.6488381998305">
        <ele>89.71760184969753</ele>
        <time>2026-09-13T23:14:22Z</time>
      </trkpt>
      <trkpt lat="34.843183294957136" lon="113.6487714882764">
        <ele>89.50137976091355</ele>
        <time>2026-09-13T23:14:26Z</time>
      </trkpt>
      <trkpt lat="34.843242390612964" lon="113.64874192929226">
        <ele>90.86296417471021</ele>
        <time>2026-09-13T23:14:29Z</time>
      </trkpt>
      <trkpt lat="34.84330223436677" lon="113.64877050316575">
        <ele>89.41613266430795</ele>
        <time>2026-09-13T23:14:32Z</time>
      </trkpt>
      <trkpt lat="34.84336013361253" lon="113.64890916850618">
        <ele>89.7534702802077</ele>
        <time>2026-09-13T23:14:41Z</time>
      </trkpt>
      <trkpt lat="34.843367009864544" lon="113.64917001345086">
        <ele>90.48036126699299</ele>
        <time>2026-09-13T23:14:53Z</time>
      </trkpt>
      <trkpt lat="34.843380684407585" lon="113.64923756573849">
        <ele>91.17813543230295</ele>
        <time>2026-09-13T23:14:56Z</time>
      </trkpt>
      <trkpt lat="34.84338040073719" lon="113.64944217731853">
        <ele>89.56815869361162</ele>
        <time>2026-09-13T23:15:05Z</time>
      </trkpt>
      <trkpt lat="34.84336420094893" lon="113.6496431733737">
        <ele>90.74051862582564</ele>
        <time>2026-09-13T23:15:14Z</time>
      </trkpt>
      <trkpt lat="34.8433134436857" lon="113.64970029679621">
        <ele>89.34401210956275</ele>
        <time>2026-09-13T23:15:20Z</time>
      </trkpt>
      <trkpt lat="34.8431594775302" lon="113.64976658816902">
        <ele>89.07266246527433</ele>
        <time>2026-09-13T23:15:29Z</time>
      </trkpt>
      <trkpt lat="34.8428827570392" lon="113.6499094169168">
        <ele>89.35650862660259</ele>
        <time>2026-09-13T23:15:44Z</time>
      </trkpt>
      <trkpt lat="34.842530891853144" lon="113.65004650328163">
        <ele>88.26585195492953</ele>
        <time>2026-09-13T23:16:05Z</time>
      </trkpt>
      <trkpt lat="34.842238606807605" lon="113.65016832893357">
        <ele>88.5082495668903</ele>
        <time>2026-09-13T23:16:21Z</time>
      </trkpt>
      <trkpt lat="34.842055616577575" lon="113.65024832961184">
        <ele>88.43512603640556</ele>
        <time>2026-09-13T23:16:31Z</time>
      </trkpt>
      <trkpt lat="34.84188439234574" lon="113.65031505226133">
        <ele>88.4874758226797</ele>
        <time>2026-09-13T23:16:40Z</time>
      </trkpt>
      <trkpt lat="34.84157730382401" lon="113.65037164129755">
        <ele>88.27192268054932</ele>
        <time>2026-09-13T23:16:55Z</time>
      </trkpt>
      <trkpt lat="34.84124711843158" lon="113.65046966676546">
        <ele>87.76868246681988</ele>
        <time>2026-09-13T23:17:13Z</time>
      </trkpt>
      <trkpt lat="34.84096592797879" lon="113.65057724489563">
        <ele>87.46399905718863</ele>
        <time>2026-09-13T23:17:28Z</time>
      </trkpt>
      <trkpt lat="34.84084517974366" lon="113.65059071846504">
        <ele>87.30462282616645</ele>
        <time>2026-09-13T23:17:34Z</time>
      </trkpt>
      <trkpt lat="34.84067555941309" lon="113.65055747247756">
        <ele>86.76507054828107</ele>
        <time>2026-09-13T23:17:43Z</time>
      </trkpt>
      <trkpt lat="34.84061562856995" lon="113.65056682242579">
        <ele>85.44715157989413</ele>
        <time>2026-09-13T23:17:46Z</time>
      </trkpt>
      <trkpt lat="34.84058395702334" lon="113.65050698219672">
        <ele>85.83851050864905</ele>
        <time>2026-09-13T23:17:55Z</time>
      </trkpt>
      <trkpt lat="34.840394830945" lon="113.65083673368764">
        <ele>89.8207159107551</ele>
        <time>2026-09-13T23:18:01Z</time>
      </trkpt>
      <trkpt lat="34.840533946783296" lon="113.65066781298322">
        <ele>85.73247495759279</ele>
        <time>2026-09-13T23:18:07Z</time>
      </trkpt>
      <trkpt lat="34.8402088743628" lon="113.65078384986259">
        <ele>85.76206777337939</ele>
        <time>2026-09-13T23:18:10Z</time>
      </trkpt>
      <trkpt lat="34.840007431924185" lon="113.65094079634889">
        <ele>85.85402061510831</ele>
        <time>2026-09-13T23:18:22Z</time>
      </trkpt>
      <trkpt lat="34.83976386849607" lon="113.6511111365087">
        <ele>86.94719301816076</ele>
        <time>2026-09-13T23:18:35Z</time>
      </trkpt>
      <trkpt lat="34.83963213713795" lon="113.65121760431288">
        <ele>87.55688312277198</ele>
        <time>2026-09-13T23:18:42Z</time>
      </trkpt>
      <trkpt lat="34.83935727449573" lon="113.65132054365601">
        <ele>87.32586993742734</ele>
        <time>2026-09-13T23:18:54Z</time>
      </trkpt>
      <trkpt lat="34.839062225512876" lon="113.65141350546665">
        <ele>87.7495327340439</ele>
        <time>2026-09-13T23:19:09Z</time>
      </trkpt>
      <trkpt lat="34.83877872162348" lon="113.65154760743224">
        <ele>88.92235573846847</ele>
        <time>2026-09-13T23:19:24Z</time>
      </trkpt>
      <trkpt lat="34.83860155226686" lon="113.65164801210456">
        <ele>88.93786141928285</ele>
        <time>2026-09-13T23:19:36Z</time>
      </trkpt>
      <trkpt lat="34.83860155226686" lon="113.65164801210456">
        <ele>88.93786141928285</ele>
        <time>2026-09-13T23:19:37Z</time>
      </trkpt>
    </trkseg>
  </trk>
</gpx>