<?xml version="1.0" encoding="UTF-8"?>
<gpx xmlns="http://www.topografix.com/GPX/1/1" xmlns:gpxtpx="http://www.garmin.com/xmlschemas/TrackPointExtension/v1" xmlns:xsi="http://www.w3.org/2001/XMLSchema-instance" xsi:schemaLocation="http://www.topografix.com/GPX/1/1 http://www.topografix.com/GPX/1/1/gpx.xsd" version="1.1" creator="gpx.py -- https://github.com/tkrajina/gpxpy">
  <trk>
    <name>gpx from keep</name>
    <type>Run</type>
    <trkseg>
      <trkpt lat="34.83031562027029" lon="113.65880004899246">
        <ele>94.5538330078125</ele>
        <time>2026-09-21T23:40:47Z</time>
      </trkpt>
      <trkpt lat="34.83029486113507" lon="113.65918633116122">
        <ele>98.51128142047673</ele>
        <time>2026-09-21T23:41:03Z</time>
      </trkpt>
      <trkpt lat="34.83031823422657" lon="113.65943232207589">
        <ele>94.41274300869554</ele>
        <time>2026-09-21T23:41:15Z</time>
      </trkpt>
      <trkpt lat="34.83030933865232" lon="113.6595550211662">
        <ele>94.57626726478338</ele>
        <time>2026-09-21T23:41:21Z</time>
      </trkpt>
      <trkpt lat="34.830261528974695" lon="113.65968295801457">
        <ele>93.98920804355294</ele>
        <time>2026-09-21T23:41:24Z</time>
      </trkpt>
      <trkpt lat="34.83027243287213" lon="113.65976319865214">
        <ele>94.16911149863154</ele>
        <time>2026-09-21T23:41:27Z</time>
      </trkpt>
      <trkpt lat="34.830274061074064" lon="113.65997907249417">
        <ele>93.51677837595344</ele>
        <time>2026-09-21T23:41:36Z</time>
      </trkpt>
      <trkpt lat="34.8303478309378" lon="113.66001612270935">
        <ele>93.27002550382167</ele>
        <time>2026-09-21T23:41:42Z</time>
      </trkpt>
      <trkpt lat="34.83043127062687" lon="113.66002613806482">
        <ele>93.2169275470078</ele>
        <time>2026-09-21T23:41:45Z</time>
      </trkpt>
      <trkpt lat="34.83046162536614" lon="113.65997933697035">
        <ele>93.24127732031047</ele>
        <time>2026-09-21T23:41:48Z</time>
      </trkpt>
      <trkpt lat="34.83074791178233" lon="113.66003327002839">
        <ele>92.86869063042104</ele>
        <time>2026-09-21T23:42:06Z</time>
      </trkpt>
      <trkpt lat="34.83081208904277" lon="113.6600429419736">
        <ele>93.090322798118</ele>
        <time>2026-09-21T23:42:09Z</time>
      </trkpt>
      <trkpt lat="34.830895829040784" lon="113.65998365328532">
        <ele>93.25161407049745</ele>
        <time>2026-09-21T23:42:12Z</time>
      </trkpt>
      <trkpt lat="34.83104863686829" lon="113.65980824663778">
        <ele>92.21093557029963</ele>
        <time>2026-09-21T23:42:24Z</time>
      </trkpt>
      <trkpt lat="34.8310839773857" lon="113.65984798583541">
        <ele>97.46908952575177</ele>
        <time>2026-09-21T23:42:27Z</time>
      </trkpt>
      <trkpt lat="34.830853953473344" lon="113.65932385275103">
        <ele>91.4214059188962</ele>
        <time>2026-09-21T23:42:35Z</time>
      </trkpt>
      <trkpt lat="34.83105323869349" lon="113.65924172315748">
        <ele>92.4356703935191</ele>
        <time>2026-09-21T23:42:38Z</time>
      </trkpt>
      <trkpt lat="34.831153036607326" lon="113.6591412386421">
        <ele>93.62064534518868</ele>
        <time>2026-09-21T23:42:44Z</time>
      </trkpt>
      <trkpt lat="34.83137933042796" lon="113.6589659719028">
        <ele>91.68693317938596</ele>
        <time>2026-09-21T23:42:57Z</time>
      </trkpt>
      <trkpt lat="34.83146620514322" lon="113.65879860475891">
        <ele>92.21133436262608</ele>
        <time>2026-09-21T23:43:06Z</time>
      </trkpt>
      <trkpt lat="34.831544789353984" lon="113.65855252295513">
        <ele>92.23864328116179</ele>
        <time>2026-09-21T23:43:18Z</time>
      </trkpt>
      <trkpt lat="34.831605625346924" lon="113.65851613389304">
        <ele>91.53557340987027</ele>
        <time>2026-09-21T23:43:21Z</time>
      </trkpt>
      <trkpt lat="34.831683068688186" lon="113.65851939667637">
        <ele>92.12490799929947</ele>
        <time>2026-09-21T23:43:24Z</time>
      </trkpt>
      <trkpt lat="34.831750397771856" lon="113.65857412798954">
        <ele>91.617192722857</ele>
        <time>2026-09-21T23:43:27Z</time>
      </trkpt>
      <trkpt lat="34.83190284186926" lon="113.65861497343536">
        <ele>90.75275827478617</ele>
        <time>2026-09-21T23:43:36Z</time>
      </trkpt>
      <trkpt lat="34.83195259055259" lon="113.65860012554431">
        <ele>91.01554551906884</ele>
        <time>2026-09-21T23:43:42Z</time>
      </trkpt>
      <trkpt lat="34.83213839003308" lon="113.65844130514716">
        <ele>90.56061291135848</ele>
        <time>2026-09-21T23:43:54Z</time>
      </trkpt>
      <trkpt lat="34.832166645316576" lon="113.65839203248647">
        <ele>90.91906212177128</ele>
        <time>2026-09-21T23:43:57Z</time>
      </trkpt>
      <trkpt lat="34.832162308467225" lon="113.6579937161043">
        <ele>91.86287786532193</ele>
        <time>2026-09-21T23:44:15Z</time>
      </trkpt>
      <trkpt lat="34.83213515461087" lon="113.65786297538413">
        <ele>92.01970655657351</ele>
        <time>2026-09-21T23:44:18Z</time>
      </trkpt>
      <trkpt lat="34.83219971782345" lon="113.6577442094522">
        <ele>93.39542382676154</ele>
        <time>2026-09-21T23:44:24Z</time>
      </trkpt>
      <trkpt lat="34.832227165186325" lon="113.65764617156462">
        <ele>92.38253262359649</ele>
        <time>2026-09-21T23:44:27Z</time>
      </trkpt>
      <trkpt lat="34.83229926010254" lon="113.65749716155392">
        <ele>91.43163086846471</ele>
        <time>2026-09-21T23:44:33Z</time>
      </trkpt>
      <trkpt lat="34.832278837787634" lon="113.65744064264891">
        <ele>90.83259082399309</ele>
        <time>2026-09-21T23:44:36Z</time>
      </trkpt>
      <trkpt lat="34.83228746424088" lon="113.65706485904326">
        <ele>91.93305932823569</ele>
        <time>2026-09-21T23:44:54Z</time>
      </trkpt>
      <trkpt lat="34.83229730736279" lon="113.65698505601115">
        <ele>90.87526751123369</ele>
        <time>2026-09-21T23:44:58Z</time>
      </trkpt>
      <trkpt lat="34.832276908620614" lon="113.65690714076413">
        <ele>90.9183865133673</ele>
        <time>2026-09-21T23:45:02Z</time>
      </trkpt>
      <trkpt lat="34.83229512064837" lon="113.65673416663017">
        <ele>90.85494076367468</ele>
        <time>2026-09-21T23:45:10Z</time>
      </trkpt>
      <trkpt lat="34.832446191813005" lon="113.6567229655455">
        <ele>91.304313685745</ele>
        <time>2026-09-21T23:45:18Z</time>
      </trkpt>
      <trkpt lat="34.83256763203181" lon="113.65673829729869">
        <ele>91.31464946083724</ele>
        <time>2026-09-21T23:45:24Z</time>
      </trkpt>
      <trkpt lat="34.83260738447074" lon="113.65679459531779">
        <ele>91.2051242729649</ele>
        <time>2026-09-21T23:45:27Z</time>
      </trkpt>
      <trkpt lat="34.83266131578386" lon="113.65680107743825">
        <ele>90.266153476201</ele>
        <time>2026-09-21T23:45:30Z</time>
      </trkpt>
      <trkpt lat="34.83277307834345" lon="113.65675486039497">
        <ele>89.6258233776316</ele>
        <time>2026-09-21T23:45:36Z</time>
      </trkpt>
      <trkpt lat="34.832908111174014" lon="113.65679126883651">
        <ele>90.10176345799118</ele>
        <time>2026-09-21T23:45:45Z</time>
      </trkpt>
      <trkpt lat="34.83298282665912" lon="113.65678926199755">
        <ele>89.86006542481482</ele>
        <time>2026-09-21T23:45:48Z</time>
      </trkpt>
      <trkpt lat="34.83304973072097" lon="113.6567528910128">
        <ele>89.03226451110095</ele>
        <time>2026-09-21T23:45:51Z</time>
      </trkpt>
      <trkpt lat="34.833105959289156" lon="113.65675527779187">
        <ele>89.46490017138422</ele>
        <time>2026-09-21T23:45:54Z</time>
      </trkpt>
      <trkpt lat="34.83320075582885" lon="113.6567291748951">
        <ele>89.3946343883872</ele>
        <time>2026-09-21T23:46:00Z</time>
      </trkpt>
      <trkpt lat="34.833347711424764" lon="113.65657734666024">
        <ele>88.87114203721285</ele>
        <time>2026-09-21T23:46:12Z</time>
      </trkpt>
      <trkpt lat="34.83332454467536" lon="113.65648743693353">
        <ele>89.17642869707197</ele>
        <time>2026-09-21T23:46:15Z</time>
      </trkpt>
      <trkpt lat="34.833191989813585" lon="113.65630674205545">
        <ele>88.71172929741442</ele>
        <time>2026-09-21T23:46:24Z</time>
      </trkpt>
      <trkpt lat="34.833268999788466" lon="113.65628845270204">
        <ele>89.54798118863255</ele>
        <time>2026-09-21T23:46:30Z</time>
      </trkpt>
      <trkpt lat="34.83341627091391" lon="113.6563339206834">
        <ele>90.22626749053597</ele>
        <time>2026-09-21T23:46:39Z</time>
      </trkpt>
      <trkpt lat="34.83362370918207" lon="113.65635124373854">
        <ele>89.81173788104206</ele>
        <time>2026-09-21T23:46:48Z</time>
      </trkpt>
      <trkpt lat="34.833782249410575" lon="113.65628708686849">
        <ele>89.06654508411884</ele>
        <time>2026-09-21T23:46:57Z</time>
      </trkpt>
      <trkpt lat="34.833858118897524" lon="113.65627400022761">
        <ele>89.48708889912814</ele>
        <time>2026-09-21T23:47:00Z</time>
      </trkpt>
      <trkpt lat="34.833901426629545" lon="113.65618955805594">
        <ele>89.38425614032894</ele>
        <time>2026-09-21T23:47:04Z</time>
      </trkpt>
      <trkpt lat="34.83395601381858" lon="113.65617155646468">
        <ele>90.37205242086202</ele>
        <time>2026-09-21T23:47:08Z</time>
      </trkpt>
      <trkpt lat="34.83402855061479" lon="113.65608905810282">
        <ele>90.8429934522137</ele>
        <time>2026-09-21T23:47:12Z</time>
      </trkpt>
      <trkpt lat="34.83411496322125" lon="113.65604862520303">
        <ele>90.96755331754684</ele>
        <time>2026-09-21T23:47:16Z</time>
      </trkpt>
      <trkpt lat="34.83424021484804" lon="113.65584819547843">
        <ele>91.67377648130059</ele>
        <time>2026-09-21T23:47:28Z</time>
      </trkpt>
      <trkpt lat="34.834285992897385" lon="113.65579844599056">
        <ele>91.00971551798284</ele>
        <time>2026-09-21T23:47:32Z</time>
      </trkpt>
      <trkpt lat="34.83427815971154" lon="113.65571688287439">
        <ele>92.38462917599827</ele>
        <time>2026-09-21T23:47:35Z</time>
      </trkpt>
      <trkpt lat="34.834312211396885" lon="113.65560659971773">
        <ele>90.61500112712383</ele>
        <time>2026-09-21T23:47:41Z</time>
      </trkpt>
      <trkpt lat="34.83432358446273" lon="113.65534656709956">
        <ele>90.63786445837468</ele>
        <time>2026-09-21T23:47:50Z</time>
      </trkpt>
      <trkpt lat="34.83429048663392" lon="113.65527030424954">
        <ele>91.2002884466201</ele>
        <time>2026-09-21T23:47:53Z</time>
      </trkpt>
      <trkpt lat="34.8342475506636" lon="113.65524768116141">
        <ele>90.67177719157189</ele>
        <time>2026-09-21T23:47:56Z</time>
      </trkpt>
      <trkpt lat="34.83415627718842" lon="113.65506893775846">
        <ele>90.44067046418786</ele>
        <time>2026-09-21T23:48:05Z</time>
      </trkpt>
      <trkpt lat="34.83410614771002" lon="113.6550349237332">
        <ele>89.50872200075537</ele>
        <time>2026-09-21T23:48:08Z</time>
      </trkpt>
      <trkpt lat="34.83401226478936" lon="113.65504939937765">
        <ele>88.69153659138829</ele>
        <time>2026-09-21T23:48:11Z</time>
      </trkpt>
      <trkpt lat="34.83397579934494" lon="113.65501458831717">
        <ele>89.71472003869712</ele>
        <time>2026-09-21T23:48:14Z</time>
      </trkpt>
      <trkpt lat="34.83395595352844" lon="113.65493329104727">
        <ele>89.90036261174828</ele>
        <time>2026-09-21T23:48:17Z</time>
      </trkpt>
      <trkpt lat="34.83388105840548" lon="113.65486726497207">
        <ele>89.3975737709552</ele>
        <time>2026-09-21T23:48:23Z</time>
      </trkpt>
      <trkpt lat="34.833821958198314" lon="113.65483935563788">
        <ele>88.28057462628931</ele>
        <time>2026-09-21T23:48:26Z</time>
      </trkpt>
      <trkpt lat="34.83369954155337" lon="113.65485429506475">
        <ele>87.6031459691003</ele>
        <time>2026-09-21T23:48:32Z</time>
      </trkpt>
      <trkpt lat="34.83351657792842" lon="113.65484042741876">
        <ele>88.18969456851482</ele>
        <time>2026-09-21T23:48:41Z</time>
      </trkpt>
      <trkpt lat="34.83345159592313" lon="113.65486028160115">
        <ele>86.9153338605538</ele>
        <time>2026-09-21T23:48:44Z</time>
      </trkpt>
      <trkpt lat="34.83341244304996" lon="113.65490741872735">
        <ele>86.65341763943434</ele>
        <time>2026-09-21T23:48:47Z</time>
      </trkpt>
      <trkpt lat="34.83334166022295" lon="113.65491920041957">
        <ele>87.33084214199334</ele>
        <time>2026-09-21T23:48:53Z</time>
      </trkpt>
      <trkpt lat="34.83322565222186" lon="113.65510136860256">
        <ele>87.78942819684744</ele>
        <time>2026-09-21T23:49:05Z</time>
      </trkpt>
      <trkpt lat="34.83304627886773" lon="113.65520849404706">
        <ele>85.81312660500407</ele>
        <time>2026-09-21T23:49:16Z</time>
      </trkpt>
      <trkpt lat="34.83298514599005" lon="113.65519974803541">
        <ele>85.99220611713827</ele>
        <time>2026-09-21T23:49:20Z</time>
      </trkpt>
      <trkpt lat="34.832919475496745" lon="113.6552149283964">
        <ele>86.23510603420436</ele>
        <time>2026-09-21T23:49:24Z</time>
      </trkpt>
      <trkpt lat="34.832805796454586" lon="113.65521020652133">
        <ele>86.0242382409051</ele>
        <time>2026-09-21T23:49:28Z</time>
      </trkpt>
      <trkpt lat="34.8327706179458" lon="113.65514258270518">
        <ele>86.4236331358552</ele>
        <time>2026-09-21T23:49:36Z</time>
      </trkpt>
      <trkpt lat="34.83287084898115" lon="113.65500587792927">
        <ele>87.28203385416418</ele>
        <time>2026-09-21T23:49:43Z</time>
      </trkpt>
      <trkpt lat="34.832931194455256" lon="113.65497604773164">
        <ele>86.84406502358615</ele>
        <time>2026-09-21T23:49:46Z</time>
      </trkpt>
      <trkpt lat="34.83295137646388" lon="113.65491386196301">
        <ele>87.96238667983562</ele>
        <time>2026-09-21T23:49:49Z</time>
      </trkpt>
      <trkpt lat="34.832913863747315" lon="113.65484914728451">
        <ele>88.60252696275711</ele>
        <time>2026-09-21T23:49:52Z</time>
      </trkpt>
      <trkpt lat="34.832729285330615" lon="113.65477334897577">
        <ele>88.4283195855096</ele>
        <time>2026-09-21T23:50:01Z</time>
      </trkpt>
      <trkpt lat="34.83269065608043" lon="113.6548040255565">
        <ele>89.94139999896288</ele>
        <time>2026-09-21T23:50:04Z</time>
      </trkpt>
      <trkpt lat="34.832696562032034" lon="113.65466440641202">
        <ele>90.83320614416152</ele>
        <time>2026-09-21T23:50:10Z</time>
      </trkpt>
      <trkpt lat="34.832674347004115" lon="113.65452748924551">
        <ele>92.23496996890754</ele>
        <time>2026-09-21T23:50:16Z</time>
      </trkpt>
      <trkpt lat="34.83271272857819" lon="113.65448348874115">
        <ele>91.1181898554787</ele>
        <time>2026-09-21T23:50:19Z</time>
      </trkpt>
      <trkpt lat="34.83284826235213" lon="113.65444441088087">
        <ele>90.916982290335</ele>
        <time>2026-09-21T23:50:25Z</time>
      </trkpt>
      <trkpt lat="34.832888129171046" lon="113.65433052110556">
        <ele>92.47818291932344</ele>
        <time>2026-09-21T23:50:31Z</time>
      </trkpt>
      <trkpt lat="34.83285578889443" lon="113.65426454444976">
        <ele>93.81770687829703</ele>
        <time>2026-09-21T23:50:35Z</time>
      </trkpt>
      <trkpt lat="34.832854480921185" lon="113.65403081120877">
        <ele>93.58775617182255</ele>
        <time>2026-09-21T23:50:47Z</time>
      </trkpt>
      <trkpt lat="34.83290321651035" lon="113.65381612738506">
        <ele>93.61876518838108</ele>
        <time>2026-09-21T23:50:56Z</time>
      </trkpt>
      <trkpt lat="34.83289068164661" lon="113.65374607712093">
        <ele>93.99200065154582</ele>
        <time>2026-09-21T23:50:59Z</time>
      </trkpt>
      <trkpt lat="34.83283037361718" lon="113.6536994896722">
        <ele>93.01809100341052</ele>
        <time>2026-09-21T23:51:02Z</time>
      </trkpt>
      <trkpt lat="34.83281841045286" lon="113.65361738358862">
        <ele>93.31115309521556</ele>
        <time>2026-09-21T23:51:05Z</time>
      </trkpt>
      <trkpt lat="34.83278577424142" lon="113.65353408035533">
        <ele>93.59626219701022</ele>
        <time>2026-09-21T23:51:11Z</time>
      </trkpt>
      <trkpt lat="34.83284342997133" lon="113.65343856162491">
        <ele>93.44536562170833</ele>
        <time>2026-09-21T23:51:18Z</time>
      </trkpt>
      <trkpt lat="34.83306239956091" lon="113.65323502406427">
        <ele>92.36092600878328</ele>
        <time>2026-09-21T23:51:34Z</time>
      </trkpt>
      <trkpt lat="34.83310829664986" lon="113.65316992365594">
        <ele>91.61210859380662</ele>
        <time>2026-09-21T23:51:38Z</time>
      </trkpt>
      <trkpt lat="34.83310906109698" lon="113.65295602255789">
        <ele>91.99978566728532</ele>
        <time>2026-09-21T23:51:46Z</time>
      </trkpt>
      <trkpt lat="34.83316883589579" lon="113.65286803518265">
        <ele>92.60352688562125</ele>
        <time>2026-09-21T23:51:52Z</time>
      </trkpt>
      <trkpt lat="34.83334237401486" lon="113.65283159321851">
        <ele>92.7127736704424</ele>
        <time>2026-09-21T23:52:01Z</time>
      </trkpt>
      <trkpt lat="34.833591359290565" lon="113.65266674238408">
        <ele>91.38357253372669</ele>
        <time>2026-09-21T23:52:16Z</time>
      </trkpt>
      <trkpt lat="34.83386406510378" lon="113.65260636545248">
        <ele>90.68691595364362</ele>
        <time>2026-09-21T23:52:37Z</time>
      </trkpt>
      <trkpt lat="34.834049634249205" lon="113.6525420087793">
        <ele>90.82121310103685</ele>
        <time>2026-09-21T23:52:43Z</time>
      </trkpt>
      <trkpt lat="34.83415002274616" lon="113.65248345900345">
        <ele>90.66326544154435</ele>
        <time>2026-09-21T23:52:49Z</time>
      </trkpt>
      <trkpt lat="34.834405530176696" lon="113.65242897815178">
        <ele>90.55900269187987</ele>
        <time>2026-09-21T23:53:01Z</time>
      </trkpt>
      <trkpt lat="34.83444769672246" lon="113.6524021722395">
        <ele>90.02180508337915</ele>
        <time>2026-09-21T23:53:04Z</time>
      </trkpt>
      <trkpt lat="34.83481384032665" lon="113.65236064289225">
        <ele>91.71750047709793</ele>
        <time>2026-09-21T23:53:23Z</time>
      </trkpt>
      <trkpt lat="34.83486309755181" lon="113.65223959120785">
        <ele>91.57939094584435</ele>
        <time>2026-09-21T23:53:27Z</time>
      </trkpt>
      <trkpt lat="34.83521548772107" lon="113.65210387733956">
        <ele>90.81966386083513</ele>
        <time>2026-09-21T23:53:47Z</time>
      </trkpt>
      <trkpt lat="34.835488725368506" lon="113.65194326358326">
        <ele>91.75183398742229</ele>
        <time>2026-09-21T23:54:02Z</time>
      </trkpt>
      <trkpt lat="34.83574565205742" lon="113.65189397950519">
        <ele>91.19486396480352</ele>
        <time>2026-09-21T23:54:17Z</time>
      </trkpt>
      <trkpt lat="34.83574142617218" lon="113.6518084543672">
        <ele>91.71241059619933</ele>
        <time>2026-09-21T23:54:20Z</time>
      </trkpt>
      <trkpt lat="34.83569398447077" lon="113.65179038633218">
        <ele>90.89920489769429</ele>
        <time>2026-09-21T23:54:23Z</time>
      </trkpt>
      <trkpt lat="34.83561873244279" lon="113.65166806706995">
        <ele>92.18846641480923</ele>
        <time>2026-09-21T23:54:29Z</time>
      </trkpt>
      <trkpt lat="34.83556542500049" lon="113.65162383868389">
        <ele>92.27789833582938</ele>
        <time>2026-09-21T23:54:32Z</time>
      </trkpt>
      <trkpt lat="34.83556774034344" lon="113.6515600358519">
        <ele>92.25381501950324</ele>
        <time>2026-09-21T23:54:35Z</time>
      </trkpt>
      <trkpt lat="34.83560160158442" lon="113.65149057183172">
        <ele>90.6627883091569</ele>
        <time>2026-09-21T23:54:38Z</time>
      </trkpt>
      <trkpt lat="34.83560000334837" lon="113.65129965663957">
        <ele>88.19332188274711</ele>
        <time>2026-09-21T23:54:47Z</time>
      </trkpt>
      <trkpt lat="34.83572149916829" lon="113.6511822531705">
        <ele>87.78311540838331</ele>
        <time>2026-09-21T23:54:59Z</time>
      </trkpt>
      <trkpt lat="34.8357911041575" lon="113.65114359117489">
        <ele>88.23560610972345</ele>
        <time>2026-09-21T23:55:02Z</time>
      </trkpt>
      <trkpt lat="34.835909726593044" lon="113.6511218889334">
        <ele>86.24390031490475</ele>
        <time>2026-09-21T23:55:08Z</time>
      </trkpt>
      <trkpt lat="34.83597580070575" lon="113.65109115929968">
        <ele>86.7257985342294</ele>
        <time>2026-09-21T23:55:11Z</time>
      </trkpt>
      <trkpt lat="34.83605399766923" lon="113.65108432550261">
        <ele>86.9071704884991</ele>
        <time>2026-09-21T23:55:14Z</time>
      </trkpt>
      <trkpt lat="34.83623085367436" lon="113.65103129249242">
        <ele>86.86050590407103</ele>
        <time>2026-09-21T23:55:23Z</time>
      </trkpt>
      <trkpt lat="34.83632650198746" lon="113.65096429634582">
        <ele>86.65123500395566</ele>
        <time>2026-09-21T23:55:30Z</time>
      </trkpt>
      <trkpt lat="34.836507477284215" lon="113.65091118820679">
        <ele>88.57840890623629</ele>
        <time>2026-09-21T23:55:38Z</time>
      </trkpt>
      <trkpt lat="34.83669698124355" lon="113.65080754624222">
        <ele>89.25309590343386</ele>
        <time>2026-09-21T23:55:48Z</time>
      </trkpt>
      <trkpt lat="34.83675126326804" lon="113.65079413561492">
        <ele>89.4054265897721</ele>
        <time>2026-09-21T23:55:51Z</time>
      </trkpt>
      <trkpt lat="34.836949554082466" lon="113.65064749236616">
        <ele>89.54141079541296</ele>
        <time>2026-09-21T23:56:03Z</time>
      </trkpt>
      <trkpt lat="34.8372371965096" lon="113.65055989142266">
        <ele>90.35226661153138</ele>
        <time>2026-09-21T23:56:18Z</time>
      </trkpt>
      <trkpt lat="34.83755139210192" lon="113.65057184281021">
        <ele>91.44251347146928</ele>
        <time>2026-09-21T23:56:33Z</time>
      </trkpt>
      <trkpt lat="34.837683719752306" lon="113.65058167617772">
        <ele>91.34328296966851</ele>
        <time>2026-09-21T23:56:39Z</time>
      </trkpt>
      <trkpt lat="34.837797502002864" lon="113.65052208340381">
        <ele>90.61221806891263</ele>
        <time>2026-09-21T23:56:45Z</time>
      </trkpt>
      <trkpt lat="34.83785030325816" lon="113.65051370366571">
        <ele>90.55107673816383</ele>
        <time>2026-09-21T23:56:48Z</time>
      </trkpt>
      <trkpt lat="34.83791641028416" lon="113.65045060236505">
        <ele>90.26340090669692</ele>
        <time>2026-09-21T23:56:51Z</time>
      </trkpt>
      <trkpt lat="34.838016267130214" lon="113.65039398223051">
        <ele>89.69622080214322</ele>
        <time>2026-09-21T23:56:57Z</time>
      </trkpt>
      <trkpt lat="34.838085963590096" lon="113.65029803118146">
        <ele>90.920964140445</ele>
        <time>2026-09-21T23:57:03Z</time>
      </trkpt>
      <trkpt lat="34.838191550664185" lon="113.65020507778388">
        <ele>90.51629363559186</ele>
        <time>2026-09-21T23:57:09Z</time>
      </trkpt>
      <trkpt lat="34.838481564413776" lon="113.6500573020367">
        <ele>89.65082171931863</ele>
        <time>2026-09-21T23:57:24Z</time>
      </trkpt>
      <trkpt lat="34.8387458596532" lon="113.65001264105872">
        <ele>90.1671373071149</ele>
        <time>2026-09-21T23:57:38Z</time>
      </trkpt>
      <trkpt lat="34.839015033619916" lon="113.64985221483714">
        <ele>88.81149435415864</ele>
        <time>2026-09-21T23:57:52Z</time>
      </trkpt>
      <trkpt lat="34.83908132775815" lon="113.64982214331883">
        <ele>89.346918720752</ele>
        <time>2026-09-21T23:57:55Z</time>
      </trkpt>
      <trkpt lat="34.83923612276037" lon="113.64960177682583">
        <ele>88.09499681647867</ele>
        <time>2026-09-21T23:58:07Z</time>
      </trkpt>
      <trkpt lat="34.83945223392406" lon="113.64947586592015">
        <ele>89.32595781236887</ele>
        <time>2026-09-21T23:58:19Z</time>
      </trkpt>
      <trkpt lat="34.83957426090616" lon="113.64942541612803">
        <ele>88.53364851791412</ele>
        <time>2026-09-21T23:58:25Z</time>
      </trkpt>
      <trkpt lat="34.839633827433495" lon="113.64944842835806">
        <ele>88.96854755748063</ele>
        <time>2026-09-21T23:58:31Z</time>
      </trkpt>
      <trkpt lat="34.83967624840867" lon="113.64967011910836">
        <ele>89.44767741579562</ele>
        <time>2026-09-21T23:58:43Z</time>
      </trkpt>
      <trkpt lat="34.83974185302102" lon="113.64975223837581">
        <ele>89.80567086767405</ele>
        <time>2026-09-21T23:58:46Z</time>
      </trkpt>
      <trkpt lat="34.83979929920223" lon="113.64977948265195">
        <ele>89.44878338929266</ele>
        <time>2026-09-21T23:58:49Z</time>
      </trkpt>
      <trkpt lat="34.83984099403946" lon="113.64987650052394">
        <ele>89.49703506194055</ele>
        <time>2026-09-21T23:58:55Z</time>
      </trkpt>
      <trkpt lat="34.840058985764436" lon="113.6501112603709">
        <ele>91.59196864441037</ele>
        <time>2026-09-21T23:59:10Z</time>
      </trkpt>
      <trkpt lat="34.84007821455209" lon="113.65020916165601">
        <ele>91.10823222715408</ele>
        <time>2026-09-21T23:59:13Z</time>
      </trkpt>
      <trkpt lat="34.84005170691325" lon="113.65035655762581">
        <ele>93.1580556370318</ele>
        <time>2026-09-21T23:59:19Z</time>
      </trkpt>
      <trkpt lat="34.839910403091835" lon="113.65060034032288">
        <ele>93.50702046230435</ele>
        <time>2026-09-21T23:59:31Z</time>
      </trkpt>
      <trkpt lat="34.83984078674229" lon="113.65053142346669">
        <ele>92.67686529643834</ele>
        <time>2026-09-21T23:59:34Z</time>
      </trkpt>
      <trkpt lat="34.83977983386655" lon="113.65057090130865">
        <ele>93.49271778855473</ele>
        <time>2026-09-21T23:59:37Z</time>
      </trkpt>
      <trkpt lat="34.83966450185378" lon="113.65057943089448">
        <ele>93.26423394680023</ele>
        <time>2026-09-21T23:59:41Z</time>
      </trkpt>
      <trkpt lat="34.83961395179384" lon="113.65061262064978">
        <ele>92.15081964805722</ele>
        <time>2026-09-21T23:59:45Z</time>
      </trkpt>
      <trkpt lat="34.839533188778724" lon="113.65061573132958">
        <ele>92.41662683803588</ele>
        <time>2026-09-21T23:59:49Z</time>
      </trkpt>
      <trkpt lat="34.83942232217854" lon="113.65052582320094">
        <ele>91.97180646657944</ele>
        <time>2026-09-21T23:59:56Z</time>
      </trkpt>
      <trkpt lat="34.83933567139677" lon="113.65041757563085">
        <ele>92.26139310188591</ele>
        <time>2026-09-22T00:00:02Z</time>
      </trkpt>
      <trkpt lat="34.83926526105332" lon="113.65038854697377">
        <ele>91.1575015000999</ele>
        <time>2026-09-22T00:00:05Z</time>
      </trkpt>
      <trkpt lat="34.8391210307025" lon="113.65042365758175">
        <ele>89.83682483900338</ele>
        <time>2026-09-22T00:00:14Z</time>
      </trkpt>
      <trkpt lat="34.83906581773907" lon="113.65046452162952">
        <ele>90.13816933333874</ele>
        <time>2026-09-22T00:00:17Z</time>
      </trkpt>
      <trkpt lat="34.83880388033949" lon="113.65057244689675">
        <ele>90.77465199492872</ele>
        <time>2026-09-22T00:00:32Z</time>
      </trkpt>
      <trkpt lat="34.838625562988376" lon="113.65064273007955">
        <ele>92.3520183460787</ele>
        <time>2026-09-22T00:00:41Z</time>
      </trkpt>
      <trkpt lat="34.838451991637484" lon="113.65074332392629">
        <ele>91.69595485087484</ele>
        <time>2026-09-22T00:00:50Z</time>
      </trkpt>
      <trkpt lat="34.83814123043811" lon="113.65082754969362">
        <ele>90.27501520700753</ele>
        <time>2026-09-22T00:01:05Z</time>
      </trkpt>
      <trkpt lat="34.83795727023733" lon="113.6509052874983">
        <ele>89.45259416196495</ele>
        <time>2026-09-22T00:01:14Z</time>
      </trkpt>
      <trkpt lat="34.837869961435935" lon="113.65090286799914">
        <ele>88.21561666671187</ele>
        <time>2026-09-22T00:01:17Z</time>
      </trkpt>
      <trkpt lat="34.837695233572184" lon="113.65095770989221">
        <ele>87.75915555469692</ele>
        <time>2026-09-22T00:01:26Z</time>
      </trkpt>
      <trkpt lat="34.837650126559325" lon="113.6509243318589">
        <ele>87.84471007529646</ele>
        <time>2026-09-22T00:01:32Z</time>
      </trkpt>
      <trkpt lat="34.8375962412586" lon="113.65093592595154">
        <ele>88.10389935225248</ele>
        <time>2026-09-22T00:01:35Z</time>
      </trkpt>
      <trkpt lat="34.83753753959283" lon="113.65098733923301">
        <ele>88.61125371884555</ele>
        <time>2026-09-22T00:01:38Z</time>
      </trkpt>
      <trkpt lat="34.83751597405313" lon="113.65106636479734">
        <ele>90.75493680592626</ele>
        <time>2026-09-22T00:01:41Z</time>
      </trkpt>
      <trkpt lat="34.83736093508452" lon="113.65105812522499">
        <ele>91.66370191425085</ele>
        <time>2026-09-22T00:01:49Z</time>
      </trkpt>
      <trkpt lat="34.83728954822488" lon="113.65109744368667">
        <ele>89.82517155725509</ele>
        <time>2026-09-22T00:01:53Z</time>
      </trkpt>
      <trkpt lat="34.83708798904248" lon="113.65110245999112">
        <ele>90.230558632873</ele>
        <time>2026-09-22T00:02:03Z</time>
      </trkpt>
      <trkpt lat="34.83686916409648" lon="113.65099908005737">
        <ele>91.6982382396236</ele>
        <time>2026-09-22T00:02:15Z</time>
      </trkpt>
      <trkpt lat="34.83674442014158" lon="113.65099870878372">
        <ele>91.37781756091863</ele>
        <time>2026-09-22T00:02:21Z</time>
      </trkpt>
      <trkpt lat="34.836627976974235" lon="113.65104324381639">
        <ele>90.3077718866989</ele>
        <time>2026-09-22T00:02:27Z</time>
      </trkpt>
      <trkpt lat="34.83656410423717" lon="113.65102697854097">
        <ele>90.59301818814129</ele>
        <time>2026-09-22T00:02:30Z</time>
      </trkpt>
      <trkpt lat="34.83649362538488" lon="113.65094550933563">
        <ele>90.99720842111856</ele>
        <time>2026-09-22T00:02:36Z</time>
      </trkpt>
      <trkpt lat="34.83643526002374" lon="113.65092656145877">
        <ele>89.74720544647425</ele>
        <time>2026-09-22T00:02:39Z</time>
      </trkpt>
      <trkpt lat="34.83638986125912" lon="113.65093620460243">
        <ele>90.1526211174205</ele>
        <time>2026-09-22T00:02:42Z</time>
      </trkpt>
      <trkpt lat="34.83622703353265" lon="113.6510286119958">
        <ele>90.07343916408718</ele>
        <time>2026-09-22T00:02:51Z</time>
      </trkpt>
      <trkpt lat="34.83616632024466" lon="113.65102661568315">
        <ele>90.12012627720833</ele>
        <time>2026-09-22T00:02:54Z</time>
      </trkpt>
      <trkpt lat="34.83601771090601" lon="113.65111990406189">
        <ele>89.88515050522983</ele>
        <time>2026-09-22T00:03:03Z</time>
      </trkpt>
      <trkpt lat="34.8359129680414" lon="113.65115931600988">
        <ele>88.37035973183811</ele>
        <time>2026-09-22T00:03:09Z</time>
      </trkpt>
      <trkpt lat="34.83584220150353" lon="113.65116290138194">
        <ele>88.75541165005416</ele>
        <time>2026-09-22T00:03:12Z</time>
      </trkpt>
      <trkpt lat="34.83567720335631" lon="113.65121763434921">
        <ele>87.27358602266759</ele>
        <time>2026-09-22T00:03:21Z</time>
      </trkpt>
      <trkpt lat="34.83559847893758" lon="113.65127483245345">
        <ele>88.49898127093911</ele>
        <time>2026-09-22T00:03:27Z</time>
      </trkpt>
      <trkpt lat="34.83547082789119" lon="113.65128407678775">
        <ele>88.12197519093752</ele>
        <time>2026-09-22T00:03:33Z</time>
      </trkpt>
      <trkpt lat="34.835419331926374" lon="113.65132026395648">
        <ele>89.82836112193763</ele>
        <time>2026-09-22T00:03:36Z</time>
      </trkpt>
      <trkpt lat="34.835328193664395" lon="113.65126653874263">
        <ele>88.65956878848374</ele>
        <time>2026-09-22T00:03:42Z</time>
      </trkpt>
      <trkpt lat="34.83528698446371" lon="113.65120692049705">
        <ele>88.0752227799967</ele>
        <time>2026-09-22T00:03:45Z</time>
      </trkpt>
      <trkpt lat="34.835222985557294" lon="113.6511992843432">
        <ele>87.44203003775328</ele>
        <time>2026-09-22T00:03:48Z</time>
      </trkpt>
      <trkpt lat="34.83509560144117" lon="113.65126509007374">
        <ele>87.6180449705571</ele>
        <time>2026-09-22T00:03:55Z</time>
      </trkpt>
      <trkpt lat="34.834911303908925" lon="113.65127739350366">
        <ele>87.73000232409686</ele>
        <time>2026-09-22T00:04:04Z</time>
      </trkpt>
      <trkpt lat="34.83474120057126" lon="113.65139543992082">
        <ele>87.8570991223678</ele>
        <time>2026-09-22T00:04:13Z</time>
      </trkpt>
      <trkpt lat="34.83460467645688" lon="113.65160004089164">
        <ele>88.27684946916997</ele>
        <time>2026-09-22T00:04:25Z</time>
      </trkpt>
      <trkpt lat="34.83444011316765" lon="113.65170278637737">
        <ele>88.03376832325011</ele>
        <time>2026-09-22T00:04:34Z</time>
      </trkpt>
      <trkpt lat="34.8341641458124" lon="113.65181113087867">
        <ele>86.3958217361942</ele>
        <time>2026-09-22T00:04:49Z</time>
      </trkpt>
      <trkpt lat="34.83397702452251" lon="113.65187838777945">
        <ele>87.65236456412822</ele>
        <time>2026-09-22T00:04:58Z</time>
      </trkpt>
      <trkpt lat="34.83392223763561" lon="113.65192597656089">
        <ele>87.7134235939011</ele>
        <time>2026-09-22T00:05:01Z</time>
      </trkpt>
      <trkpt lat="34.8337831686718" lon="113.65194245856105">
        <ele>87.08594449236989</ele>
        <time>2026-09-22T00:05:07Z</time>
      </trkpt>
      <trkpt lat="34.83366931080235" lon="113.65199215667187">
        <ele>88.44278413616121</ele>
        <time>2026-09-22T00:05:13Z</time>
      </trkpt>
      <trkpt lat="34.833607883289595" lon="113.6520457511168">
        <ele>87.84619586076587</ele>
        <time>2026-09-22T00:05:19Z</time>
      </trkpt>
      <trkpt lat="34.83363647830296" lon="113.65209430893825">
        <ele>88.17736369930208</ele>
        <time>2026-09-22T00:05:22Z</time>
      </trkpt>
      <trkpt lat="34.833587097823894" lon="113.65218991216743">
        <ele>88.15319439209998</ele>
        <time>2026-09-22T00:05:28Z</time>
      </trkpt>
      <trkpt lat="34.833430502643616" lon="113.65227842573019">
        <ele>88.50792580563575</ele>
        <time>2026-09-22T00:05:34Z</time>
      </trkpt>
      <trkpt lat="34.83316522798151" lon="113.6525260444274">
        <ele>88.94059199932963</ele>
        <time>2026-09-22T00:05:49Z</time>
      </trkpt>
      <trkpt lat="34.833025185468045" lon="113.65262588034629">
        <ele>88.85437875054777</ele>
        <time>2026-09-22T00:05:59Z</time>
      </trkpt>
      <trkpt lat="34.8329742356178" lon="113.65280455968589">
        <ele>89.31094015948474</ele>
        <time>2026-09-22T00:06:15Z</time>
      </trkpt>
      <trkpt lat="34.83278912969612" lon="113.65294131791534">
        <ele>89.71491908747703</ele>
        <time>2026-09-22T00:06:27Z</time>
      </trkpt>
      <trkpt lat="34.832730946491715" lon="113.65302935849884">
        <ele>90.32396381627768</ele>
        <time>2026-09-22T00:06:30Z</time>
      </trkpt>
      <trkpt lat="34.83242948973592" lon="113.65314921849378">
        <ele>90.46106218453497</ele>
        <time>2026-09-22T00:06:45Z</time>
      </trkpt>
      <trkpt lat="34.83235439152612" lon="113.65316766144144">
        <ele>90.61919686943293</ele>
        <time>2026-09-22T00:06:48Z</time>
      </trkpt>
      <trkpt lat="34.832258312813124" lon="113.65316592335867">
        <ele>89.24499110039324</ele>
        <time>2026-09-22T00:06:51Z</time>
      </trkpt>
      <trkpt lat="34.832130344839264" lon="113.65321906198668">
        <ele>89.19266347028315</ele>
        <time>2026-09-22T00:06:57Z</time>
      </trkpt>
      <trkpt lat="34.832065359832114" lon="113.65328819771845">
        <ele>89.77112175710499</ele>
        <time>2026-09-22T00:07:00Z</time>
      </trkpt>
      <trkpt lat="34.832078407018706" lon="113.6534710292307">
        <ele>92.34890434797853</ele>
        <time>2026-09-22T00:07:15Z</time>
      </trkpt>
      <trkpt lat="34.83202124303804" lon="113.65354056823998">
        <ele>91.81716806814075</ele>
        <time>2026-09-22T00:07:18Z</time>
      </trkpt>
      <trkpt lat="34.83194086634775" lon="113.65352806165161">
        <ele>91.56475896853954</ele>
        <time>2026-09-22T00:07:21Z</time>
      </trkpt>
      <trkpt lat="34.8317885473307" lon="113.65357398710675">
        <ele>92.51045428495854</ele>
        <time>2026-09-22T00:07:27Z</time>
      </trkpt>
      <trkpt lat="34.831720464952056" lon="113.65354695936726">
        <ele>91.90453245304525</ele>
        <time>2026-09-22T00:07:30Z</time>
      </trkpt>
      <trkpt lat="34.83152574400952" lon="113.65356794229257">
        <ele>91.71596091240644</ele>
        <time>2026-09-22T00:07:42Z</time>
      </trkpt>
      <trkpt lat="34.8314466672153" lon="113.65355045950005">
        <ele>91.27584672626108</ele>
        <time>2026-09-22T00:07:45Z</time>
      </trkpt>
      <trkpt lat="34.83134683843223" lon="113.65356204242512">
        <ele>92.5266385609284</ele>
        <time>2026-09-22T00:07:48Z</time>
      </trkpt>
      <trkpt lat="34.831236271465016" lon="113.65360103503372">
        <ele>92.05704766511917</ele>
        <time>2026-09-22T00:07:54Z</time>
      </trkpt>
      <trkpt lat="34.831016741122134" lon="113.65373594496478">
        <ele>93.18876211158931</ele>
        <time>2026-09-22T00:08:07Z</time>
      </trkpt>
      <trkpt lat="34.830936853506316" lon="113.65376159138003">
        <ele>93.30220134370029</ele>
        <time>2026-09-22T00:08:10Z</time>
      </trkpt>
      <trkpt lat="34.83087504704573" lon="113.65380995265502">
        <ele>92.89886426366866</ele>
        <time>2026-09-22T00:08:13Z</time>
      </trkpt>
      <trkpt lat="34.83071518505889" lon="113.65388652789747">
        <ele>92.65825408976525</ele>
        <time>2026-09-22T00:08:22Z</time>
      </trkpt>
      <trkpt lat="34.8305996373517" lon="113.65387097606508">
        <ele>91.93160179816186</ele>
        <time>2026-09-22T00:08:28Z</time>
      </trkpt>
      <trkpt lat="34.83055294985901" lon="113.65390286239774">
        <ele>91.55324189644307</ele>
        <time>2026-09-22T00:08:37Z</time>
      </trkpt>
      <trkpt lat="34.830490167278874" lon="113.6540055874294">
        <ele>92.5962050454691</ele>
        <time>2026-09-22T00:08:43Z</time>
      </trkpt>
      <trkpt lat="34.83042706499008" lon="113.65433841077771">
        <ele>93.08512930665165</ele>
        <time>2026-09-22T00:08:55Z</time>
      </trkpt>
      <trkpt lat="34.83037123120705" lon="113.65463659233481">
        <ele>95.2166880890727</ele>
        <time>2026-09-22T00:09:07Z</time>
      </trkpt>
      <trkpt lat="34.83039503829961" lon="113.6548489724013">
        <ele>93.0781354252249</ele>
        <time>2026-09-22T00:09:16Z</time>
      </trkpt>
      <trkpt lat="34.830392449256955" lon="113.65505944554543">
        <ele>92.32375000882894</ele>
        <time>2026-09-22T00:09:25Z</time>
      </trkpt>
      <trkpt lat="34.83035402068919" lon="113.65529869126189">
        <ele>94.7342599015683</ele>
        <time>2026-09-22T00:09:34Z</time>
      </trkpt>
      <trkpt lat="34.83032604193983" lon="113.65567966645685">
        <ele>93.80451650731266</ele>
        <time>2026-09-22T00:09:49Z</time>
      </trkpt>
      <trkpt lat="34.83028420241221" lon="113.65591329242815">
        <ele>91.8527757646516</ele>
        <time>2026-09-22T00:10:01Z</time>
      </trkpt>
      <trkpt lat="34.83028420241221" lon="113.65591329242815">
        <ele>91.8527757646516</ele>
        <time>2026-09-22T00:10:02Z</time>
      </trkpt>
      <trkpt lat="34.83026176510224" lon="113.65595745208898">
        <ele>91.6322543406859</ele>
        <time>2026-09-22T00:10:04Z</time>
      </trkpt>
      <trkpt lat="34.83027225641836" lon="113.65618801733437">
        <ele>89.94695306196809</ele>
        <time>2026-09-22T00:10:15Z</time>
      </trkpt>
      <trkpt lat="34.83024189049352" lon="113.65655851325343">
        <ele>90.57947963941842</ele>
        <time>2026-09-22T00:10:32Z</time>
      </trkpt>
      <trkpt lat="34.83023227126963" lon="113.65692453193547">
        <ele>90.27970508113503</ele>
        <time>2026-09-22T00:10:47Z</time>
      </trkpt>
      <trkpt lat="34.83021866975715" lon="113.65720497575954">
        <ele>90.10967535153031</ele>
        <time>2026-09-22T00:10:59Z</time>
      </trkpt>
      <trkpt lat="34.83019556676148" lon="113.65739775835492">
        <ele>89.97477566730231</ele>
        <time>2026-09-22T00:11:11Z</time>
      </trkpt>
      <trkpt lat="34.83019556676148" lon="113.65739775835492">
        <ele>89.97477566730231</ele>
        <time>2026-09-22T00:11:14Z</time>
      </trkpt>
    </trkseg>
  </trk>
</gpx>