<?xml version="1.0" encoding="UTF-8"?>
<gpx xmlns="http://www.topografix.com/GPX/1/1" xmlns:gpxtpx="http://www.garmin.com/xmlschemas/TrackPointExtension/v1" xmlns:xsi="http://www.w3.org/2001/XMLSchema-instance" xsi:schemaLocation="http://www.topografix.com/GPX/1/1 http://www.topografix.com/GPX/1/1/gpx.xsd" version="1.1" creator="gpx.py -- https://github.com/tkrajina/gpxpy">
  <trk>
    <name>gpx from keep</name>
    <type>Run</type>
    <trkseg>
      <trkpt lat="34.83645705616188" lon="113.65094394422978">
        <ele>87.708251953125</ele>
        <time>2026-09-12T01:51:06Z</time>
      </trkpt>
      <trkpt lat="34.83615224774427" lon="113.65108343476639">
        <ele>88.35431237146258</ele>
        <time>2026-09-12T01:51:21Z</time>
      </trkpt>
      <trkpt lat="34.83584556589528" lon="113.65121467241062">
        <ele>87.22921242192388</ele>
        <time>2026-09-12T01:51:36Z</time>
      </trkpt>
      <trkpt lat="34.83573641369534" lon="113.65126986085066">
        <ele>86.7399197742343</ele>
        <time>2026-09-12T01:51:42Z</time>
      </trkpt>
      <trkpt lat="34.83560592705074" lon="113.65126551804565">
        <ele>86.92472957260907</ele>
        <time>2026-09-12T01:51:48Z</time>
      </trkpt>
      <trkpt lat="34.83556580790035" lon="113.65129821705466">
        <ele>86.5224417457357</ele>
        <time>2026-09-12T01:51:51Z</time>
      </trkpt>
      <trkpt lat="34.835520706213075" lon="113.6512949429664">
        <ele>86.69294383376837</ele>
        <time>2026-09-12T01:51:54Z</time>
      </trkpt>
      <trkpt lat="34.83546503204861" lon="113.65132594864032">
        <ele>86.83727155346423</ele>
        <time>2026-09-12T01:51:57Z</time>
      </trkpt>
      <trkpt lat="34.83537012307484" lon="113.65130147795375">
        <ele>85.79110108874738</ele>
        <time>2026-09-12T01:52:03Z</time>
      </trkpt>
      <trkpt lat="34.83532536102281" lon="113.65123710028925">
        <ele>84.63446618895978</ele>
        <time>2026-09-12T01:52:09Z</time>
      </trkpt>
      <trkpt lat="34.835276265012745" lon="113.65121362693209">
        <ele>84.43267708364874</ele>
        <time>2026-09-12T01:52:12Z</time>
      </trkpt>
      <trkpt lat="34.835049331761645" lon="113.6513187257606">
        <ele>86.46964603662491</ele>
        <time>2026-09-12T01:52:21Z</time>
      </trkpt>
      <trkpt lat="34.83498529797968" lon="113.65132797395437">
        <ele>85.58856380544603</ele>
        <time>2026-09-12T01:52:24Z</time>
      </trkpt>
      <trkpt lat="34.83494163262238" lon="113.65136128807676">
        <ele>85.84054814372212</ele>
        <time>2026-09-12T01:52:27Z</time>
      </trkpt>
      <trkpt lat="34.834791385099955" lon="113.65142768258212">
        <ele>86.96042023319751</ele>
        <time>2026-09-12T01:52:36Z</time>
      </trkpt>
      <trkpt lat="34.8347406587351" lon="113.65153000048028">
        <ele>85.67672315053642</ele>
        <time>2026-09-12T01:52:42Z</time>
      </trkpt>
      <trkpt lat="34.83464787288206" lon="113.65162005885854">
        <ele>85.40121698752046</ele>
        <time>2026-09-12T01:52:48Z</time>
      </trkpt>
      <trkpt lat="34.83440551645104" lon="113.65174526064025">
        <ele>85.0487028779462</ele>
        <time>2026-09-12T01:53:00Z</time>
      </trkpt>
      <trkpt lat="34.83426727595264" lon="113.65179332542263">
        <ele>84.55771333258599</ele>
        <time>2026-09-12T01:53:06Z</time>
      </trkpt>
      <trkpt lat="34.83421815233491" lon="113.65183768300759">
        <ele>84.7346330685541</ele>
        <time>2026-09-12T01:53:09Z</time>
      </trkpt>
      <trkpt lat="34.83418617556564" lon="113.65189298973353">
        <ele>84.34880593325943</ele>
        <time>2026-09-12T01:53:12Z</time>
      </trkpt>
      <trkpt lat="34.83421519153344" lon="113.65197701063883">
        <ele>84.32063827384263</ele>
        <time>2026-09-12T01:53:16Z</time>
      </trkpt>
      <trkpt lat="34.83417356675387" lon="113.65203638227112">
        <ele>83.63822619523853</ele>
        <time>2026-09-12T01:53:19Z</time>
      </trkpt>
      <trkpt lat="34.8340662168772" lon="113.65210908427085">
        <ele>85.45792120695114</ele>
        <time>2026-09-12T01:53:25Z</time>
      </trkpt>
      <trkpt lat="34.83383182796887" lon="113.65232236571289">
        <ele>86.05261296965182</ele>
        <time>2026-09-12T01:53:40Z</time>
      </trkpt>
      <trkpt lat="34.83359660625713" lon="113.65238891296242">
        <ele>86.85967865213752</ele>
        <time>2026-09-12T01:53:52Z</time>
      </trkpt>
      <trkpt lat="34.83351525736173" lon="113.6524644607822">
        <ele>86.52813958469778</ele>
        <time>2026-09-12T01:53:58Z</time>
      </trkpt>
      <trkpt lat="34.83343765174631" lon="113.6527113131507">
        <ele>86.23019335884601</ele>
        <time>2026-09-12T01:54:10Z</time>
      </trkpt>
      <trkpt lat="34.833397816356815" lon="113.65277377318263">
        <ele>86.57985867187381</ele>
        <time>2026-09-12T01:54:13Z</time>
      </trkpt>
      <trkpt lat="34.83314180877554" lon="113.65293396043093">
        <ele>86.75513789150864</ele>
        <time>2026-09-12T01:54:28Z</time>
      </trkpt>
      <trkpt lat="34.83309956332628" lon="113.65310889348602">
        <ele>87.66195619944483</ele>
        <time>2026-09-12T01:54:37Z</time>
      </trkpt>
      <trkpt lat="34.83287155130306" lon="113.65336662681382">
        <ele>88.54854536894709</ele>
        <time>2026-09-12T01:54:55Z</time>
      </trkpt>
      <trkpt lat="34.832697100176624" lon="113.65355812228829">
        <ele>90.77656191308051</ele>
        <time>2026-09-12T01:55:10Z</time>
      </trkpt>
      <trkpt lat="34.83267152846112" lon="113.65360523854787">
        <ele>91.20931815262884</ele>
        <time>2026-09-12T01:55:13Z</time>
      </trkpt>
      <trkpt lat="34.83268434688166" lon="113.65366505202375">
        <ele>92.55282969772816</ele>
        <time>2026-09-12T01:55:16Z</time>
      </trkpt>
      <trkpt lat="34.83274495067699" lon="113.65369084993884">
        <ele>92.32182118389755</ele>
        <time>2026-09-12T01:55:20Z</time>
      </trkpt>
      <trkpt lat="34.83280163081606" lon="113.65375377751567">
        <ele>92.97015611827374</ele>
        <time>2026-09-12T01:55:26Z</time>
      </trkpt>
      <trkpt lat="34.83281354468898" lon="113.65409897826">
        <ele>89.55505787674338</ele>
        <time>2026-09-12T01:55:44Z</time>
      </trkpt>
      <trkpt lat="34.83282625321677" lon="113.65443204340612">
        <ele>89.23518656007946</ele>
        <time>2026-09-12T01:55:59Z</time>
      </trkpt>
      <trkpt lat="34.83280848557706" lon="113.65448903688207">
        <ele>88.74185499735177</ele>
        <time>2026-09-12T01:56:02Z</time>
      </trkpt>
      <trkpt lat="34.832635822994526" lon="113.65455584739483">
        <ele>87.77124596200883</ele>
        <time>2026-09-12T01:56:11Z</time>
      </trkpt>
      <trkpt lat="34.83263670300327" lon="113.6546231842805">
        <ele>87.74345017038286</ele>
        <time>2026-09-12T01:56:17Z</time>
      </trkpt>
      <trkpt lat="34.8327077044141" lon="113.65485230353501">
        <ele>87.43612652644515</ele>
        <time>2026-09-12T01:56:29Z</time>
      </trkpt>
      <trkpt lat="34.83277104081521" lon="113.65492042769044">
        <ele>88.07812097296119</ele>
        <time>2026-09-12T01:56:32Z</time>
      </trkpt>
      <trkpt lat="34.832831101482" lon="113.65502677994851">
        <ele>89.06567443255335</ele>
        <time>2026-09-12T01:56:38Z</time>
      </trkpt>
      <trkpt lat="34.832825047545334" lon="113.65508890185926">
        <ele>89.03047281131148</ele>
        <time>2026-09-12T01:56:41Z</time>
      </trkpt>
      <trkpt lat="34.83277753610084" lon="113.65515592905746">
        <ele>88.45279988087714</ele>
        <time>2026-09-12T01:56:44Z</time>
      </trkpt>
      <trkpt lat="34.832770564831904" lon="113.65521377570634">
        <ele>88.92673097457737</ele>
        <time>2026-09-12T01:56:47Z</time>
      </trkpt>
      <trkpt lat="34.83282618276132" lon="113.65531809547524">
        <ele>88.36022990383208</ele>
        <time>2026-09-12T01:56:53Z</time>
      </trkpt>
      <trkpt lat="34.83274601374157" lon="113.65544169538147">
        <ele>89.56718800961971</ele>
        <time>2026-09-12T01:56:59Z</time>
      </trkpt>
      <trkpt lat="34.83272309136914" lon="113.6555712022254">
        <ele>88.62009135168046</ele>
        <time>2026-09-12T01:57:05Z</time>
      </trkpt>
      <trkpt lat="34.83272534255264" lon="113.65565456056159">
        <ele>88.91982164327055</ele>
        <time>2026-09-12T01:57:08Z</time>
      </trkpt>
      <trkpt lat="34.832831822755146" lon="113.65583872077343">
        <ele>90.44576526340097</ele>
        <time>2026-09-12T01:57:17Z</time>
      </trkpt>
      <trkpt lat="34.83296930170148" lon="113.65589254709447">
        <ele>89.54595879465342</ele>
        <time>2026-09-12T01:57:24Z</time>
      </trkpt>
      <trkpt lat="34.83301091261067" lon="113.65593486965875">
        <ele>89.26127495896071</ele>
        <time>2026-09-12T01:57:27Z</time>
      </trkpt>
      <trkpt lat="34.83307748351634" lon="113.65612632105663">
        <ele>89.02914172876626</ele>
        <time>2026-09-12T01:57:36Z</time>
      </trkpt>
      <trkpt lat="34.83311787000761" lon="113.65618048131945">
        <ele>89.04412551503628</ele>
        <time>2026-09-12T01:57:39Z</time>
      </trkpt>
      <trkpt lat="34.833360633387464" lon="113.65614357974395">
        <ele>87.83059645909816</ele>
        <time>2026-09-12T01:57:51Z</time>
      </trkpt>
      <trkpt lat="34.833543410299036" lon="113.65605659338543">
        <ele>88.51806216780096</ele>
        <time>2026-09-12T01:58:00Z</time>
      </trkpt>
      <trkpt lat="34.83365755816934" lon="113.6560727152629">
        <ele>88.14214952848852</ele>
        <time>2026-09-12T01:58:06Z</time>
      </trkpt>
      <trkpt lat="34.833756197761026" lon="113.65614527481647">
        <ele>87.97162341605872</ele>
        <time>2026-09-12T01:58:12Z</time>
      </trkpt>
      <trkpt lat="34.83379486648746" lon="113.6561963161858">
        <ele>88.04249926377088</ele>
        <time>2026-09-12T01:58:15Z</time>
      </trkpt>
      <trkpt lat="34.83378076820817" lon="113.65626306313068">
        <ele>87.20158860832453</ele>
        <time>2026-09-12T01:58:18Z</time>
      </trkpt>
      <trkpt lat="34.833617352426366" lon="113.65636937849209">
        <ele>86.21791303623468</ele>
        <time>2026-09-12T01:58:27Z</time>
      </trkpt>
      <trkpt lat="34.83334880621694" lon="113.65638269579023">
        <ele>86.33777244202793</ele>
        <time>2026-09-12T01:58:42Z</time>
      </trkpt>
      <trkpt lat="34.833170124006855" lon="113.65631843940999">
        <ele>86.15620286110789</ele>
        <time>2026-09-12T01:58:51Z</time>
      </trkpt>
      <trkpt lat="34.83301767080792" lon="113.65621450752022">
        <ele>86.70795186981559</ele>
        <time>2026-09-12T01:59:00Z</time>
      </trkpt>
      <trkpt lat="34.83281462424774" lon="113.655953189586">
        <ele>87.7738114092499</ele>
        <time>2026-09-12T01:59:15Z</time>
      </trkpt>
      <trkpt lat="34.83277189974151" lon="113.65590327488883">
        <ele>87.29999881330878</ele>
        <time>2026-09-12T01:59:18Z</time>
      </trkpt>
      <trkpt lat="34.83271731298453" lon="113.655886044118">
        <ele>87.58804592769593</ele>
        <time>2026-09-12T01:59:21Z</time>
      </trkpt>
      <trkpt lat="34.832670942555325" lon="113.65590618818227">
        <ele>87.89581510610878</ele>
        <time>2026-09-12T01:59:24Z</time>
      </trkpt>
      <trkpt lat="34.83256905873831" lon="113.65602271290237">
        <ele>87.36926327086985</ele>
        <time>2026-09-12T01:59:31Z</time>
      </trkpt>
      <trkpt lat="34.832399018663274" lon="113.65613654356174">
        <ele>85.79649670980871</ele>
        <time>2026-09-12T01:59:39Z</time>
      </trkpt>
      <trkpt lat="34.83224859313507" lon="113.65616233091852">
        <ele>85.9031343460083</ele>
        <time>2026-09-12T01:59:46Z</time>
      </trkpt>
      <trkpt lat="34.83212260953916" lon="113.65612924589004">
        <ele>86.02469732426107</ele>
        <time>2026-09-12T01:59:52Z</time>
      </trkpt>
      <trkpt lat="34.83197455496114" lon="113.6559748568388">
        <ele>86.80869356915355</ele>
        <time>2026-09-12T02:00:01Z</time>
      </trkpt>
      <trkpt lat="34.83195352085539" lon="113.65590460658176">
        <ele>87.3863719617948</ele>
        <time>2026-09-12T02:00:04Z</time>
      </trkpt>
      <trkpt lat="34.831950384882724" lon="113.65582592886273">
        <ele>87.54070840403438</ele>
        <time>2026-09-12T02:00:07Z</time>
      </trkpt>
      <trkpt lat="34.83201416434035" lon="113.65570365994323">
        <ele>86.58884051814675</ele>
        <time>2026-09-12T02:00:13Z</time>
      </trkpt>
      <trkpt lat="34.83213218676603" lon="113.6556452247001">
        <ele>88.02028322778642</ele>
        <time>2026-09-12T02:00:19Z</time>
      </trkpt>
      <trkpt lat="34.832217303989836" lon="113.6555547221828">
        <ele>89.45281823631376</ele>
        <time>2026-09-12T02:00:25Z</time>
      </trkpt>
      <trkpt lat="34.83223754469258" lon="113.65548946249147">
        <ele>89.53790914546698</ele>
        <time>2026-09-12T02:00:28Z</time>
      </trkpt>
      <trkpt lat="34.832238936227576" lon="113.65535657503838">
        <ele>88.75912438612431</ele>
        <time>2026-09-12T02:00:34Z</time>
      </trkpt>
      <trkpt lat="34.83230134642942" lon="113.65521390387207">
        <ele>89.52201958745718</ele>
        <time>2026-09-12T02:00:40Z</time>
      </trkpt>
      <trkpt lat="34.83240117180519" lon="113.65513097519967">
        <ele>89.71138893067837</ele>
        <time>2026-09-12T02:00:46Z</time>
      </trkpt>
      <trkpt lat="34.83252615834854" lon="113.65510936486709">
        <ele>89.10063364636153</ele>
        <time>2026-09-12T02:00:52Z</time>
      </trkpt>
      <trkpt lat="34.83264468046761" lon="113.6551578269222">
        <ele>89.15478915628046</ele>
        <time>2026-09-12T02:00:58Z</time>
      </trkpt>
      <trkpt lat="34.83277812621251" lon="113.65526208739462">
        <ele>88.8384761158377</ele>
        <time>2026-09-12T02:01:04Z</time>
      </trkpt>
      <trkpt lat="34.83291873562801" lon="113.65528835004031">
        <ele>88.84422670118511</ele>
        <time>2026-09-12T02:01:10Z</time>
      </trkpt>
      <trkpt lat="34.833125850448994" lon="113.65523967218684">
        <ele>89.58433614484966</ele>
        <time>2026-09-12T02:01:19Z</time>
      </trkpt>
      <trkpt lat="34.83326033242302" lon="113.65507492323653">
        <ele>91.4302949057892</ele>
        <time>2026-09-12T02:01:28Z</time>
      </trkpt>
      <trkpt lat="34.83336145057383" lon="113.65487879432891">
        <ele>90.36870988178998</ele>
        <time>2026-09-12T02:01:38Z</time>
      </trkpt>
      <trkpt lat="34.83363003095028" lon="113.65481504390029">
        <ele>86.206787109375</ele>
        <time>2026-09-12T02:02:07Z</time>
      </trkpt>
      <trkpt lat="34.83374299839799" lon="113.6548226191152">
        <ele>89.46175169758499</ele>
        <time>2026-09-12T02:02:08Z</time>
      </trkpt>
      <trkpt lat="34.83379558801884" lon="113.65484585759046">
        <ele>89.08597172796726</ele>
        <time>2026-09-12T02:02:08Z</time>
      </trkpt>
      <trkpt lat="34.83395713988079" lon="113.65493105209771">
        <ele>88.61232994683087</ele>
        <time>2026-09-12T02:02:15Z</time>
      </trkpt>
      <trkpt lat="34.83406566550199" lon="113.65492231384829">
        <ele>87.5606429297477</ele>
        <time>2026-09-12T02:02:21Z</time>
      </trkpt>
      <trkpt lat="34.834135784561845" lon="113.6549449775041">
        <ele>87.62219743989408</ele>
        <time>2026-09-12T02:02:24Z</time>
      </trkpt>
      <trkpt lat="34.8341884231176" lon="113.65498328546654">
        <ele>87.43039918597788</ele>
        <time>2026-09-12T02:02:27Z</time>
      </trkpt>
      <trkpt lat="34.83416638329809" lon="113.65513694811813">
        <ele>88.67193692643195</ele>
        <time>2026-09-12T02:02:33Z</time>
      </trkpt>
      <trkpt lat="34.83423844810031" lon="113.65530583195853">
        <ele>88.64983772393316</ele>
        <time>2026-09-12T02:02:42Z</time>
      </trkpt>
      <trkpt lat="34.83427953059127" lon="113.6555174132328">
        <ele>89.05819950718433</ele>
        <time>2026-09-12T02:02:51Z</time>
      </trkpt>
      <trkpt lat="34.83424741536074" lon="113.655743303263">
        <ele>88.66704337950796</ele>
        <time>2026-09-12T02:03:00Z</time>
      </trkpt>
      <trkpt lat="34.8341545537742" lon="113.65599288767005">
        <ele>87.41364086326212</ele>
        <time>2026-09-12T02:03:12Z</time>
      </trkpt>
      <trkpt lat="34.83397491095706" lon="113.65619016089533">
        <ele>87.94406414125115</ele>
        <time>2026-09-12T02:03:24Z</time>
      </trkpt>
      <trkpt lat="34.83367473040809" lon="113.65635588718067">
        <ele>87.73049803171307</ele>
        <time>2026-09-12T02:03:39Z</time>
      </trkpt>
      <trkpt lat="34.83346217202397" lon="113.6563931661882">
        <ele>86.63345081079751</ele>
        <time>2026-09-12T02:03:49Z</time>
      </trkpt>
      <trkpt lat="34.833213812595396" lon="113.6563390270095">
        <ele>87.29589552152902</ele>
        <time>2026-09-12T02:04:01Z</time>
      </trkpt>
      <trkpt lat="34.8330409583991" lon="113.65623971848542">
        <ele>87.84382840339094</ele>
        <time>2026-09-12T02:04:10Z</time>
      </trkpt>
      <trkpt lat="34.83285621243436" lon="113.65604223061318">
        <ele>88.22388368565589</ele>
        <time>2026-09-12T02:04:22Z</time>
      </trkpt>
      <trkpt lat="34.832792060164024" lon="113.65593946805632">
        <ele>88.8705487800762</ele>
        <time>2026-09-12T02:04:28Z</time>
      </trkpt>
      <trkpt lat="34.832738802308086" lon="113.6558918497036">
        <ele>88.23381694313139</ele>
        <time>2026-09-12T02:04:31Z</time>
      </trkpt>
      <trkpt lat="34.832684006604964" lon="113.65589364923284">
        <ele>88.10721107944846</ele>
        <time>2026-09-12T02:04:34Z</time>
      </trkpt>
      <trkpt lat="34.83244412465252" lon="113.65612158830345">
        <ele>87.85873941145837</ele>
        <time>2026-09-12T02:04:49Z</time>
      </trkpt>
      <trkpt lat="34.83231236077761" lon="113.65616613988554">
        <ele>87.58456715103239</ele>
        <time>2026-09-12T02:04:55Z</time>
      </trkpt>
      <trkpt lat="34.83211280334603" lon="113.6561233340208">
        <ele>87.25256642512977</ele>
        <time>2026-09-12T02:05:04Z</time>
      </trkpt>
      <trkpt lat="34.83204911230922" lon="113.65608622631258">
        <ele>88.72529780305922</ele>
        <time>2026-09-12T02:05:07Z</time>
      </trkpt>
      <trkpt lat="34.83179710735513" lon="113.6560998530959">
        <ele>87.65056180767715</ele>
        <time>2026-09-12T02:05:19Z</time>
      </trkpt>
      <trkpt lat="34.83174965958961" lon="113.65611618753569">
        <ele>86.62119611073285</ele>
        <time>2026-09-12T02:05:22Z</time>
      </trkpt>
      <trkpt lat="34.83170360328615" lon="113.65616182885218">
        <ele>87.59870605263859</ele>
        <time>2026-09-12T02:05:25Z</time>
      </trkpt>
      <trkpt lat="34.83141856794525" lon="113.65631489058586">
        <ele>87.50032035913318</ele>
        <time>2026-09-12T02:05:40Z</time>
      </trkpt>
      <trkpt lat="34.831347229222764" lon="113.65640766658589">
        <ele>87.31740904506296</ele>
        <time>2026-09-12T02:05:46Z</time>
      </trkpt>
      <trkpt lat="34.831281496807065" lon="113.6564233490396">
        <ele>87.03371864371002</ele>
        <time>2026-09-12T02:05:50Z</time>
      </trkpt>
      <trkpt lat="34.83114377383939" lon="113.65640769767165">
        <ele>87.08248703740537</ele>
        <time>2026-09-12T02:05:56Z</time>
      </trkpt>
      <trkpt lat="34.831081665243396" lon="113.65642165430555">
        <ele>87.42280202824622</ele>
        <time>2026-09-12T02:05:59Z</time>
      </trkpt>
      <trkpt lat="34.831001565696276" lon="113.65652043566787">
        <ele>87.09730305615813</ele>
        <time>2026-09-12T02:06:05Z</time>
      </trkpt>
      <trkpt lat="34.830893268932456" lon="113.656537482145">
        <ele>86.77436517737806</ele>
        <time>2026-09-12T02:06:11Z</time>
      </trkpt>
      <trkpt lat="34.830792238780305" lon="113.65644415175069">
        <ele>86.76788993738592</ele>
        <time>2026-09-12T02:06:17Z</time>
      </trkpt>
      <trkpt lat="34.83068417855387" lon="113.65639699238213">
        <ele>88.21128236595541</ele>
        <time>2026-09-12T02:06:23Z</time>
      </trkpt>
      <trkpt lat="34.830626367982006" lon="113.65643655435449">
        <ele>87.23407608550042</ele>
        <time>2026-09-12T02:06:26Z</time>
      </trkpt>
      <trkpt lat="34.83056648679241" lon="113.65659254930988">
        <ele>85.2926480397582</ele>
        <time>2026-09-12T02:06:35Z</time>
      </trkpt>
      <trkpt lat="34.83053073934741" lon="113.65664100004545">
        <ele>84.73609406407923</ele>
        <time>2026-09-12T02:06:38Z</time>
      </trkpt>
      <trkpt lat="34.83024257127312" lon="113.65681186749894">
        <ele>85.83722902368754</ele>
        <time>2026-09-12T02:06:56Z</time>
      </trkpt>
      <trkpt lat="34.830239836968374" lon="113.65701053174743">
        <ele>87.10834075883031</ele>
        <time>2026-09-12T02:07:05Z</time>
      </trkpt>
      <trkpt lat="34.830259959383156" lon="113.65707816384462">
        <ele>86.71189127489924</ele>
        <time>2026-09-12T02:07:08Z</time>
      </trkpt>
      <trkpt lat="34.83057025443411" lon="113.6570427585318">
        <ele>87.7140265321359</ele>
        <time>2026-09-12T02:07:23Z</time>
      </trkpt>
      <trkpt lat="34.83087883965675" lon="113.65704349114269">
        <ele>89.82768091000617</ele>
        <time>2026-09-12T02:07:38Z</time>
      </trkpt>
      <trkpt lat="34.83106817699479" lon="113.65704085623716">
        <ele>89.62021882366389</ele>
        <time>2026-09-12T02:07:47Z</time>
      </trkpt>
      <trkpt lat="34.831203535639176" lon="113.65700258715951">
        <ele>89.462467700243</ele>
        <time>2026-09-12T02:07:54Z</time>
      </trkpt>
      <trkpt lat="34.831567040441136" lon="113.65701744345834">
        <ele>88.15303561277688</ele>
        <time>2026-09-12T02:08:10Z</time>
      </trkpt>
      <trkpt lat="34.831892459542196" lon="113.65700472742735">
        <ele>88.67475088685751</ele>
        <time>2026-09-12T02:08:25Z</time>
      </trkpt>
      <trkpt lat="34.83209593076797" lon="113.65699765502964">
        <ele>88.81881998479366</ele>
        <time>2026-09-12T02:08:34Z</time>
      </trkpt>
      <trkpt lat="34.83221031052917" lon="113.65704678075284">
        <ele>88.71412635874003</ele>
        <time>2026-09-12T02:08:40Z</time>
      </trkpt>
      <trkpt lat="34.832293140743445" lon="113.65716192832453">
        <ele>88.63515978585929</ele>
        <time>2026-09-12T02:08:46Z</time>
      </trkpt>
      <trkpt lat="34.83231529322094" lon="113.65723469527579">
        <ele>87.3696683421731</ele>
        <time>2026-09-12T02:08:49Z</time>
      </trkpt>
      <trkpt lat="34.83228912780613" lon="113.65759650305779">
        <ele>86.71949579752982</ele>
        <time>2026-09-12T02:09:01Z</time>
      </trkpt>
      <trkpt lat="34.83229019310747" lon="113.65770381701283">
        <ele>85.66291826032102</ele>
        <time>2026-09-12T02:09:04Z</time>
      </trkpt>
      <trkpt lat="34.832263081229804" lon="113.65789591019056">
        <ele>85.15051004104316</ele>
        <time>2026-09-12T02:09:10Z</time>
      </trkpt>
      <trkpt lat="34.83225704449542" lon="113.65823442166459">
        <ele>86.84528182819486</ele>
        <time>2026-09-12T02:09:22Z</time>
      </trkpt>
      <trkpt lat="34.832231664895936" lon="113.65863462889594">
        <ele>86.95269594527781</ele>
        <time>2026-09-12T02:09:37Z</time>
      </trkpt>
      <trkpt lat="34.83220693192301" lon="113.65885256403323">
        <ele>87.68524905666709</ele>
        <time>2026-09-12T02:09:46Z</time>
      </trkpt>
      <trkpt lat="34.83222493403136" lon="113.65891082902193">
        <ele>87.44066406041384</ele>
        <time>2026-09-12T02:09:49Z</time>
      </trkpt>
      <trkpt lat="34.83220374368919" lon="113.65924824525068">
        <ele>85.45468505099416</ele>
        <time>2026-09-12T02:10:02Z</time>
      </trkpt>
      <trkpt lat="34.83219695514375" lon="113.65943572279666">
        <ele>85.47982160933316</ele>
        <time>2026-09-12T02:10:10Z</time>
      </trkpt>
      <trkpt lat="34.832157188647265" lon="113.65971133153555">
        <ele>85.96862635854632</ele>
        <time>2026-09-12T02:10:20Z</time>
      </trkpt>
      <trkpt lat="34.832136692725385" lon="113.66012506352354">
        <ele>87.82007277198136</ele>
        <time>2026-09-12T02:10:35Z</time>
      </trkpt>
      <trkpt lat="34.83209963327462" lon="113.66017683298723">
        <ele>88.4820088930428</ele>
        <time>2026-09-12T02:10:38Z</time>
      </trkpt>
      <trkpt lat="34.8319134553036" lon="113.66020351434929">
        <ele>86.21740030962974</ele>
        <time>2026-09-12T02:10:47Z</time>
      </trkpt>
      <trkpt lat="34.8316398626784" lon="113.66019759283489">
        <ele>87.46691066492349</ele>
        <time>2026-09-12T02:10:59Z</time>
      </trkpt>
      <trkpt lat="34.831331173125946" lon="113.66021657953564">
        <ele>87.16672436427325</ele>
        <time>2026-09-12T02:11:14Z</time>
      </trkpt>
      <trkpt lat="34.831149130099334" lon="113.66021678492706">
        <ele>87.68252744525671</ele>
        <time>2026-09-12T02:11:23Z</time>
      </trkpt>
      <trkpt lat="34.831109837753104" lon="113.66017194407479">
        <ele>88.59304649569094</ele>
        <time>2026-09-12T02:11:26Z</time>
      </trkpt>
      <trkpt lat="34.83110773911216" lon="113.66002479834384">
        <ele>89.16574756149203</ele>
        <time>2026-09-12T02:11:32Z</time>
      </trkpt>
      <trkpt lat="34.83112857847593" lon="113.65994122673692">
        <ele>89.88004221953452</ele>
        <time>2026-09-12T02:11:35Z</time>
      </trkpt>
      <trkpt lat="34.83112606743802" lon="113.65968886029854">
        <ele>89.45685541536659</ele>
        <time>2026-09-12T02:11:47Z</time>
      </trkpt>
      <trkpt lat="34.83109699635035" lon="113.65952835858897">
        <ele>88.91553687676787</ele>
        <time>2026-09-12T02:11:53Z</time>
      </trkpt>
      <trkpt lat="34.83101296927971" lon="113.65941532523009">
        <ele>88.2335799401626</ele>
        <time>2026-09-12T02:11:59Z</time>
      </trkpt>
      <trkpt lat="34.83104321739251" lon="113.65930078516321">
        <ele>88.69218747876585</ele>
        <time>2026-09-12T02:12:02Z</time>
      </trkpt>
      <trkpt lat="34.831106538229534" lon="113.65918622010982">
        <ele>93.2954232590273</ele>
        <time>2026-09-12T02:12:10Z</time>
      </trkpt>
      <trkpt lat="34.83120075112875" lon="113.65911699345213">
        <ele>92.46657182835042</ele>
        <time>2026-09-12T02:12:16Z</time>
      </trkpt>
      <trkpt lat="34.83127250347705" lon="113.65909529207963">
        <ele>91.78138568624854</ele>
        <time>2026-09-12T02:12:20Z</time>
      </trkpt>
      <trkpt lat="34.8313381704099" lon="113.65910742897216">
        <ele>91.91881627961993</ele>
        <time>2026-09-12T02:12:23Z</time>
      </trkpt>
      <trkpt lat="34.83144914124305" lon="113.65918390190836">
        <ele>91.39286925364286</ele>
        <time>2026-09-12T02:12:29Z</time>
      </trkpt>
      <trkpt lat="34.83155117051716" lon="113.65915770586449">
        <ele>91.96735629718751</ele>
        <time>2026-09-12T02:12:35Z</time>
      </trkpt>
      <trkpt lat="34.83161095888132" lon="113.65917433658663">
        <ele>92.29365090373904</ele>
        <time>2026-09-12T02:12:38Z</time>
      </trkpt>
      <trkpt lat="34.831707732676456" lon="113.65914154743584">
        <ele>92.70393100380898</ele>
        <time>2026-09-12T02:12:44Z</time>
      </trkpt>
      <trkpt lat="34.83176219449602" lon="113.6591654700307">
        <ele>91.90169830340892</ele>
        <time>2026-09-12T02:12:47Z</time>
      </trkpt>
      <trkpt lat="34.831819109719646" lon="113.6591348205672">
        <ele>92.17398604843765</ele>
        <time>2026-09-12T02:12:50Z</time>
      </trkpt>
      <trkpt lat="34.83180239902672" lon="113.65907379802061">
        <ele>91.43095519393682</ele>
        <time>2026-09-12T02:12:53Z</time>
      </trkpt>
      <trkpt lat="34.831723528639856" lon="113.65904394059685">
        <ele>89.7562395548448</ele>
        <time>2026-09-12T02:12:59Z</time>
      </trkpt>
      <trkpt lat="34.83165089856334" lon="113.65890736879366">
        <ele>90.0039451783523</ele>
        <time>2026-09-12T02:13:05Z</time>
      </trkpt>
      <trkpt lat="34.831550679398546" lon="113.65887101756626">
        <ele>89.12444045767188</ele>
        <time>2026-09-12T02:13:11Z</time>
      </trkpt>
      <trkpt lat="34.83149854336785" lon="113.65881234851248">
        <ele>89.66792379226536</ele>
        <time>2026-09-12T02:13:14Z</time>
      </trkpt>
      <trkpt lat="34.83146451444107" lon="113.65865917683998">
        <ele>89.08247689995915</ele>
        <time>2026-09-12T02:13:20Z</time>
      </trkpt>
      <trkpt lat="34.83145264606297" lon="113.65851414945956">
        <ele>86.98767651524395</ele>
        <time>2026-09-12T02:13:26Z</time>
      </trkpt>
      <trkpt lat="34.83137650926469" lon="113.65838998161304">
        <ele>86.6437139166519</ele>
        <time>2026-09-12T02:13:32Z</time>
      </trkpt>
      <trkpt lat="34.83127987390325" lon="113.65827777486582">
        <ele>86.3902213377878</ele>
        <time>2026-09-12T02:13:38Z</time>
      </trkpt>
      <trkpt lat="34.83115909992418" lon="113.65821024370388">
        <ele>85.91683206707239</ele>
        <time>2026-09-12T02:13:44Z</time>
      </trkpt>
      <trkpt lat="34.83101614452385" lon="113.65818497090554">
        <ele>85.8236688748002</ele>
        <time>2026-09-12T02:13:50Z</time>
      </trkpt>
      <trkpt lat="34.83096287707137" lon="113.65820502285904">
        <ele>86.87805187422782</ele>
        <time>2026-09-12T02:13:53Z</time>
      </trkpt>
      <trkpt lat="34.83096287707137" lon="113.65820502285904">
        <ele>86.87805187422782</ele>
        <time>2026-09-12T02:13:54Z</time>
      </trkpt>
    </trkseg>
  </trk>
</gpx>