<?xml version="1.0" encoding="UTF-8"?>
<gpx xmlns="http://www.topografix.com/GPX/1/1" xmlns:gpxtpx="http://www.garmin.com/xmlschemas/TrackPointExtension/v1" xmlns:xsi="http://www.w3.org/2001/XMLSchema-instance" xsi:schemaLocation="http://www.topografix.com/GPX/1/1 http://www.topografix.com/GPX/1/1/gpx.xsd" version="1.1" creator="gpx.py -- https://github.com/tkrajina/gpxpy">
  <trk>
    <name>gpx from keep</name>
    <type>Run</type>
    <trkseg>
      <trkpt lat="34.83024087849002" lon="113.65892087634552">
        <ele>104.30804443359375</ele>
        <time>2026-09-16T23:48:13Z</time>
      </trkpt>
      <trkpt lat="34.83017983529491" lon="113.65899639512807">
        <ele>109.4229736328125</ele>
        <time>2026-09-16T23:48:16Z</time>
      </trkpt>
      <trkpt lat="34.83018150520201" lon="113.65908230969458">
        <ele>108.75799560546875</ele>
        <time>2026-09-16T23:48:19Z</time>
      </trkpt>
      <trkpt lat="34.8301382795134" lon="113.65917196741289">
        <ele>108.75730636436492</ele>
        <time>2026-09-16T23:48:22Z</time>
      </trkpt>
      <trkpt lat="34.830152113150845" lon="113.65925576526976">
        <ele>107.82352103572339</ele>
        <time>2026-09-16T23:48:25Z</time>
      </trkpt>
      <trkpt lat="34.83031671637016" lon="113.65953657709359">
        <ele>108.17066999338567</ele>
        <time>2026-09-16T23:48:31Z</time>
      </trkpt>
      <trkpt lat="34.83030407660045" lon="113.65974300065311">
        <ele>105.67705769557506</ele>
        <time>2026-09-16T23:48:40Z</time>
      </trkpt>
      <trkpt lat="34.83028092613406" lon="113.6598113883613">
        <ele>103.46983366180211</ele>
        <time>2026-09-16T23:48:43Z</time>
      </trkpt>
      <trkpt lat="34.830276543282864" lon="113.6598933241628">
        <ele>97.1061848513782</ele>
        <time>2026-09-16T23:48:49Z</time>
      </trkpt>
      <trkpt lat="34.83035378576992" lon="113.65994872882078">
        <ele>93.78434426151216</ele>
        <time>2026-09-16T23:48:55Z</time>
      </trkpt>
      <trkpt lat="34.830655283883445" lon="113.659957040082">
        <ele>94.10016896948218</ele>
        <time>2026-09-16T23:49:10Z</time>
      </trkpt>
      <trkpt lat="34.83094906588607" lon="113.65995508975507">
        <ele>93.89739711675793</ele>
        <time>2026-09-16T23:49:25Z</time>
      </trkpt>
      <trkpt lat="34.83099540853654" lon="113.65994708382135">
        <ele>94.2784655643627</ele>
        <time>2026-09-16T23:49:28Z</time>
      </trkpt>
      <trkpt lat="34.831031501456245" lon="113.65990364556419">
        <ele>93.92312932014465</ele>
        <time>2026-09-16T23:49:31Z</time>
      </trkpt>
      <trkpt lat="34.831056014187965" lon="113.65982991291091">
        <ele>89.0787149630487</ele>
        <time>2026-09-16T23:49:37Z</time>
      </trkpt>
      <trkpt lat="34.83106141478115" lon="113.65961742373055">
        <ele>88.1433560969308</ele>
        <time>2026-09-16T23:49:49Z</time>
      </trkpt>
      <trkpt lat="34.83098000857226" lon="113.65952989738707">
        <ele>88.80644928757101</ele>
        <time>2026-09-16T23:49:55Z</time>
      </trkpt>
      <trkpt lat="34.83097048700779" lon="113.65943433064629">
        <ele>88.50635779649019</ele>
        <time>2026-09-16T23:49:58Z</time>
      </trkpt>
      <trkpt lat="34.83090518285805" lon="113.65942101927102">
        <ele>88.40540224593133</ele>
        <time>2026-09-16T23:50:01Z</time>
      </trkpt>
      <trkpt lat="34.83103207851725" lon="113.65931623428806">
        <ele>89.18104444351047</ele>
        <time>2026-09-16T23:50:04Z</time>
      </trkpt>
      <trkpt lat="34.831242237097605" lon="113.65908652790037">
        <ele>91.19755155593157</ele>
        <time>2026-09-16T23:50:19Z</time>
      </trkpt>
      <trkpt lat="34.83127891328487" lon="113.65901666555719">
        <ele>91.93321824725717</ele>
        <time>2026-09-16T23:50:23Z</time>
      </trkpt>
      <trkpt lat="34.831577908261856" lon="113.65882978316012">
        <ele>90.45264172647148</ele>
        <time>2026-09-16T23:50:38Z</time>
      </trkpt>
      <trkpt lat="34.83174242221848" lon="113.65888889104879">
        <ele>90.5482381656766</ele>
        <time>2026-09-16T23:50:47Z</time>
      </trkpt>
      <trkpt lat="34.83191230720919" lon="113.6587697108692">
        <ele>89.59791255835444</ele>
        <time>2026-09-16T23:50:56Z</time>
      </trkpt>
      <trkpt lat="34.832022757852705" lon="113.65861810954102">
        <ele>89.94061495829374</ele>
        <time>2026-09-16T23:51:05Z</time>
      </trkpt>
      <trkpt lat="34.83221303350408" lon="113.65857808885224">
        <ele>89.77376379445195</ele>
        <time>2026-09-16T23:51:14Z</time>
      </trkpt>
      <trkpt lat="34.8322641468977" lon="113.65854035382596">
        <ele>90.48292070720345</ele>
        <time>2026-09-16T23:51:17Z</time>
      </trkpt>
      <trkpt lat="34.832294694967516" lon="113.65846431487677">
        <ele>90.04976946581155</ele>
        <time>2026-09-16T23:51:20Z</time>
      </trkpt>
      <trkpt lat="34.832282949836575" lon="113.6583262513357">
        <ele>90.53622228372842</ele>
        <time>2026-09-16T23:51:26Z</time>
      </trkpt>
      <trkpt lat="34.832288413611494" lon="113.65811034833854">
        <ele>91.35589311923832</ele>
        <time>2026-09-16T23:51:35Z</time>
      </trkpt>
      <trkpt lat="34.83231118529808" lon="113.65805872286658">
        <ele>90.87242111191154</ele>
        <time>2026-09-16T23:51:38Z</time>
      </trkpt>
      <trkpt lat="34.832296679910634" lon="113.65781653903909">
        <ele>90.99145424924791</ele>
        <time>2026-09-16T23:51:47Z</time>
      </trkpt>
      <trkpt lat="34.83227297465681" lon="113.65774396665408">
        <ele>91.28122488036752</ele>
        <time>2026-09-16T23:51:50Z</time>
      </trkpt>
      <trkpt lat="34.832280121897156" lon="113.65758264059137">
        <ele>91.2101059788838</ele>
        <time>2026-09-16T23:51:56Z</time>
      </trkpt>
      <trkpt lat="34.832329937929934" lon="113.6572419092759">
        <ele>92.21332614310086</ele>
        <time>2026-09-16T23:52:11Z</time>
      </trkpt>
      <trkpt lat="34.8323244272323" lon="113.65710163065788">
        <ele>92.46664287149906</ele>
        <time>2026-09-16T23:52:17Z</time>
      </trkpt>
      <trkpt lat="34.83237221911334" lon="113.65702504007264">
        <ele>91.60615910496563</ele>
        <time>2026-09-16T23:52:23Z</time>
      </trkpt>
      <trkpt lat="34.83253228972911" lon="113.65703479965772">
        <ele>91.04530723206699</ele>
        <time>2026-09-16T23:52:31Z</time>
      </trkpt>
      <trkpt lat="34.83270239755835" lon="113.65696875455107">
        <ele>91.1000367384404</ele>
        <time>2026-09-16T23:52:39Z</time>
      </trkpt>
      <trkpt lat="34.83301179470129" lon="113.65696957438855">
        <ele>91.59300177637488</ele>
        <time>2026-09-16T23:52:55Z</time>
      </trkpt>
      <trkpt lat="34.83315366173786" lon="113.65696482755101">
        <ele>91.73488573078066</ele>
        <time>2026-09-16T23:53:01Z</time>
      </trkpt>
      <trkpt lat="34.83328816301111" lon="113.65699688323573">
        <ele>91.63073239568621</ele>
        <time>2026-09-16T23:53:07Z</time>
      </trkpt>
      <trkpt lat="34.83349894967663" lon="113.65696673049833">
        <ele>89.23331010714173</ele>
        <time>2026-09-16T23:53:19Z</time>
      </trkpt>
      <trkpt lat="34.83366328744385" lon="113.65697484245273">
        <ele>88.86496712453663</ele>
        <time>2026-09-16T23:53:28Z</time>
      </trkpt>
      <trkpt lat="34.833734326461254" lon="113.65695687205113">
        <ele>89.24554450530559</ele>
        <time>2026-09-16T23:53:31Z</time>
      </trkpt>
      <trkpt lat="34.83388003413811" lon="113.65678524199609">
        <ele>91.05838553234935</ele>
        <time>2026-09-16T23:53:43Z</time>
      </trkpt>
      <trkpt lat="34.833979048932704" lon="113.6565862305275">
        <ele>90.03348185215145</ele>
        <time>2026-09-16T23:53:55Z</time>
      </trkpt>
      <trkpt lat="34.833904873308356" lon="113.65645064067428">
        <ele>90.1319447606802</ele>
        <time>2026-09-16T23:54:01Z</time>
      </trkpt>
      <trkpt lat="34.83385470532352" lon="113.65639921054198">
        <ele>89.39078503195196</ele>
        <time>2026-09-16T23:54:04Z</time>
      </trkpt>
      <trkpt lat="34.83382495660319" lon="113.65632528324869">
        <ele>89.51344358175993</ele>
        <time>2026-09-16T23:54:07Z</time>
      </trkpt>
      <trkpt lat="34.83382027695798" lon="113.65626876232042">
        <ele>89.9278075415641</ele>
        <time>2026-09-16T23:54:10Z</time>
      </trkpt>
      <trkpt lat="34.83397966412637" lon="113.65618308646017">
        <ele>91.15923228021711</ele>
        <time>2026-09-16T23:54:19Z</time>
      </trkpt>
      <trkpt lat="34.834159810800685" lon="113.655982626839">
        <ele>90.61643719114363</ele>
        <time>2026-09-16T23:54:31Z</time>
      </trkpt>
      <trkpt lat="34.83422744280892" lon="113.65581890314867">
        <ele>90.84723987337202</ele>
        <time>2026-09-16T23:54:39Z</time>
      </trkpt>
      <trkpt lat="34.83427789601279" lon="113.65573701502476">
        <ele>90.25586957391351</ele>
        <time>2026-09-16T23:54:43Z</time>
      </trkpt>
      <trkpt lat="34.83431314605136" lon="113.65552863092576">
        <ele>91.14779639057815</ele>
        <time>2026-09-16T23:54:51Z</time>
      </trkpt>
      <trkpt lat="34.834312183411" lon="113.65543179802059">
        <ele>89.75498833041638</ele>
        <time>2026-09-16T23:54:55Z</time>
      </trkpt>
      <trkpt lat="34.834287236427876" lon="113.65536417124632">
        <ele>89.7030365364626</ele>
        <time>2026-09-16T23:54:59Z</time>
      </trkpt>
      <trkpt lat="34.83427838404246" lon="113.65528053545297">
        <ele>89.30841703061014</ele>
        <time>2026-09-16T23:55:02Z</time>
      </trkpt>
      <trkpt lat="34.834233582488864" lon="113.6551568132077">
        <ele>90.14293764624745</ele>
        <time>2026-09-16T23:55:08Z</time>
      </trkpt>
      <trkpt lat="34.83413238201785" lon="113.6550572530691">
        <ele>89.6192685700953</ele>
        <time>2026-09-16T23:55:14Z</time>
      </trkpt>
      <trkpt lat="34.83405160031886" lon="113.65503166862933">
        <ele>89.27569820173085</ele>
        <time>2026-09-16T23:55:20Z</time>
      </trkpt>
      <trkpt lat="34.834025270638705" lon="113.65496510134071">
        <ele>88.88592741079628</ele>
        <time>2026-09-16T23:55:23Z</time>
      </trkpt>
      <trkpt lat="34.833881514553575" lon="113.6548260092421">
        <ele>90.5265839593485</ele>
        <time>2026-09-16T23:55:32Z</time>
      </trkpt>
      <trkpt lat="34.83367321222" lon="113.65478299023209">
        <ele>89.12630582973361</ele>
        <time>2026-09-16T23:55:44Z</time>
      </trkpt>
      <trkpt lat="34.83360179890187" lon="113.65478378014569">
        <ele>89.73421548493207</ele>
        <time>2026-09-16T23:55:47Z</time>
      </trkpt>
      <trkpt lat="34.83334731902113" lon="113.65488041266164">
        <ele>87.97833488043398</ele>
        <time>2026-09-16T23:55:59Z</time>
      </trkpt>
      <trkpt lat="34.83326470413254" lon="113.65487642278836">
        <ele>88.43508380558342</ele>
        <time>2026-09-16T23:56:05Z</time>
      </trkpt>
      <trkpt lat="34.83323308395111" lon="113.65482758655364">
        <ele>88.37682297546417</ele>
        <time>2026-09-16T23:56:08Z</time>
      </trkpt>
      <trkpt lat="34.83321079360043" lon="113.65475092547912">
        <ele>88.20850420650095</ele>
        <time>2026-09-16T23:56:11Z</time>
      </trkpt>
      <trkpt lat="34.83321816259438" lon="113.65468948057438">
        <ele>88.39314252138138</ele>
        <time>2026-09-16T23:56:14Z</time>
      </trkpt>
      <trkpt lat="34.83317487589658" lon="113.65465897000574">
        <ele>87.97797739878297</ele>
        <time>2026-09-16T23:56:17Z</time>
      </trkpt>
      <trkpt lat="34.83295022630789" lon="113.65474457974504">
        <ele>87.25200447253883</ele>
        <time>2026-09-16T23:56:29Z</time>
      </trkpt>
      <trkpt lat="34.832872356485645" lon="113.65471250570255">
        <ele>88.13081000559032</ele>
        <time>2026-09-16T23:56:35Z</time>
      </trkpt>
      <trkpt lat="34.83273043205995" lon="113.65478243087863">
        <ele>88.53441054653376</ele>
        <time>2026-09-16T23:56:43Z</time>
      </trkpt>
      <trkpt lat="34.832687206149394" lon="113.65475051823522">
        <ele>89.97408243454993</ele>
        <time>2026-09-16T23:56:51Z</time>
      </trkpt>
      <trkpt lat="34.83265127241221" lon="113.65457328756072">
        <ele>88.1167266247794</ele>
        <time>2026-09-16T23:56:59Z</time>
      </trkpt>
      <trkpt lat="34.832676899649904" lon="113.65451299328474">
        <ele>88.6073841881007</ele>
        <time>2026-09-16T23:57:02Z</time>
      </trkpt>
      <trkpt lat="34.83283923804223" lon="113.65447375318897">
        <ele>88.79090394172817</ele>
        <time>2026-09-16T23:57:11Z</time>
      </trkpt>
      <trkpt lat="34.83288437431024" lon="113.65441468884029">
        <ele>89.25979817751795</ele>
        <time>2026-09-16T23:57:14Z</time>
      </trkpt>
      <trkpt lat="34.83287290567459" lon="113.65415976003067">
        <ele>90.8281278628856</ele>
        <time>2026-09-16T23:57:26Z</time>
      </trkpt>
      <trkpt lat="34.83284277466098" lon="113.6540153970172">
        <ele>90.08456706721336</ele>
        <time>2026-09-16T23:57:32Z</time>
      </trkpt>
      <trkpt lat="34.832871405832975" lon="113.65394744942952">
        <ele>90.19359556864947</ele>
        <time>2026-09-16T23:57:35Z</time>
      </trkpt>
      <trkpt lat="34.8328567814953" lon="113.65376666362211">
        <ele>90.05939412675798</ele>
        <time>2026-09-16T23:57:44Z</time>
      </trkpt>
      <trkpt lat="34.832774850049226" lon="113.65357610414308">
        <ele>90.82304045557976</ele>
        <time>2026-09-16T23:57:53Z</time>
      </trkpt>
      <trkpt lat="34.83276993195031" lon="113.65350000896355">
        <ele>89.87521631084383</ele>
        <time>2026-09-16T23:57:56Z</time>
      </trkpt>
      <trkpt lat="34.83284258919574" lon="113.65341312258508">
        <ele>90.27783875539899</ele>
        <time>2026-09-16T23:58:02Z</time>
      </trkpt>
      <trkpt lat="34.83307132620403" lon="113.65323668568526">
        <ele>90.22793116234243</ele>
        <time>2026-09-16T23:58:17Z</time>
      </trkpt>
      <trkpt lat="34.83310727608161" lon="113.65318265827244">
        <ele>90.46555142756552</ele>
        <time>2026-09-16T23:58:20Z</time>
      </trkpt>
      <trkpt lat="34.83316480277961" lon="113.65296135557806">
        <ele>92.3253378905356</ele>
        <time>2026-09-16T23:58:29Z</time>
      </trkpt>
      <trkpt lat="34.83334075164508" lon="113.65278295708954">
        <ele>92.47234926186502</ele>
        <time>2026-09-16T23:58:41Z</time>
      </trkpt>
      <trkpt lat="34.83341378298927" lon="113.65274087800802">
        <ele>92.00033507309854</ele>
        <time>2026-09-16T23:58:45Z</time>
      </trkpt>
      <trkpt lat="34.83348637822631" lon="113.65274687746891">
        <ele>91.37597782816738</ele>
        <time>2026-09-16T23:58:49Z</time>
      </trkpt>
      <trkpt lat="34.83368673448782" lon="113.65265495976584">
        <ele>90.70537988469005</ele>
        <time>2026-09-16T23:59:01Z</time>
      </trkpt>
      <trkpt lat="34.83397133385022" lon="113.65258335247273">
        <ele>90.04457815364003</ele>
        <time>2026-09-16T23:59:17Z</time>
      </trkpt>
      <trkpt lat="34.83427214188296" lon="113.65247245902852">
        <ele>91.03126695286483</ele>
        <time>2026-09-16T23:59:32Z</time>
      </trkpt>
      <trkpt lat="34.834544020237466" lon="113.6523497999762">
        <ele>90.80053453240544</ele>
        <time>2026-09-16T23:59:47Z</time>
      </trkpt>
      <trkpt lat="34.834608135840774" lon="113.6523164175989">
        <ele>90.31670174002647</ele>
        <time>2026-09-16T23:59:50Z</time>
      </trkpt>
      <trkpt lat="34.834659633626934" lon="113.65232631910024">
        <ele>91.03746921103448</ele>
        <time>2026-09-16T23:59:53Z</time>
      </trkpt>
      <trkpt lat="34.834715319860365" lon="113.65228970227396">
        <ele>91.12464186735451</ele>
        <time>2026-09-16T23:59:56Z</time>
      </trkpt>
      <trkpt lat="34.8348850170582" lon="113.6522692871339">
        <ele>91.86967693269253</ele>
        <time>2026-09-17T00:00:05Z</time>
      </trkpt>
      <trkpt lat="34.83514989372001" lon="113.65213524658077">
        <ele>92.14326330833137</ele>
        <time>2026-09-17T00:00:20Z</time>
      </trkpt>
      <trkpt lat="34.835269880985244" lon="113.65206979891843">
        <ele>91.55904886405915</ele>
        <time>2026-09-17T00:00:26Z</time>
      </trkpt>
      <trkpt lat="34.8355777035236" lon="113.65197371669869">
        <ele>92.60759012866765</ele>
        <time>2026-09-17T00:00:41Z</time>
      </trkpt>
      <trkpt lat="34.83562663641274" lon="113.65193848634462">
        <ele>92.90601346176118</ele>
        <time>2026-09-17T00:00:44Z</time>
      </trkpt>
      <trkpt lat="34.83575658522167" lon="113.65188038215781">
        <ele>92.25148978456855</ele>
        <time>2026-09-17T00:00:51Z</time>
      </trkpt>
      <trkpt lat="34.83575558401492" lon="113.65179118364944">
        <ele>92.68174552638084</ele>
        <time>2026-09-17T00:00:55Z</time>
      </trkpt>
      <trkpt lat="34.835719564642176" lon="113.6517361580895">
        <ele>91.95384415145963</ele>
        <time>2026-09-17T00:00:59Z</time>
      </trkpt>
      <trkpt lat="34.83564757065502" lon="113.6516731086701">
        <ele>92.66433544829488</ele>
        <time>2026-09-17T00:01:03Z</time>
      </trkpt>
      <trkpt lat="34.835604305960345" lon="113.65161087913218">
        <ele>92.4457909502089</ele>
        <time>2026-09-17T00:01:06Z</time>
      </trkpt>
      <trkpt lat="34.83563372432242" lon="113.651449549216">
        <ele>91.5704161869362</ele>
        <time>2026-09-17T00:01:15Z</time>
      </trkpt>
      <trkpt lat="34.8356109695034" lon="113.65131924165776">
        <ele>91.0525273680687</ele>
        <time>2026-09-17T00:01:21Z</time>
      </trkpt>
      <trkpt lat="34.835660323403644" lon="113.65123739543658">
        <ele>89.56429427023977</ele>
        <time>2026-09-17T00:01:24Z</time>
      </trkpt>
      <trkpt lat="34.83574845776225" lon="113.65124599439918">
        <ele>88.7007496887818</ele>
        <time>2026-09-17T00:01:27Z</time>
      </trkpt>
      <trkpt lat="34.83594159356347" lon="113.65114362704786">
        <ele>88.74968670867383</ele>
        <time>2026-09-17T00:01:39Z</time>
      </trkpt>
      <trkpt lat="34.83613329367925" lon="113.65108739069426">
        <ele>89.63688221853226</ele>
        <time>2026-09-17T00:01:48Z</time>
      </trkpt>
      <trkpt lat="34.836248795538104" lon="113.65102132038363">
        <ele>89.58650780189782</ele>
        <time>2026-09-17T00:01:54Z</time>
      </trkpt>
      <trkpt lat="34.836480928391474" lon="113.65093008381784">
        <ele>89.5196642819792</ele>
        <time>2026-09-17T00:02:06Z</time>
      </trkpt>
      <trkpt lat="34.83654126217822" lon="113.65096300908141">
        <ele>90.37057529669255</ele>
        <time>2026-09-17T00:02:09Z</time>
      </trkpt>
      <trkpt lat="34.83660390591056" lon="113.6510403255665">
        <ele>89.466956297867</ele>
        <time>2026-09-17T00:02:15Z</time>
      </trkpt>
      <trkpt lat="34.83665516416571" lon="113.65104966588815">
        <ele>89.76064870972186</ele>
        <time>2026-09-17T00:02:18Z</time>
      </trkpt>
      <trkpt lat="34.83682782906323" lon="113.65098379731906">
        <ele>89.30663573089987</ele>
        <time>2026-09-17T00:02:27Z</time>
      </trkpt>
      <trkpt lat="34.83694229461406" lon="113.65101272018995">
        <ele>89.25594133418053</ele>
        <time>2026-09-17T00:02:33Z</time>
      </trkpt>
      <trkpt lat="34.83714372553227" lon="113.65112532396628">
        <ele>90.24677934125066</ele>
        <time>2026-09-17T00:02:45Z</time>
      </trkpt>
      <trkpt lat="34.83747507907415" lon="113.65106828122278">
        <ele>88.68415865302086</ele>
        <time>2026-09-17T00:03:02Z</time>
      </trkpt>
      <trkpt lat="34.83755631409701" lon="113.65105559471237">
        <ele>89.85687428619713</ele>
        <time>2026-09-17T00:03:06Z</time>
      </trkpt>
      <trkpt lat="34.83768055264436" lon="113.65096262516923">
        <ele>89.19897066429257</ele>
        <time>2026-09-17T00:03:13Z</time>
      </trkpt>
      <trkpt lat="34.837733903530236" lon="113.65095488634702">
        <ele>90.06109212804586</ele>
        <time>2026-09-17T00:03:16Z</time>
      </trkpt>
      <trkpt lat="34.83783243253217" lon="113.65099415728793">
        <ele>91.40525925159454</ele>
        <time>2026-09-17T00:03:22Z</time>
      </trkpt>
      <trkpt lat="34.838019895781684" lon="113.65094877270498">
        <ele>90.65930698253214</ele>
        <time>2026-09-17T00:03:31Z</time>
      </trkpt>
      <trkpt lat="34.83807619949113" lon="113.6509148751562">
        <ele>90.46494737267494</ele>
        <time>2026-09-17T00:03:34Z</time>
      </trkpt>
      <trkpt lat="34.838198566603495" lon="113.65088937572685">
        <ele>91.06465829443187</ele>
        <time>2026-09-17T00:03:40Z</time>
      </trkpt>
      <trkpt lat="34.838305667171255" lon="113.65081619016406">
        <ele>89.91541324649006</ele>
        <time>2026-09-17T00:03:46Z</time>
      </trkpt>
      <trkpt lat="34.83847784131841" lon="113.65076374268158">
        <ele>89.10588821396232</ele>
        <time>2026-09-17T00:03:55Z</time>
      </trkpt>
      <trkpt lat="34.83858163690283" lon="113.65069295229661">
        <ele>90.18755900394171</ele>
        <time>2026-09-17T00:04:01Z</time>
      </trkpt>
      <trkpt lat="34.838760147365974" lon="113.65064059306437">
        <ele>90.72768113389611</ele>
        <time>2026-09-17T00:04:10Z</time>
      </trkpt>
      <trkpt lat="34.839022013619186" lon="113.65049686474632">
        <ele>90.66872840747237</ele>
        <time>2026-09-17T00:04:25Z</time>
      </trkpt>
      <trkpt lat="34.83919251115938" lon="113.65040676907122">
        <ele>90.38647035416216</ele>
        <time>2026-09-17T00:04:34Z</time>
      </trkpt>
      <trkpt lat="34.839325704624414" lon="113.65041817688993">
        <ele>91.39026662893593</ele>
        <time>2026-09-17T00:04:40Z</time>
      </trkpt>
      <trkpt lat="34.83950176041656" lon="113.65061524051858">
        <ele>92.58341193385422</ele>
        <time>2026-09-17T00:04:52Z</time>
      </trkpt>
      <trkpt lat="34.839565734589726" lon="113.65064820961283">
        <ele>92.5075157545507</ele>
        <time>2026-09-17T00:04:55Z</time>
      </trkpt>
      <trkpt lat="34.839861813311806" lon="113.65052617608588">
        <ele>91.17708238400519</ele>
        <time>2026-09-17T00:05:11Z</time>
      </trkpt>
      <trkpt lat="34.84001200524315" lon="113.65043944028703">
        <ele>92.31368621811271</ele>
        <time>2026-09-17T00:05:20Z</time>
      </trkpt>
      <trkpt lat="34.84005535281596" lon="113.65038014806382">
        <ele>91.12996772676706</ele>
        <time>2026-09-17T00:05:23Z</time>
      </trkpt>
      <trkpt lat="34.84007305669141" lon="113.65018985371728">
        <ele>91.67186176404357</ele>
        <time>2026-09-17T00:05:32Z</time>
      </trkpt>
      <trkpt lat="34.84002432674192" lon="113.65006624320038">
        <ele>92.09561716672033</ele>
        <time>2026-09-17T00:05:38Z</time>
      </trkpt>
      <trkpt lat="34.839917747156136" lon="113.64991629985629">
        <ele>90.65609931852669</ele>
        <time>2026-09-17T00:05:50Z</time>
      </trkpt>
      <trkpt lat="34.83986236304152" lon="113.64987681710741">
        <ele>90.66839171107858</ele>
        <time>2026-09-17T00:05:56Z</time>
      </trkpt>
      <trkpt lat="34.839800339971994" lon="113.64978723380602">
        <ele>90.57875424809754</ele>
        <time>2026-09-17T00:06:02Z</time>
      </trkpt>
      <trkpt lat="34.839654984203946" lon="113.64972857938302">
        <ele>90.80008437484503</ele>
        <time>2026-09-17T00:06:08Z</time>
      </trkpt>
      <trkpt lat="34.83960846911904" lon="113.64968968131265">
        <ele>90.5901959631592</ele>
        <time>2026-09-17T00:06:11Z</time>
      </trkpt>
      <trkpt lat="34.83965627381336" lon="113.64954487633334">
        <ele>89.3130898764357</ele>
        <time>2026-09-17T00:06:17Z</time>
      </trkpt>
      <trkpt lat="34.83965020126343" lon="113.64945336647224">
        <ele>88.80487518478185</ele>
        <time>2026-09-17T00:06:20Z</time>
      </trkpt>
      <trkpt lat="34.83959282442623" lon="113.64945067038084">
        <ele>87.27016415446997</ele>
        <time>2026-09-17T00:06:23Z</time>
      </trkpt>
      <trkpt lat="34.83933634691001" lon="113.64956793636539">
        <ele>89.08581166062504</ele>
        <time>2026-09-17T00:06:35Z</time>
      </trkpt>
      <trkpt lat="34.839227668641925" lon="113.64959169075894">
        <ele>88.5980787621811</ele>
        <time>2026-09-17T00:06:41Z</time>
      </trkpt>
      <trkpt lat="34.8391764398952" lon="113.64962446204422">
        <ele>88.76970543526113</ele>
        <time>2026-09-17T00:06:44Z</time>
      </trkpt>
      <trkpt lat="34.83906219845243" lon="113.64976543014714">
        <ele>88.20450011920184</ele>
        <time>2026-09-17T00:06:53Z</time>
      </trkpt>
      <trkpt lat="34.8389593062098" lon="113.64983196963978">
        <ele>89.21636218205094</ele>
        <time>2026-09-17T00:06:59Z</time>
      </trkpt>
      <trkpt lat="34.838920673235144" lon="113.6498754957891">
        <ele>89.17229541484267</ele>
        <time>2026-09-17T00:07:02Z</time>
      </trkpt>
      <trkpt lat="34.838609909510275" lon="113.65001959814415">
        <ele>87.36278769746423</ele>
        <time>2026-09-17T00:07:18Z</time>
      </trkpt>
      <trkpt lat="34.838541953114685" lon="113.65006014050398">
        <ele>87.59297977853566</ele>
        <time>2026-09-17T00:07:21Z</time>
      </trkpt>
      <trkpt lat="34.83831905322574" lon="113.65008313701759">
        <ele>86.5015680026263</ele>
        <time>2026-09-17T00:07:33Z</time>
      </trkpt>
      <trkpt lat="34.8382172621717" lon="113.65015569271132">
        <ele>86.82678801938891</ele>
        <time>2026-09-17T00:07:39Z</time>
      </trkpt>
      <trkpt lat="34.83811648101323" lon="113.65019790048673">
        <ele>86.17090070992708</ele>
        <time>2026-09-17T00:07:45Z</time>
      </trkpt>
      <trkpt lat="34.837979465144706" lon="113.65036717851989">
        <ele>86.32523652445525</ele>
        <time>2026-09-17T00:07:54Z</time>
      </trkpt>
      <trkpt lat="34.83791125189047" lon="113.6503794278584">
        <ele>85.69937575049698</ele>
        <time>2026-09-17T00:07:57Z</time>
      </trkpt>
      <trkpt lat="34.83777757478716" lon="113.65048336910317">
        <ele>85.678696827963</ele>
        <time>2026-09-17T00:08:06Z</time>
      </trkpt>
      <trkpt lat="34.83759002982265" lon="113.65056716797086">
        <ele>85.54932050872594</ele>
        <time>2026-09-17T00:08:15Z</time>
      </trkpt>
      <trkpt lat="34.837369037663194" lon="113.65060499212412">
        <ele>85.58204949833453</ele>
        <time>2026-09-17T00:08:27Z</time>
      </trkpt>
      <trkpt lat="34.837241999245364" lon="113.65061201116134">
        <ele>85.79229007661343</ele>
        <time>2026-09-17T00:08:33Z</time>
      </trkpt>
      <trkpt lat="34.837196946602866" lon="113.650633163863">
        <ele>86.33518421743065</ele>
        <time>2026-09-17T00:08:36Z</time>
      </trkpt>
      <trkpt lat="34.837038815579994" lon="113.65063277849738">
        <ele>86.35975403804332</ele>
        <time>2026-09-17T00:08:42Z</time>
      </trkpt>
      <trkpt lat="34.836759023447826" lon="113.65075836030208">
        <ele>87.1522807655856</ele>
        <time>2026-09-17T00:08:57Z</time>
      </trkpt>
      <trkpt lat="34.83647652137081" lon="113.65088617973973">
        <ele>88.89767506998032</ele>
        <time>2026-09-17T00:09:12Z</time>
      </trkpt>
      <trkpt lat="34.83619160018164" lon="113.65100511855101">
        <ele>89.24027869850397</ele>
        <time>2026-09-17T00:09:28Z</time>
      </trkpt>
      <trkpt lat="34.835903876626034" lon="113.65111767697904">
        <ele>89.76709073316306</ele>
        <time>2026-09-17T00:09:43Z</time>
      </trkpt>
      <trkpt lat="34.835798456596955" lon="113.65115800756355">
        <ele>89.338677293621</ele>
        <time>2026-09-17T00:09:49Z</time>
      </trkpt>
      <trkpt lat="34.83557959147087" lon="113.65121206776504">
        <ele>86.87435913830996</ele>
        <time>2026-09-17T00:10:01Z</time>
      </trkpt>
      <trkpt lat="34.8354446179992" lon="113.65131526809542">
        <ele>86.74134542327374</ele>
        <time>2026-09-17T00:10:10Z</time>
      </trkpt>
      <trkpt lat="34.83539622263289" lon="113.65129814376436">
        <ele>87.0961940754205</ele>
        <time>2026-09-17T00:10:13Z</time>
      </trkpt>
      <trkpt lat="34.83534437506303" lon="113.65125102020835">
        <ele>86.87895045429468</ele>
        <time>2026-09-17T00:10:16Z</time>
      </trkpt>
      <trkpt lat="34.83514152514889" lon="113.651281767477">
        <ele>85.6546536711976</ele>
        <time>2026-09-17T00:10:28Z</time>
      </trkpt>
      <trkpt lat="34.83493684565799" lon="113.65134714154182">
        <ele>86.20984349120408</ele>
        <time>2026-09-17T00:10:37Z</time>
      </trkpt>
      <trkpt lat="34.83487164409932" lon="113.65134039124081">
        <ele>86.30453427229077</ele>
        <time>2026-09-17T00:10:40Z</time>
      </trkpt>
      <trkpt lat="34.83480622951706" lon="113.65136656986972">
        <ele>86.23075841832906</ele>
        <time>2026-09-17T00:10:43Z</time>
      </trkpt>
      <trkpt lat="34.83466215149063" lon="113.65138939244316">
        <ele>86.38568518310785</ele>
        <time>2026-09-17T00:10:49Z</time>
      </trkpt>
      <trkpt lat="34.834607998057244" lon="113.65146785272307">
        <ele>86.61887129023671</ele>
        <time>2026-09-17T00:10:55Z</time>
      </trkpt>
      <trkpt lat="34.83449929121662" lon="113.65156588568337">
        <ele>86.33446092531085</ele>
        <time>2026-09-17T00:10:58Z</time>
      </trkpt>
      <trkpt lat="34.834569456694396" lon="113.65167033209609">
        <ele>85.91781777050346</ele>
        <time>2026-09-17T00:11:01Z</time>
      </trkpt>
      <trkpt lat="34.834292183477196" lon="113.65175171030782">
        <ele>84.64389470405877</ele>
        <time>2026-09-17T00:11:16Z</time>
      </trkpt>
      <trkpt lat="34.83422597019195" lon="113.65173666081735">
        <ele>87.0372149636969</ele>
        <time>2026-09-17T00:11:19Z</time>
      </trkpt>
      <trkpt lat="34.834090851254984" lon="113.65181634363027">
        <ele>87.18727212585509</ele>
        <time>2026-09-17T00:11:26Z</time>
      </trkpt>
      <trkpt lat="34.83399829521828" lon="113.65178790616172">
        <ele>86.96409969311208</ele>
        <time>2026-09-17T00:11:30Z</time>
      </trkpt>
      <trkpt lat="34.83376468397955" lon="113.65202989538751">
        <ele>86.42426898423582</ele>
        <time>2026-09-17T00:11:45Z</time>
      </trkpt>
      <trkpt lat="34.833658917998825" lon="113.6521142090629">
        <ele>85.99607876874506</ele>
        <time>2026-09-17T00:11:51Z</time>
      </trkpt>
      <trkpt lat="34.83355720681021" lon="113.6521211602828">
        <ele>85.86884386558086</ele>
        <time>2026-09-17T00:11:54Z</time>
      </trkpt>
      <trkpt lat="34.83355437086559" lon="113.65220567814882">
        <ele>87.52094830572605</ele>
        <time>2026-09-17T00:12:03Z</time>
      </trkpt>
      <trkpt lat="34.83341792617993" lon="113.65224735715115">
        <ele>87.96415109466761</ele>
        <time>2026-09-17T00:12:09Z</time>
      </trkpt>
      <trkpt lat="34.83330978043986" lon="113.65235862655878">
        <ele>87.56105022877455</ele>
        <time>2026-09-17T00:12:15Z</time>
      </trkpt>
      <trkpt lat="34.83322193061776" lon="113.6523666579879">
        <ele>86.88694779854268</ele>
        <time>2026-09-17T00:12:18Z</time>
      </trkpt>
      <trkpt lat="34.83315842402638" lon="113.6524165344977">
        <ele>87.53373560961336</ele>
        <time>2026-09-17T00:12:21Z</time>
      </trkpt>
      <trkpt lat="34.83307359547698" lon="113.65240918591239">
        <ele>86.80958968307823</ele>
        <time>2026-09-17T00:12:24Z</time>
      </trkpt>
      <trkpt lat="34.83309263799782" lon="113.65252019169468">
        <ele>86.1477229502052</ele>
        <time>2026-09-17T00:12:27Z</time>
      </trkpt>
      <trkpt lat="34.83297862229024" lon="113.65257812371608">
        <ele>85.87340571545064</ele>
        <time>2026-09-17T00:12:33Z</time>
      </trkpt>
      <trkpt lat="34.83283448150124" lon="113.6525780741613">
        <ele>86.07949469424784</ele>
        <time>2026-09-17T00:12:39Z</time>
      </trkpt>
      <trkpt lat="34.832686566532274" lon="113.6525001279612">
        <ele>85.45006169658154</ele>
        <time>2026-09-17T00:12:45Z</time>
      </trkpt>
      <trkpt lat="34.832562821020595" lon="113.65235271669746">
        <ele>84.88167496956885</ele>
        <time>2026-09-17T00:12:48Z</time>
      </trkpt>
      <trkpt lat="34.83258310742721" lon="113.65255794781824">
        <ele>85.37271670531482</ele>
        <time>2026-09-17T00:12:54Z</time>
      </trkpt>
      <trkpt lat="34.832501856194725" lon="113.65262178311603">
        <ele>86.30068447999656</ele>
        <time>2026-09-17T00:13:00Z</time>
      </trkpt>
      <trkpt lat="34.83246754041047" lon="113.65264670884494">
        <ele>87.6805616253987</ele>
        <time>2026-09-17T00:13:02Z</time>
      </trkpt>
      <trkpt lat="34.83239902560975" lon="113.65274665042645">
        <ele>88.11541024595499</ele>
        <time>2026-09-17T00:13:08Z</time>
      </trkpt>
      <trkpt lat="34.83217069576766" lon="113.65296919633002">
        <ele>88.07300741784275</ele>
        <time>2026-09-17T00:13:27Z</time>
      </trkpt>
      <trkpt lat="34.831877888943616" lon="113.65308504516125">
        <ele>89.12515281233937</ele>
        <time>2026-09-17T00:13:45Z</time>
      </trkpt>
      <trkpt lat="34.8317967496053" lon="113.65312241291817">
        <ele>88.99734525568783</ele>
        <time>2026-09-17T00:13:51Z</time>
      </trkpt>
      <trkpt lat="34.83158193542664" lon="113.65312330241676">
        <ele>87.51408140733838</ele>
        <time>2026-09-17T00:14:06Z</time>
      </trkpt>
      <trkpt lat="34.831455240913755" lon="113.65308183718805">
        <ele>90.49152519367635</ele>
        <time>2026-09-17T00:14:12Z</time>
      </trkpt>
      <trkpt lat="34.83133060758725" lon="113.65310415742314">
        <ele>91.1620091991499</ele>
        <time>2026-09-17T00:14:18Z</time>
      </trkpt>
      <trkpt lat="34.83124561303318" lon="113.65316564078127">
        <ele>90.95143437106162</ele>
        <time>2026-09-17T00:14:24Z</time>
      </trkpt>
      <trkpt lat="34.83119240879989" lon="113.65318346343646">
        <ele>89.99582166038454</ele>
        <time>2026-09-17T00:14:27Z</time>
      </trkpt>
      <trkpt lat="34.83101111976035" lon="113.6533495575606">
        <ele>90.59887882787734</ele>
        <time>2026-09-17T00:14:39Z</time>
      </trkpt>
      <trkpt lat="34.830917843802226" lon="113.65367969290261">
        <ele>90.55539873428643</ele>
        <time>2026-09-17T00:14:57Z</time>
      </trkpt>
      <trkpt lat="34.830899101478714" lon="113.65372937804517">
        <ele>91.08038214221597</ele>
        <time>2026-09-17T00:15:00Z</time>
      </trkpt>
      <trkpt lat="34.830837520154006" lon="113.65379082287535">
        <ele>90.38214395474643</ele>
        <time>2026-09-17T00:15:06Z</time>
      </trkpt>
      <trkpt lat="34.830837520154006" lon="113.65379082287535">
        <ele>90.38214395474643</ele>
        <time>2026-09-17T00:15:11Z</time>
      </trkpt>
    </trkseg>
  </trk>
</gpx>