<?xml version="1.0" encoding="UTF-8"?>
<gpx xmlns="http://www.topografix.com/GPX/1/1" xmlns:gpxtpx="http://www.garmin.com/xmlschemas/TrackPointExtension/v1" xmlns:xsi="http://www.w3.org/2001/XMLSchema-instance" xsi:schemaLocation="http://www.topografix.com/GPX/1/1 http://www.topografix.com/GPX/1/1/gpx.xsd" version="1.1" creator="gpx.py -- https://github.com/tkrajina/gpxpy">
  <trk>
    <name>gpx from keep</name>
    <type>Run</type>
    <trkseg>
      <trkpt lat="34.83067095252761" lon="113.6562434318087">
        <ele>84.98280513845384</ele>
        <time>2026-08-12T11:29:03Z</time>
      </trkpt>
      <trkpt lat="34.8305742865714" lon="113.65627613255978">
        <ele>83.63838337361813</ele>
        <time>2026-08-12T11:29:09Z</time>
      </trkpt>
      <trkpt lat="34.83047080474522" lon="113.65623088077838">
        <ele>84.31928329635412</ele>
        <time>2026-08-12T11:29:15Z</time>
      </trkpt>
      <trkpt lat="34.830401901535225" lon="113.65600985891002">
        <ele>83.47324554715306</ele>
        <time>2026-08-12T11:29:24Z</time>
      </trkpt>
      <trkpt lat="34.83039792815963" lon="113.65584759569128">
        <ele>84.26404945831746</ele>
        <time>2026-08-12T11:29:30Z</time>
      </trkpt>
      <trkpt lat="34.83061066235518" lon="113.65571611821704">
        <ele>85.5781235434115</ele>
        <time>2026-08-12T11:29:42Z</time>
      </trkpt>
      <trkpt lat="34.83087111441138" lon="113.65562483794011">
        <ele>84.39315821509808</ele>
        <time>2026-08-12T11:29:54Z</time>
      </trkpt>
      <trkpt lat="34.83112997886684" lon="113.65548053771523">
        <ele>87.01289308164269</ele>
        <time>2026-08-12T11:30:07Z</time>
      </trkpt>
      <trkpt lat="34.83125140398573" lon="113.6554383885968">
        <ele>86.83240653667599</ele>
        <time>2026-08-12T11:30:13Z</time>
      </trkpt>
      <trkpt lat="34.83137944930103" lon="113.65536899776059">
        <ele>87.07399682607502</ele>
        <time>2026-08-12T11:30:19Z</time>
      </trkpt>
      <trkpt lat="34.831458725097235" lon="113.6552779886091">
        <ele>86.96406503021717</ele>
        <time>2026-08-12T11:30:25Z</time>
      </trkpt>
      <trkpt lat="34.83152608345156" lon="113.65526688398867">
        <ele>85.20018593221903</ele>
        <time>2026-08-12T11:30:28Z</time>
      </trkpt>
      <trkpt lat="34.83178409130113" lon="113.65516147825026">
        <ele>84.63778595812619</ele>
        <time>2026-08-12T11:30:40Z</time>
      </trkpt>
      <trkpt lat="34.83200684934669" lon="113.65504300418856">
        <ele>84.84500830993056</ele>
        <time>2026-08-12T11:30:49Z</time>
      </trkpt>
      <trkpt lat="34.832283720459074" lon="113.65493281411732">
        <ele>87.89600010868162</ele>
        <time>2026-08-12T11:31:01Z</time>
      </trkpt>
      <trkpt lat="34.83259984617355" lon="113.6548026182901">
        <ele>89.5616195127368</ele>
        <time>2026-08-12T11:31:13Z</time>
      </trkpt>
      <trkpt lat="34.83271763031562" lon="113.6547711050893">
        <ele>90.10277508664876</ele>
        <time>2026-08-12T11:31:19Z</time>
      </trkpt>
      <trkpt lat="34.83267972656861" lon="113.65473158903686">
        <ele>89.47361260466278</ele>
        <time>2026-08-12T11:31:28Z</time>
      </trkpt>
      <trkpt lat="34.83266724080412" lon="113.6546629109714">
        <ele>89.60757291689515</ele>
        <time>2026-08-12T11:31:31Z</time>
      </trkpt>
      <trkpt lat="34.832702791290544" lon="113.6546064020382">
        <ele>90.29695784952492</ele>
        <time>2026-08-12T11:31:34Z</time>
      </trkpt>
      <trkpt lat="34.832883547773925" lon="113.65449719149059">
        <ele>90.69283046387136</ele>
        <time>2026-08-12T11:31:43Z</time>
      </trkpt>
      <trkpt lat="34.83292559814227" lon="113.65442628866347">
        <ele>89.46953949704766</ele>
        <time>2026-08-12T11:31:46Z</time>
      </trkpt>
      <trkpt lat="34.832994918098144" lon="113.6543711293412">
        <ele>90.71237697266042</ele>
        <time>2026-08-12T11:31:49Z</time>
      </trkpt>
      <trkpt lat="34.833261231989795" lon="113.6542372561003">
        <ele>88.25405851379037</ele>
        <time>2026-08-12T11:32:01Z</time>
      </trkpt>
      <trkpt lat="34.833365589205584" lon="113.65420037791793">
        <ele>89.82032689079642</ele>
        <time>2026-08-12T11:32:07Z</time>
      </trkpt>
      <trkpt lat="34.83338126366859" lon="113.65411693920046">
        <ele>89.7726723710075</ele>
        <time>2026-08-12T11:32:11Z</time>
      </trkpt>
      <trkpt lat="34.83332450599306" lon="113.65403885579303">
        <ele>90.01357082556933</ele>
        <time>2026-08-12T11:32:15Z</time>
      </trkpt>
      <trkpt lat="34.83326713112724" lon="113.65402483423094">
        <ele>90.35991556569934</ele>
        <time>2026-08-12T11:32:19Z</time>
      </trkpt>
      <trkpt lat="34.83323005671383" lon="113.65398154784181">
        <ele>89.92591781914234</ele>
        <time>2026-08-12T11:32:23Z</time>
      </trkpt>
      <trkpt lat="34.833335204416585" lon="113.65415527172453">
        <ele>94.36998941190541</ele>
        <time>2026-08-12T11:32:26Z</time>
      </trkpt>
      <trkpt lat="34.8332947470212" lon="113.65400263414472">
        <ele>94.38664803871842</ele>
        <time>2026-08-12T11:33:20Z</time>
      </trkpt>
      <trkpt lat="34.83329414216916" lon="113.6539446719711">
        <ele>89.42897822428495</ele>
        <time>2026-08-12T11:33:51Z</time>
      </trkpt>
      <trkpt lat="34.83326343660976" lon="113.65403460764391">
        <ele>84.9389302097261</ele>
        <time>2026-08-12T11:33:54Z</time>
      </trkpt>
      <trkpt lat="34.8332202007151" lon="113.65401612616489">
        <ele>83.90372237470001</ele>
        <time>2026-08-12T11:33:57Z</time>
      </trkpt>
      <trkpt lat="34.833139577731615" lon="113.65404096985768">
        <ele>84.21236563380808</ele>
        <time>2026-08-12T11:34:03Z</time>
      </trkpt>
      <trkpt lat="34.833065919952105" lon="113.65415900827838">
        <ele>84.77474404964596</ele>
        <time>2026-08-12T11:34:09Z</time>
      </trkpt>
      <trkpt lat="34.83293973472027" lon="113.6544695173806">
        <ele>84.640819106251</ele>
        <time>2026-08-12T11:34:20Z</time>
      </trkpt>
      <trkpt lat="34.83286201092734" lon="113.65452757045401">
        <ele>84.76632060296834</ele>
        <time>2026-08-12T11:34:24Z</time>
      </trkpt>
      <trkpt lat="34.832784411816796" lon="113.65447986076845">
        <ele>83.10180963482708</ele>
        <time>2026-08-12T11:34:28Z</time>
      </trkpt>
      <trkpt lat="34.83249818314815" lon="113.65456720654846">
        <ele>84.44013570528477</ele>
        <time>2026-08-12T11:34:40Z</time>
      </trkpt>
      <trkpt lat="34.83220174444055" lon="113.65452434107685">
        <ele>84.79085412807763</ele>
        <time>2026-08-12T11:34:53Z</time>
      </trkpt>
      <trkpt lat="34.83186901416687" lon="113.6544974443319">
        <ele>85.42961563449353</ele>
        <time>2026-08-12T11:35:08Z</time>
      </trkpt>
      <trkpt lat="34.83165565288708" lon="113.65449413839343">
        <ele>85.97842479404062</ele>
        <time>2026-08-12T11:35:17Z</time>
      </trkpt>
      <trkpt lat="34.83142977262546" lon="113.65454169413542">
        <ele>85.50482787005603</ele>
        <time>2026-08-12T11:35:26Z</time>
      </trkpt>
      <trkpt lat="34.8313544663767" lon="113.65457357305395">
        <ele>85.50178216956556</ele>
        <time>2026-08-12T11:35:29Z</time>
      </trkpt>
      <trkpt lat="34.8313044279042" lon="113.65461663723514">
        <ele>85.24787412211299</ele>
        <time>2026-08-12T11:35:32Z</time>
      </trkpt>
      <trkpt lat="34.831249842994524" lon="113.65463315585349">
        <ele>85.94798285793513</ele>
        <time>2026-08-12T11:35:35Z</time>
      </trkpt>
      <trkpt lat="34.83103645270637" lon="113.65478999818158">
        <ele>86.79034990258515</ele>
        <time>2026-08-12T11:35:44Z</time>
      </trkpt>
      <trkpt lat="34.83090751085894" lon="113.65485301082013">
        <ele>86.90963663998991</ele>
        <time>2026-08-12T11:35:50Z</time>
      </trkpt>
      <trkpt lat="34.83064980671213" lon="113.65504239574298">
        <ele>86.76166384294629</ele>
        <time>2026-08-12T11:36:05Z</time>
      </trkpt>
      <trkpt lat="34.830601832859976" lon="113.65504835689251">
        <ele>85.06432804092765</ele>
        <time>2026-08-12T11:36:08Z</time>
      </trkpt>
      <trkpt lat="34.83047870864049" lon="113.655187685345">
        <ele>84.26779533922672</ele>
        <time>2026-08-12T11:36:14Z</time>
      </trkpt>
      <trkpt lat="34.83034848971499" lon="113.6552841381484">
        <ele>85.22596036549658</ele>
        <time>2026-08-12T11:36:20Z</time>
      </trkpt>
      <trkpt lat="34.83031424429624" lon="113.65537236835445">
        <ele>85.4517485210672</ele>
        <time>2026-08-12T11:36:24Z</time>
      </trkpt>
      <trkpt lat="34.83016621720273" lon="113.65548364164972">
        <ele>84.52378004603088</ele>
        <time>2026-08-12T11:36:32Z</time>
      </trkpt>
      <trkpt lat="34.83001627088764" lon="113.65556902278473">
        <ele>84.93405480310321</ele>
        <time>2026-08-12T11:36:40Z</time>
      </trkpt>
      <trkpt lat="34.82993713661827" lon="113.65559574403947">
        <ele>83.87350757606328</ele>
        <time>2026-08-12T11:36:44Z</time>
      </trkpt>
      <trkpt lat="34.8298464515649" lon="113.65559982911054">
        <ele>83.66582144703716</ele>
        <time>2026-08-12T11:36:48Z</time>
      </trkpt>
      <trkpt lat="34.82958457037049" lon="113.65571893520304">
        <ele>84.17517326865345</ele>
        <time>2026-08-12T11:37:01Z</time>
      </trkpt>
      <trkpt lat="34.82931352386125" lon="113.65580860995182">
        <ele>84.1945791086182</ele>
        <time>2026-08-12T11:37:13Z</time>
      </trkpt>
      <trkpt lat="34.82918308461328" lon="113.65584423053467">
        <ele>85.35986896511167</ele>
        <time>2026-08-12T11:37:19Z</time>
      </trkpt>
      <trkpt lat="34.82911358144078" lon="113.6558829634836">
        <ele>85.53830180317163</ele>
        <time>2026-08-12T11:37:22Z</time>
      </trkpt>
      <trkpt lat="34.82905734913898" lon="113.65593753695445">
        <ele>83.79037843644619</ele>
        <time>2026-08-12T11:37:25Z</time>
      </trkpt>
      <trkpt lat="34.828783798861124" lon="113.6560961067072">
        <ele>82.63616553787142</ele>
        <time>2026-08-12T11:37:37Z</time>
      </trkpt>
      <trkpt lat="34.82872056071001" lon="113.65613174393332">
        <ele>81.88377573434263</ele>
        <time>2026-08-12T11:37:40Z</time>
      </trkpt>
      <trkpt lat="34.828495718921474" lon="113.65616651821452">
        <ele>82.20208882261068</ele>
        <time>2026-08-12T11:37:49Z</time>
      </trkpt>
      <trkpt lat="34.82837487062373" lon="113.65622739965167">
        <ele>81.27806808426976</ele>
        <time>2026-08-12T11:37:55Z</time>
      </trkpt>
      <trkpt lat="34.828250413267405" lon="113.6562867166538">
        <ele>81.47429600171745</ele>
        <time>2026-08-12T11:38:01Z</time>
      </trkpt>
      <trkpt lat="34.82805142594542" lon="113.65633952967863">
        <ele>80.9511786121875</ele>
        <time>2026-08-12T11:38:10Z</time>
      </trkpt>
      <trkpt lat="34.82799403287769" lon="113.6563806279507">
        <ele>80.21886401064694</ele>
        <time>2026-08-12T11:38:13Z</time>
      </trkpt>
      <trkpt lat="34.827715545961745" lon="113.65645966179933">
        <ele>80.46168457809836</ele>
        <time>2026-08-12T11:38:25Z</time>
      </trkpt>
      <trkpt lat="34.827454581656795" lon="113.6565645719098">
        <ele>80.56595434527844</ele>
        <time>2026-08-12T11:38:37Z</time>
      </trkpt>
      <trkpt lat="34.82719523113399" lon="113.65668886349323">
        <ele>80.80036220420152</ele>
        <time>2026-08-12T11:38:49Z</time>
      </trkpt>
      <trkpt lat="34.82710941833621" lon="113.65669956422782">
        <ele>80.66316736396402</ele>
        <time>2026-08-12T11:38:53Z</time>
      </trkpt>
      <trkpt lat="34.827049929222525" lon="113.65674835777028">
        <ele>80.9884127061814</ele>
        <time>2026-08-12T11:38:57Z</time>
      </trkpt>
      <trkpt lat="34.826930157365474" lon="113.65678029559717">
        <ele>79.54021826852113</ele>
        <time>2026-08-12T11:39:03Z</time>
      </trkpt>
      <trkpt lat="34.82672365706641" lon="113.65689433554348">
        <ele>80.91452392656356</ele>
        <time>2026-08-12T11:39:15Z</time>
      </trkpt>
      <trkpt lat="34.82643343979901" lon="113.65698935218356">
        <ele>80.9096489213407</ele>
        <time>2026-08-12T11:39:30Z</time>
      </trkpt>
      <trkpt lat="34.82612766094132" lon="113.65709897661775">
        <ele>82.90118860919029</ele>
        <time>2026-08-12T11:39:45Z</time>
      </trkpt>
      <trkpt lat="34.825936779876706" lon="113.65718497722342">
        <ele>82.76329151820391</ele>
        <time>2026-08-12T11:39:54Z</time>
      </trkpt>
      <trkpt lat="34.8256407627562" lon="113.65725837221696">
        <ele>82.07977639697492</ele>
        <time>2026-08-12T11:40:09Z</time>
      </trkpt>
      <trkpt lat="34.82541202653985" lon="113.65732767768654">
        <ele>79.7380015635863</ele>
        <time>2026-08-12T11:40:21Z</time>
      </trkpt>
      <trkpt lat="34.82509272126849" lon="113.65744851291399">
        <ele>80.31061670277268</ele>
        <time>2026-08-12T11:40:38Z</time>
      </trkpt>
      <trkpt lat="34.82496361323217" lon="113.65749525019612">
        <ele>80.91183308698237</ele>
        <time>2026-08-12T11:40:46Z</time>
      </trkpt>
      <trkpt lat="34.82490959770464" lon="113.65754033521054">
        <ele>81.02250254247338</ele>
        <time>2026-08-12T11:40:50Z</time>
      </trkpt>
      <trkpt lat="34.824856129182145" lon="113.6575390525332">
        <ele>79.83370518125594</ele>
        <time>2026-08-12T11:40:53Z</time>
      </trkpt>
      <trkpt lat="34.824602930640424" lon="113.65764756331615">
        <ele>81.29755122959614</ele>
        <time>2026-08-12T11:41:05Z</time>
      </trkpt>
      <trkpt lat="34.824290397144985" lon="113.65775730671831">
        <ele>82.43015782069415</ele>
        <time>2026-08-12T11:41:20Z</time>
      </trkpt>
      <trkpt lat="34.82403843793208" lon="113.65790922698925">
        <ele>79.82757346052676</ele>
        <time>2026-08-12T11:41:35Z</time>
      </trkpt>
      <trkpt lat="34.82387103439092" lon="113.65799766542831">
        <ele>79.2819637292996</ele>
        <time>2026-08-12T11:41:44Z</time>
      </trkpt>
      <trkpt lat="34.823613808440264" lon="113.65807333332356">
        <ele>81.22556855063885</ele>
        <time>2026-08-12T11:41:56Z</time>
      </trkpt>
      <trkpt lat="34.82356539918244" lon="113.65810699358727">
        <ele>80.47250490821898</ele>
        <time>2026-08-12T11:41:59Z</time>
      </trkpt>
      <trkpt lat="34.82325668628752" lon="113.65822574200614">
        <ele>79.30657102912664</ele>
        <time>2026-08-12T11:42:14Z</time>
      </trkpt>
      <trkpt lat="34.8230783740509" lon="113.65827698352969">
        <ele>80.37860468868166</ele>
        <time>2026-08-12T11:42:23Z</time>
      </trkpt>
      <trkpt lat="34.82278437840584" lon="113.65839945283223">
        <ele>80.18625173717737</ele>
        <time>2026-08-12T11:42:38Z</time>
      </trkpt>
      <trkpt lat="34.822694442186744" lon="113.65842432584802">
        <ele>80.8324569137767</ele>
        <time>2026-08-12T11:42:42Z</time>
      </trkpt>
      <trkpt lat="34.822630944263466" lon="113.65846259271976">
        <ele>78.776681358926</ele>
        <time>2026-08-12T11:42:46Z</time>
      </trkpt>
      <trkpt lat="34.82263106322699" lon="113.65853440359453">
        <ele>80.6608801772818</ele>
        <time>2026-08-12T11:42:50Z</time>
      </trkpt>
      <trkpt lat="34.822667629695715" lon="113.65860444443365">
        <ele>80.40971401985735</ele>
        <time>2026-08-12T11:42:54Z</time>
      </trkpt>
      <trkpt lat="34.82270371034152" lon="113.65874746464777">
        <ele>83.21057301480323</ele>
        <time>2026-08-12T11:43:00Z</time>
      </trkpt>
      <trkpt lat="34.822684692046614" lon="113.65896576059637">
        <ele>84.08763793483377</ele>
        <time>2026-08-12T11:43:09Z</time>
      </trkpt>
      <trkpt lat="34.822702519874625" lon="113.65922252255996">
        <ele>81.49661578703672</ele>
        <time>2026-08-12T11:43:18Z</time>
      </trkpt>
      <trkpt lat="34.822686126037624" lon="113.65958072432238">
        <ele>79.6352922283113</ele>
        <time>2026-08-12T11:43:30Z</time>
      </trkpt>
      <trkpt lat="34.82265891904817" lon="113.65984220165136">
        <ele>81.02670628018677</ele>
        <time>2026-08-12T11:43:39Z</time>
      </trkpt>
      <trkpt lat="34.822657136163066" lon="113.66018268020572">
        <ele>80.46862396225333</ele>
        <time>2026-08-12T11:43:51Z</time>
      </trkpt>
      <trkpt lat="34.82263798816974" lon="113.6602741022129">
        <ele>81.50404596049339</ele>
        <time>2026-08-12T11:43:54Z</time>
      </trkpt>
      <trkpt lat="34.822665491885346" lon="113.66048283743648">
        <ele>79.84001344908029</ele>
        <time>2026-08-12T11:44:03Z</time>
      </trkpt>
      <trkpt lat="34.82271446379467" lon="113.6605684329392">
        <ele>80.07932278048247</ele>
        <time>2026-08-12T11:44:06Z</time>
      </trkpt>
      <trkpt lat="34.82268719288965" lon="113.66078253163985">
        <ele>79.37373572587967</ele>
        <time>2026-08-12T11:44:15Z</time>
      </trkpt>
      <trkpt lat="34.82272077276768" lon="113.66086026784772">
        <ele>79.70641526672989</ele>
        <time>2026-08-12T11:44:18Z</time>
      </trkpt>
      <trkpt lat="34.822684569487805" lon="113.66107233897223">
        <ele>80.98618924804032</ele>
        <time>2026-08-12T11:44:27Z</time>
      </trkpt>
      <trkpt lat="34.822687959782556" lon="113.66114867729547">
        <ele>82.4601426627487</ele>
        <time>2026-08-12T11:44:30Z</time>
      </trkpt>
      <trkpt lat="34.822673018013205" lon="113.66121964424582">
        <ele>82.06372960470617</ele>
        <time>2026-08-12T11:44:33Z</time>
      </trkpt>
      <trkpt lat="34.822703865982724" lon="113.66162830101432">
        <ele>83.96580252982676</ele>
        <time>2026-08-12T11:44:50Z</time>
      </trkpt>
      <trkpt lat="34.82269031854077" lon="113.66201116822016">
        <ele>85.99122921843082</ele>
        <time>2026-08-12T11:45:04Z</time>
      </trkpt>
      <trkpt lat="34.82268299555843" lon="113.66207437676046">
        <ele>86.14752183668315</ele>
        <time>2026-08-12T11:45:07Z</time>
      </trkpt>
      <trkpt lat="34.822650640157704" lon="113.66212558831619">
        <ele>86.69854980055243</ele>
        <time>2026-08-12T11:45:10Z</time>
      </trkpt>
      <trkpt lat="34.82266787090007" lon="113.66225876982274">
        <ele>86.53866585250944</ele>
        <time>2026-08-12T11:45:16Z</time>
      </trkpt>
      <trkpt lat="34.822650582107485" lon="113.66233358219422">
        <ele>87.12701096665114</ele>
        <time>2026-08-12T11:45:19Z</time>
      </trkpt>
      <trkpt lat="34.82266090616489" lon="113.66266097525089">
        <ele>86.6509177563712</ele>
        <time>2026-08-12T11:45:31Z</time>
      </trkpt>
      <trkpt lat="34.8226428273396" lon="113.66273373200869">
        <ele>86.56280745659024</ele>
        <time>2026-08-12T11:45:34Z</time>
      </trkpt>
      <trkpt lat="34.82268497548059" lon="113.66298422491187">
        <ele>88.29108345881104</ele>
        <time>2026-08-12T11:45:43Z</time>
      </trkpt>
      <trkpt lat="34.82268260023308" lon="113.66334428305177">
        <ele>89.08847027271986</ele>
        <time>2026-08-12T11:45:58Z</time>
      </trkpt>
      <trkpt lat="34.82269081497223" lon="113.6634863937964">
        <ele>89.69628425594419</ele>
        <time>2026-08-12T11:46:04Z</time>
      </trkpt>
      <trkpt lat="34.82279979099502" lon="113.66352047652805">
        <ele>90.04106653947383</ele>
        <time>2026-08-12T11:46:10Z</time>
      </trkpt>
      <trkpt lat="34.82309512003251" lon="113.66353227249895">
        <ele>89.9873928334564</ele>
        <time>2026-08-12T11:46:25Z</time>
      </trkpt>
      <trkpt lat="34.8232885558348" lon="113.66350996022852">
        <ele>89.45040509663522</ele>
        <time>2026-08-12T11:46:34Z</time>
      </trkpt>
      <trkpt lat="34.823524512681615" lon="113.66351588783277">
        <ele>88.91813492588699</ele>
        <time>2026-08-12T11:46:46Z</time>
      </trkpt>
      <trkpt lat="34.82380456249612" lon="113.66350337723105">
        <ele>90.03895057644695</ele>
        <time>2026-08-12T11:46:59Z</time>
      </trkpt>
      <trkpt lat="34.82410609555426" lon="113.66350624753113">
        <ele>89.18566216062754</ele>
        <time>2026-08-12T11:47:14Z</time>
      </trkpt>
      <trkpt lat="34.824394717828106" lon="113.6634805544909">
        <ele>85.07652897294611</ele>
        <time>2026-08-12T11:47:32Z</time>
      </trkpt>
      <trkpt lat="34.824503644762366" lon="113.66346673753233">
        <ele>85.1799836428836</ele>
        <time>2026-08-12T11:47:38Z</time>
      </trkpt>
      <trkpt lat="34.824803954435836" lon="113.6634642512872">
        <ele>88.333326889202</ele>
        <time>2026-08-12T11:47:53Z</time>
      </trkpt>
      <trkpt lat="34.82497564311714" lon="113.66343032319338">
        <ele>89.59499308746308</ele>
        <time>2026-08-12T11:48:02Z</time>
      </trkpt>
      <trkpt lat="34.82501935323093" lon="113.66324482657622">
        <ele>88.45452442765236</ele>
        <time>2026-08-12T11:48:11Z</time>
      </trkpt>
      <trkpt lat="34.82501500372741" lon="113.66288925635385">
        <ele>88.11897532455623</ele>
        <time>2026-08-12T11:48:26Z</time>
      </trkpt>
      <trkpt lat="34.82502527463009" lon="113.66275169101333">
        <ele>86.51343703921884</ele>
        <time>2026-08-12T11:48:32Z</time>
      </trkpt>
      <trkpt lat="34.825074921436894" lon="113.66265989943969">
        <ele>88.14468908216804</ele>
        <time>2026-08-12T11:48:38Z</time>
      </trkpt>
      <trkpt lat="34.825088184967655" lon="113.66231249577984">
        <ele>85.79667741805315</ele>
        <time>2026-08-12T11:48:53Z</time>
      </trkpt>
      <trkpt lat="34.82508039140118" lon="113.66216099525433">
        <ele>85.99252421967685</ele>
        <time>2026-08-12T11:49:00Z</time>
      </trkpt>
      <trkpt lat="34.82503758630744" lon="113.66210701762579">
        <ele>85.83831927832216</ele>
        <time>2026-08-12T11:49:03Z</time>
      </trkpt>
      <trkpt lat="34.82507419578221" lon="113.66201916029334">
        <ele>85.35436234250665</ele>
        <time>2026-08-12T11:49:09Z</time>
      </trkpt>
      <trkpt lat="34.82508572657061" lon="113.66182369742053">
        <ele>86.18784573022276</ele>
        <time>2026-08-12T11:49:18Z</time>
      </trkpt>
      <trkpt lat="34.82505939317873" lon="113.6614808776933">
        <ele>87.32249008771032</ele>
        <time>2026-08-12T11:49:33Z</time>
      </trkpt>
      <trkpt lat="34.82502626933441" lon="113.66135144922653">
        <ele>87.40219438634813</ele>
        <time>2026-08-12T11:49:39Z</time>
      </trkpt>
      <trkpt lat="34.825038190341" lon="113.66101262960852">
        <ele>87.27928756549954</ele>
        <time>2026-08-12T11:49:54Z</time>
      </trkpt>
      <trkpt lat="34.825036074680305" lon="113.66091967723108">
        <ele>87.49304019287229</ele>
        <time>2026-08-12T11:50:00Z</time>
      </trkpt>
      <trkpt lat="34.82505148245059" lon="113.66086421444972">
        <ele>87.25731372460723</ele>
        <time>2026-08-12T11:50:03Z</time>
      </trkpt>
      <trkpt lat="34.82499628041984" lon="113.66081346152471">
        <ele>88.3148104455322</ele>
        <time>2026-08-12T11:50:09Z</time>
      </trkpt>
      <trkpt lat="34.82504322377821" lon="113.66080005103146">
        <ele>86.88746290281415</ele>
        <time>2026-08-12T11:50:21Z</time>
      </trkpt>
      <trkpt lat="34.824975381444176" lon="113.66073117613487">
        <ele>83.7975049642846</ele>
        <time>2026-08-12T11:50:30Z</time>
      </trkpt>
      <trkpt lat="34.825013641169704" lon="113.66042325002516">
        <ele>85.80240488424897</ele>
        <time>2026-08-12T11:50:48Z</time>
      </trkpt>
      <trkpt lat="34.82507836762946" lon="113.66044820659467">
        <ele>85.89721214119345</ele>
        <time>2026-08-12T11:51:04Z</time>
      </trkpt>
      <trkpt lat="34.82517629763164" lon="113.6604145109063">
        <ele>87.01188965700567</ele>
        <time>2026-08-12T11:51:10Z</time>
      </trkpt>
      <trkpt lat="34.825297472201136" lon="113.6604133021898">
        <ele>85.85858013480902</ele>
        <time>2026-08-12T11:51:17Z</time>
      </trkpt>
      <trkpt lat="34.82539394400268" lon="113.66045033973064">
        <ele>86.66591148544103</ele>
        <time>2026-08-12T11:51:23Z</time>
      </trkpt>
      <trkpt lat="34.82568164969308" lon="113.66046006521465">
        <ele>89.91953971143812</ele>
        <time>2026-08-12T11:51:38Z</time>
      </trkpt>
      <trkpt lat="34.82600442715325" lon="113.6604838585225">
        <ele>91.60441785026342</ele>
        <time>2026-08-12T11:51:56Z</time>
      </trkpt>
      <trkpt lat="34.82608010773984" lon="113.66046603834964">
        <ele>91.00944853015244</ele>
        <time>2026-08-12T11:51:59Z</time>
      </trkpt>
      <trkpt lat="34.82632238778567" lon="113.66046075883676">
        <ele>93.86522155068815</ele>
        <time>2026-08-12T11:52:11Z</time>
      </trkpt>
      <trkpt lat="34.82641866928789" lon="113.66038887942162">
        <ele>94.58963927812874</ele>
        <time>2026-08-12T11:52:17Z</time>
      </trkpt>
      <trkpt lat="34.82674068744464" lon="113.66037184206407">
        <ele>95.67984577268362</ele>
        <time>2026-08-12T11:52:32Z</time>
      </trkpt>
      <trkpt lat="34.82690161984949" lon="113.66038063251843">
        <ele>94.5938640832901</ele>
        <time>2026-08-12T11:52:41Z</time>
      </trkpt>
      <trkpt lat="34.82702738574647" lon="113.66034674500327">
        <ele>95.47664581146091</ele>
        <time>2026-08-12T11:52:47Z</time>
      </trkpt>
      <trkpt lat="34.82716188774239" lon="113.6603672143287">
        <ele>95.99460726696998</ele>
        <time>2026-08-12T11:52:53Z</time>
      </trkpt>
      <trkpt lat="34.827272265291455" lon="113.66033734138715">
        <ele>93.74233814422041</ele>
        <time>2026-08-12T11:52:59Z</time>
      </trkpt>
      <trkpt lat="34.82733299594427" lon="113.66033956130346">
        <ele>94.78252364229411</ele>
        <time>2026-08-12T11:53:02Z</time>
      </trkpt>
      <trkpt lat="34.82739532729349" lon="113.6603688846414">
        <ele>95.57947838306427</ele>
        <time>2026-08-12T11:53:05Z</time>
      </trkpt>
      <trkpt lat="34.82744840805389" lon="113.66032168959667">
        <ele>94.25755112804472</ele>
        <time>2026-08-12T11:53:08Z</time>
      </trkpt>
      <trkpt lat="34.82741756907345" lon="113.6601026455674">
        <ele>90.2448596097529</ele>
        <time>2026-08-12T11:53:21Z</time>
      </trkpt>
    </trkseg>
  </trk>
</gpx>