<?xml version="1.0" encoding="UTF-8"?>
<gpx xmlns="http://www.topografix.com/GPX/1/1" xmlns:gpxtpx="http://www.garmin.com/xmlschemas/TrackPointExtension/v1" xmlns:xsi="http://www.w3.org/2001/XMLSchema-instance" xsi:schemaLocation="http://www.topografix.com/GPX/1/1 http://www.topografix.com/GPX/1/1/gpx.xsd" version="1.1" creator="gpx.py -- https://github.com/tkrajina/gpxpy">
  <trk>
    <name>gpx from keep</name>
    <type>Walk</type>
    <trkseg>
      <trkpt lat="34.82500692852329" lon="113.66447950605733">
        <ele>86.7037353515625</ele>
        <time>2026-09-25T02:00:43Z</time>
      </trkpt>
      <trkpt lat="34.82500444475658" lon="113.6644076128832">
        <ele>87.53893956169486</ele>
        <time>2026-09-25T02:00:51Z</time>
      </trkpt>
      <trkpt lat="34.82496713040457" lon="113.66437575410585">
        <ele>92.63963481783867</ele>
        <time>2026-09-25T02:01:19Z</time>
      </trkpt>
      <trkpt lat="34.82501140019393" lon="113.664362901432">
        <ele>91.9019812932238</ele>
        <time>2026-09-25T02:01:27Z</time>
      </trkpt>
      <trkpt lat="34.82506846412472" lon="113.66441559193058">
        <ele>92.85714762937278</ele>
        <time>2026-09-25T02:01:51Z</time>
      </trkpt>
      <trkpt lat="34.82511253316459" lon="113.66434961042481">
        <ele>92.97651202976704</ele>
        <time>2026-09-25T02:02:02Z</time>
      </trkpt>
      <trkpt lat="34.82504457327521" lon="113.66437419135352">
        <ele>91.63490936718881</ele>
        <time>2026-09-25T02:02:44Z</time>
      </trkpt>
      <trkpt lat="34.824989367559255" lon="113.66441150697923">
        <ele>91.74252721481025</ele>
        <time>2026-09-25T02:03:00Z</time>
      </trkpt>
      <trkpt lat="34.82499228109569" lon="113.6643221263139">
        <ele>92.56881419476122</ele>
        <time>2026-09-25T02:03:15Z</time>
      </trkpt>
      <trkpt lat="34.82501886826972" lon="113.6641769896244">
        <ele>95.47436481527984</ele>
        <time>2026-09-25T02:03:27Z</time>
      </trkpt>
      <trkpt lat="34.8250110040808" lon="113.66395828596242">
        <ele>92.65028149541467</ele>
        <time>2026-09-25T02:03:42Z</time>
      </trkpt>
      <trkpt lat="34.82492889209323" lon="113.66385705843929">
        <ele>94.21503348555416</ele>
        <time>2026-09-25T02:03:54Z</time>
      </trkpt>
      <trkpt lat="34.82487775007292" lon="113.66382890399106">
        <ele>92.60436185542494</ele>
        <time>2026-09-25T02:04:03Z</time>
      </trkpt>
      <trkpt lat="34.82483391021221" lon="113.66384490337946">
        <ele>92.40112912282348</ele>
        <time>2026-09-25T02:04:24Z</time>
      </trkpt>
      <trkpt lat="34.824870836769136" lon="113.66379231833776">
        <ele>93.29482857231051</ele>
        <time>2026-09-25T02:04:33Z</time>
      </trkpt>
      <trkpt lat="34.8248281970136" lon="113.66381077075417">
        <ele>90.60366405453533</ele>
        <time>2026-09-25T02:05:22Z</time>
      </trkpt>
      <trkpt lat="34.82479153014209" lon="113.66375866753954">
        <ele>93.2454429436475</ele>
        <time>2026-09-25T02:05:49Z</time>
      </trkpt>
      <trkpt lat="34.8247044795468" lon="113.66372459309862">
        <ele>91.91792208421975</ele>
        <time>2026-09-25T02:06:10Z</time>
      </trkpt>
      <trkpt lat="34.824657069782305" lon="113.66372624882665">
        <ele>90.70226998534054</ele>
        <time>2026-09-25T02:06:16Z</time>
      </trkpt>
      <trkpt lat="34.824892632941626" lon="113.66370117542863">
        <ele>90.67975940927863</ele>
        <time>2026-09-25T02:06:46Z</time>
      </trkpt>
      <trkpt lat="34.82493861122418" lon="113.66366396315587">
        <ele>90.9135775603354</ele>
        <time>2026-09-25T02:06:52Z</time>
      </trkpt>
      <trkpt lat="34.82496691661142" lon="113.6635655215935">
        <ele>91.43016559258103</ele>
        <time>2026-09-25T02:06:59Z</time>
      </trkpt>
      <trkpt lat="34.824992141057855" lon="113.66320188508311">
        <ele>90.37811135966331</ele>
        <time>2026-09-25T02:07:29Z</time>
      </trkpt>
      <trkpt lat="34.82501214786766" lon="113.66315084861442">
        <ele>92.20221028476954</ele>
        <time>2026-09-25T02:07:35Z</time>
      </trkpt>
      <trkpt lat="34.82505147523802" lon="113.66311196304655">
        <ele>92.4758483665064</ele>
        <time>2026-09-25T02:07:38Z</time>
      </trkpt>
      <trkpt lat="34.82510607117201" lon="113.6627312374855">
        <ele>91.85939932521433</ele>
        <time>2026-09-25T02:08:05Z</time>
      </trkpt>
      <trkpt lat="34.82508426139789" lon="113.66235669231543">
        <ele>90.8241683896631</ele>
        <time>2026-09-25T02:08:35Z</time>
      </trkpt>
      <trkpt lat="34.8250945031277" lon="113.66196267745352">
        <ele>90.34569044876844</ele>
        <time>2026-09-25T02:09:12Z</time>
      </trkpt>
      <trkpt lat="34.825082831239165" lon="113.66164067435818">
        <ele>90.08928292244673</ele>
        <time>2026-09-25T02:09:36Z</time>
      </trkpt>
      <trkpt lat="34.8250452554237" lon="113.66131284174605">
        <ele>90.6270683594048</ele>
        <time>2026-09-25T02:10:00Z</time>
      </trkpt>
      <trkpt lat="34.82504095857369" lon="113.66100782888414">
        <ele>92.82934804540128</ele>
        <time>2026-09-25T02:10:21Z</time>
      </trkpt>
      <trkpt lat="34.82501554353933" lon="113.66087020981357">
        <ele>91.3721015714109</ele>
        <time>2026-09-25T02:10:33Z</time>
      </trkpt>
      <trkpt lat="34.824954803850204" lon="113.66077233948342">
        <ele>89.2197280600667</ele>
        <time>2026-09-25T02:10:45Z</time>
      </trkpt>
      <trkpt lat="34.82493451218051" lon="113.66061036872956">
        <ele>89.14335091225803</ele>
        <time>2026-09-25T02:11:13Z</time>
      </trkpt>
      <trkpt lat="34.824847309789085" lon="113.6605706082219">
        <ele>88.13254714477807</ele>
        <time>2026-09-25T02:11:21Z</time>
      </trkpt>
      <trkpt lat="34.824526249209725" lon="113.66059266008659">
        <ele>90.26264337543398</ele>
        <time>2026-09-25T02:11:52Z</time>
      </trkpt>
      <trkpt lat="34.824344896606135" lon="113.66060015481314">
        <ele>90.96311825327575</ele>
        <time>2026-09-25T02:12:10Z</time>
      </trkpt>
      <trkpt lat="34.824046434526046" lon="113.66064905773149">
        <ele>89.6993355229497</ele>
        <time>2026-09-25T02:12:40Z</time>
      </trkpt>
      <trkpt lat="34.82386021227244" lon="113.6606335999993">
        <ele>89.87189629860222</ele>
        <time>2026-09-25T02:12:58Z</time>
      </trkpt>
      <trkpt lat="34.82380291475197" lon="113.66066332156785">
        <ele>90.75095804128796</ele>
        <time>2026-09-25T02:13:04Z</time>
      </trkpt>
      <trkpt lat="34.82373549143022" lon="113.6606568328528">
        <ele>90.35154795926064</ele>
        <time>2026-09-25T02:13:10Z</time>
      </trkpt>
      <trkpt lat="34.823573325127676" lon="113.66069054657483">
        <ele>91.162412985228</ele>
        <time>2026-09-25T02:13:25Z</time>
      </trkpt>
      <trkpt lat="34.82345398667157" lon="113.6606748845553">
        <ele>90.72834567166865</ele>
        <time>2026-09-25T02:13:37Z</time>
      </trkpt>
      <trkpt lat="34.82319891687927" lon="113.66066737926872">
        <ele>88.45172296650708</ele>
        <time>2026-09-25T02:14:03Z</time>
      </trkpt>
      <trkpt lat="34.82309671843313" lon="113.6605826556782">
        <ele>89.97010187339038</ele>
        <time>2026-09-25T02:14:15Z</time>
      </trkpt>
      <trkpt lat="34.82282113190934" lon="113.6605596556959">
        <ele>91.0194829851389</ele>
        <time>2026-09-25T02:14:42Z</time>
      </trkpt>
      <trkpt lat="34.822760459170276" lon="113.66055736215498">
        <ele>91.56632154155523</ele>
        <time>2026-09-25T02:14:48Z</time>
      </trkpt>
      <trkpt lat="34.82271157766186" lon="113.66049434665646">
        <ele>90.95260313060135</ele>
        <time>2026-09-25T02:15:03Z</time>
      </trkpt>
      <trkpt lat="34.82267275605822" lon="113.66045038963559">
        <ele>91.58560472354293</ele>
        <time>2026-09-25T02:15:09Z</time>
      </trkpt>
      <trkpt lat="34.82267347195464" lon="113.66005987461938">
        <ele>90.3401163648814</ele>
        <time>2026-09-25T02:15:49Z</time>
      </trkpt>
      <trkpt lat="34.82267156105643" lon="113.6600004223177">
        <ele>90.89515548758209</ele>
        <time>2026-09-25T02:15:53Z</time>
      </trkpt>
      <trkpt lat="34.82276451959352" lon="113.66001688524857">
        <ele>93.17806868534535</ele>
        <time>2026-09-25T02:16:30Z</time>
      </trkpt>
      <trkpt lat="34.82278303593816" lon="113.65994429948594">
        <ele>93.95586024969816</ele>
        <time>2026-09-25T02:16:42Z</time>
      </trkpt>
      <trkpt lat="34.82281888602253" lon="113.65989138395315">
        <ele>93.84211397450417</ele>
        <time>2026-09-25T02:16:51Z</time>
      </trkpt>
      <trkpt lat="34.82283181088021" lon="113.66000130116352">
        <ele>93.87650300282985</ele>
        <time>2026-09-25T02:17:00Z</time>
      </trkpt>
      <trkpt lat="34.822894241818744" lon="113.66005315650817">
        <ele>94.93696801643819</ele>
        <time>2026-09-25T02:17:15Z</time>
      </trkpt>
      <trkpt lat="34.82290096441175" lon="113.66018192215337">
        <ele>92.14768934808671</ele>
        <time>2026-09-25T02:18:01Z</time>
      </trkpt>
      <trkpt lat="34.8229411964499" lon="113.66015636896462">
        <ele>94.71447202377021</ele>
        <time>2026-09-25T02:20:26Z</time>
      </trkpt>
      <trkpt lat="34.82292360093502" lon="113.6600962647403">
        <ele>93.63632801733911</ele>
        <time>2026-09-25T02:20:35Z</time>
      </trkpt>
      <trkpt lat="34.82286493800207" lon="113.66014392981872">
        <ele>92.9005382694304</ele>
        <time>2026-09-25T02:20:47Z</time>
      </trkpt>
      <trkpt lat="34.822876326782904" lon="113.66020810733075">
        <ele>91.36859886907041</ele>
        <time>2026-09-25T02:20:59Z</time>
      </trkpt>
      <trkpt lat="34.822863790833715" lon="113.66029652280682">
        <ele>91.39248175732791</ele>
        <time>2026-09-25T02:21:08Z</time>
      </trkpt>
      <trkpt lat="34.822919220190734" lon="113.66034716406203">
        <ele>90.65333031211048</ele>
        <time>2026-09-25T02:21:23Z</time>
      </trkpt>
      <trkpt lat="34.822976316157" lon="113.66031579726237">
        <ele>89.85673325601965</ele>
        <time>2026-09-25T02:21:29Z</time>
      </trkpt>
      <trkpt lat="34.82304088705881" lon="113.66031038771217">
        <ele>89.7054846463725</ele>
        <time>2026-09-25T02:21:38Z</time>
      </trkpt>
      <trkpt lat="34.82307151832774" lon="113.66024971530028">
        <ele>90.34317285567522</ele>
        <time>2026-09-25T02:21:45Z</time>
      </trkpt>
      <trkpt lat="34.82310221933867" lon="113.66020600903488">
        <ele>89.7952135456726</ele>
        <time>2026-09-25T02:22:17Z</time>
      </trkpt>
      <trkpt lat="34.82315211143338" lon="113.66017461703554">
        <ele>90.42743048164994</ele>
        <time>2026-09-25T02:22:29Z</time>
      </trkpt>
      <trkpt lat="34.82325406414421" lon="113.66016358393702">
        <ele>89.05152715649456</ele>
        <time>2026-09-25T02:22:41Z</time>
      </trkpt>
      <trkpt lat="34.82309423826475" lon="113.66010931439455">
        <ele>90.91305819619447</ele>
        <time>2026-09-25T02:22:47Z</time>
      </trkpt>
      <trkpt lat="34.823199899783575" lon="113.65996610316337">
        <ele>90.93230228312314</ele>
        <time>2026-09-25T02:22:59Z</time>
      </trkpt>
      <trkpt lat="34.82313516288422" lon="113.66012071805353">
        <ele>91.13552506733686</ele>
        <time>2026-09-25T02:23:02Z</time>
      </trkpt>
      <trkpt lat="34.82307854511499" lon="113.66018059597675">
        <ele>90.17513594217598</ele>
        <time>2026-09-25T02:23:14Z</time>
      </trkpt>
      <trkpt lat="34.823198171038825" lon="113.66027498983007">
        <ele>89.83836261369288</ele>
        <time>2026-09-25T02:23:35Z</time>
      </trkpt>
      <trkpt lat="34.82323250198806" lon="113.66032202582655">
        <ele>90.71887302864343</ele>
        <time>2026-09-25T02:23:41Z</time>
      </trkpt>
      <trkpt lat="34.823276402698596" lon="113.66033539967715">
        <ele>90.46017193142325</ele>
        <time>2026-09-25T02:23:54Z</time>
      </trkpt>
      <trkpt lat="34.82331453184686" lon="113.6603721139137">
        <ele>90.22225329373032</ele>
        <time>2026-09-25T02:23:57Z</time>
      </trkpt>
      <trkpt lat="34.823362189017416" lon="113.66034380607091">
        <ele>89.96285794768482</ele>
        <time>2026-09-25T02:24:09Z</time>
      </trkpt>
      <trkpt lat="34.82334074815441" lon="113.66028508934598">
        <ele>89.70998841430992</ele>
        <time>2026-09-25T02:24:21Z</time>
      </trkpt>
      <trkpt lat="34.82329464260273" lon="113.66025819116918">
        <ele>91.8624609624967</ele>
        <time>2026-09-25T02:24:30Z</time>
      </trkpt>
      <trkpt lat="34.82335831938537" lon="113.66016430979904">
        <ele>91.52675369102508</ele>
        <time>2026-09-25T02:24:58Z</time>
      </trkpt>
      <trkpt lat="34.82338815945708" lon="113.66010483869559">
        <ele>95.17253646720201</ele>
        <time>2026-09-25T02:25:56Z</time>
      </trkpt>
      <trkpt lat="34.823271843380205" lon="113.66005874814329">
        <ele>95.18646306544542</ele>
        <time>2026-09-25T02:26:05Z</time>
      </trkpt>
      <trkpt lat="34.82338997369342" lon="113.66007751397075">
        <ele>95.29696032684296</ele>
        <time>2026-09-25T02:26:11Z</time>
      </trkpt>
      <trkpt lat="34.823416203634565" lon="113.66002948749149">
        <ele>95.51255320757627</ele>
        <time>2026-09-25T02:26:14Z</time>
      </trkpt>
      <trkpt lat="34.82347924237849" lon="113.66009859360179">
        <ele>94.70175012759864</ele>
        <time>2026-09-25T02:26:17Z</time>
      </trkpt>
      <trkpt lat="34.82361113344762" lon="113.66005209793306">
        <ele>94.56034461036325</ele>
        <time>2026-09-25T02:26:38Z</time>
      </trkpt>
      <trkpt lat="34.823750122719225" lon="113.66020758209052">
        <ele>92.95498839765787</ele>
        <time>2026-09-25T02:26:47Z</time>
      </trkpt>
      <trkpt lat="34.82360557057107" lon="113.66018232473314">
        <ele>92.12084917072207</ele>
        <time>2026-09-25T02:26:56Z</time>
      </trkpt>
      <trkpt lat="34.8236522287492" lon="113.66017934382704">
        <ele>94.11063629388809</ele>
        <time>2026-09-25T02:27:35Z</time>
      </trkpt>
      <trkpt lat="34.82372146125359" lon="113.6602644109932">
        <ele>91.2806187029928</ele>
        <time>2026-09-25T02:28:52Z</time>
      </trkpt>
      <trkpt lat="34.82378498805116" lon="113.66024970647015">
        <ele>91.12694176007062</ele>
        <time>2026-09-25T02:28:55Z</time>
      </trkpt>
      <trkpt lat="34.823716027403016" lon="113.66022453251541">
        <ele>89.97449540346861</ele>
        <time>2026-09-25T02:28:58Z</time>
      </trkpt>
      <trkpt lat="34.8237899857496" lon="113.66031894671471">
        <ele>83.56190397124738</ele>
        <time>2026-09-25T02:29:22Z</time>
      </trkpt>
      <trkpt lat="34.823708404374095" lon="113.66034922559267">
        <ele>94.8215360492353</ele>
        <time>2026-09-25T02:29:38Z</time>
      </trkpt>
      <trkpt lat="34.82365372800173" lon="113.66031512821317">
        <ele>95.08912429563293</ele>
        <time>2026-09-25T02:29:56Z</time>
      </trkpt>
      <trkpt lat="34.82370570161673" lon="113.66033421994656">
        <ele>95.09921621246461</ele>
        <time>2026-09-25T02:30:00Z</time>
      </trkpt>
      <trkpt lat="34.8236584632225" lon="113.66031906744671">
        <ele>95.01773730526122</ele>
        <time>2026-09-25T02:30:11Z</time>
      </trkpt>
      <trkpt lat="34.82377048300636" lon="113.66042414859051">
        <ele>89.68</ele>
        <time>2026-09-25T02:30:20Z</time>
      </trkpt>
      <trkpt lat="34.82361807866709" lon="113.6603189020891">
        <ele>95.10070726192318</ele>
        <time>2026-09-25T02:30:37Z</time>
      </trkpt>
      <trkpt lat="34.82359830399786" lon="113.66038093245173">
        <ele>95.05999755859375</ele>
        <time>2026-09-25T02:30:49Z</time>
      </trkpt>
      <trkpt lat="34.823526675329795" lon="113.66033992920197">
        <ele>95.05999755859375</ele>
        <time>2026-09-25T02:30:59Z</time>
      </trkpt>
      <trkpt lat="34.82357793705904" lon="113.66034270458157">
        <ele>95.05999755859375</ele>
        <time>2026-09-25T02:31:07Z</time>
      </trkpt>
      <trkpt lat="34.82372452599913" lon="113.66016835617886">
        <ele>91.11518873739988</ele>
        <time>2026-09-25T02:31:29Z</time>
      </trkpt>
      <trkpt lat="34.82366980638516" lon="113.66022214304124">
        <ele>84.4709541844204</ele>
        <time>2026-09-25T02:31:38Z</time>
      </trkpt>
      <trkpt lat="34.82352451072049" lon="113.66049694694966">
        <ele>88.93330683838576</ele>
        <time>2026-09-25T02:31:44Z</time>
      </trkpt>
      <trkpt lat="34.82346707424378" lon="113.66055696365477">
        <ele>89.53223078791052</ele>
        <time>2026-09-25T02:31:47Z</time>
      </trkpt>
      <trkpt lat="34.82345659072164" lon="113.66042866117277">
        <ele>90.98292638547719</ele>
        <time>2026-09-25T02:31:53Z</time>
      </trkpt>
      <trkpt lat="34.82353653323004" lon="113.66021180731046">
        <ele>90.06255105044693</ele>
        <time>2026-09-25T02:31:59Z</time>
      </trkpt>
      <trkpt lat="34.82347436015109" lon="113.66023030649252">
        <ele>90.77640543319285</ele>
        <time>2026-09-25T02:32:08Z</time>
      </trkpt>
      <trkpt lat="34.82342823981528" lon="113.66020208362147">
        <ele>90.85434880107641</ele>
        <time>2026-09-25T02:32:14Z</time>
      </trkpt>
      <trkpt lat="34.82342351934937" lon="113.66007760619716">
        <ele>90.12552984803915</ele>
        <time>2026-09-25T02:32:17Z</time>
      </trkpt>
      <trkpt lat="34.823396078906" lon="113.66002439939918">
        <ele>89.73659787885845</ele>
        <time>2026-09-25T02:32:26Z</time>
      </trkpt>
      <trkpt lat="34.823339455321154" lon="113.66003640775055">
        <ele>91.2793194334954</ele>
        <time>2026-09-25T02:32:35Z</time>
      </trkpt>
      <trkpt lat="34.82329746750002" lon="113.66007668014477">
        <ele>91.6558977253735</ele>
        <time>2026-09-25T02:32:41Z</time>
      </trkpt>
      <trkpt lat="34.82324202124287" lon="113.6601680370495">
        <ele>90.91178940050304</ele>
        <time>2026-09-25T02:32:44Z</time>
      </trkpt>
      <trkpt lat="34.82321948116516" lon="113.66008599616055">
        <ele>90.66546981129795</ele>
        <time>2026-09-25T02:32:47Z</time>
      </trkpt>
      <trkpt lat="34.82318434418033" lon="113.66002787298297">
        <ele>90.5927557721734</ele>
        <time>2026-09-25T02:32:53Z</time>
      </trkpt>
      <trkpt lat="34.82316928629153" lon="113.66012759596131">
        <ele>90.12354962900281</ele>
        <time>2026-09-25T02:32:56Z</time>
      </trkpt>
      <trkpt lat="34.82313110467898" lon="113.66018089935467">
        <ele>89.60481190308928</ele>
        <time>2026-09-25T02:33:02Z</time>
      </trkpt>
      <trkpt lat="34.82309796479121" lon="113.66011986820466">
        <ele>89.54935851320624</ele>
        <time>2026-09-25T02:33:05Z</time>
      </trkpt>
      <trkpt lat="34.82303880631334" lon="113.65992177601052">
        <ele>89.3875525565818</ele>
        <time>2026-09-25T02:33:11Z</time>
      </trkpt>
      <trkpt lat="34.822987878295315" lon="113.65999687983432">
        <ele>87.68445031903684</ele>
        <time>2026-09-25T02:33:17Z</time>
      </trkpt>
      <trkpt lat="34.822892307195815" lon="113.66003127737702">
        <ele>89.73945011757314</ele>
        <time>2026-09-25T02:33:35Z</time>
      </trkpt>
      <trkpt lat="34.822854002717975" lon="113.66008705755674">
        <ele>89.7691959310323</ele>
        <time>2026-09-25T02:33:46Z</time>
      </trkpt>
      <trkpt lat="34.82283500256241" lon="113.66015598115155">
        <ele>89.51760783419013</ele>
        <time>2026-09-25T02:34:04Z</time>
      </trkpt>
      <trkpt lat="34.822803670290675" lon="113.66019590602835">
        <ele>89.81205480545759</ele>
        <time>2026-09-25T02:34:10Z</time>
      </trkpt>
      <trkpt lat="34.822802822331234" lon="113.66027063754052">
        <ele>89.92955859191716</ele>
        <time>2026-09-25T02:34:13Z</time>
      </trkpt>
      <trkpt lat="34.82289657431036" lon="113.66040891560966">
        <ele>90.48017349280417</ele>
        <time>2026-09-25T02:34:43Z</time>
      </trkpt>
      <trkpt lat="34.82279517492795" lon="113.66029255537212">
        <ele>89.27820193581283</ele>
        <time>2026-09-25T02:34:46Z</time>
      </trkpt>
      <trkpt lat="34.822738490152666" lon="113.66026783275679">
        <ele>88.24011806771159</ele>
        <time>2026-09-25T02:34:52Z</time>
      </trkpt>
      <trkpt lat="34.822708917932715" lon="113.66031642170665">
        <ele>87.71690714452416</ele>
        <time>2026-09-25T02:35:01Z</time>
      </trkpt>
      <trkpt lat="34.82268739727735" lon="113.66025701586837">
        <ele>87.21443482208997</ele>
        <time>2026-09-25T02:35:10Z</time>
      </trkpt>
      <trkpt lat="34.82266507896613" lon="113.66030627360301">
        <ele>89.51518907118589</ele>
        <time>2026-09-25T02:36:01Z</time>
      </trkpt>
      <trkpt lat="34.82264961120196" lon="113.66036199589176">
        <ele>90.36030622478575</ele>
        <time>2026-09-25T02:36:40Z</time>
      </trkpt>
      <trkpt lat="34.82265312962349" lon="113.66042375562286">
        <ele>89.60917353443801</ele>
        <time>2026-09-25T02:37:16Z</time>
      </trkpt>
      <trkpt lat="34.82266790151202" lon="113.66047562852933">
        <ele>88.05967490747571</ele>
        <time>2026-09-25T02:37:38Z</time>
      </trkpt>
      <trkpt lat="34.822685351901974" lon="113.66053146110482">
        <ele>87.65735827386379</ele>
        <time>2026-09-25T02:37:56Z</time>
      </trkpt>
      <trkpt lat="34.8227231344624" lon="113.66057766367273">
        <ele>91.32771807909012</ele>
        <time>2026-09-25T02:38:11Z</time>
      </trkpt>
      <trkpt lat="34.822778512704346" lon="113.66059615723748">
        <ele>92.11690741684288</ele>
        <time>2026-09-25T02:38:17Z</time>
      </trkpt>
      <trkpt lat="34.82286251734289" lon="113.66055307792529">
        <ele>91.19087909348309</ele>
        <time>2026-09-25T02:38:23Z</time>
      </trkpt>
      <trkpt lat="34.822890713778335" lon="113.66061515565869">
        <ele>91.76848844718188</ele>
        <time>2026-09-25T02:38:26Z</time>
      </trkpt>
      <trkpt lat="34.82302795471722" lon="113.66063730743082">
        <ele>94.40908171329647</ele>
        <time>2026-09-25T02:38:38Z</time>
      </trkpt>
      <trkpt lat="34.823092679003935" lon="113.6606008138761">
        <ele>94.84737145341933</ele>
        <time>2026-09-25T02:38:47Z</time>
      </trkpt>
      <trkpt lat="34.82327474449964" lon="113.66061478182807">
        <ele>94.29968958720565</ele>
        <time>2026-09-25T02:39:05Z</time>
      </trkpt>
      <trkpt lat="34.82339070485418" lon="113.66058957928999">
        <ele>90.85966198984534</ele>
        <time>2026-09-25T02:39:20Z</time>
      </trkpt>
      <trkpt lat="34.823559199525505" lon="113.66061417635461">
        <ele>92.25141444150358</ele>
        <time>2026-09-25T02:39:41Z</time>
      </trkpt>
      <trkpt lat="34.82363150063019" lon="113.66060358364179">
        <ele>92.74140103161335</ele>
        <time>2026-09-25T02:39:49Z</time>
      </trkpt>
      <trkpt lat="34.82387469087109" lon="113.66062790088345">
        <ele>93.42601487785578</ele>
        <time>2026-09-25T02:40:15Z</time>
      </trkpt>
      <trkpt lat="34.82397877802526" lon="113.66059082678768">
        <ele>91.42719508707523</ele>
        <time>2026-09-25T02:40:27Z</time>
      </trkpt>
      <trkpt lat="34.82424939048375" lon="113.66057791309576">
        <ele>90.69979869294912</ele>
        <time>2026-09-25T02:40:54Z</time>
      </trkpt>
      <trkpt lat="34.82453241726154" lon="113.66053661271216">
        <ele>90.56019961088896</ele>
        <time>2026-09-25T02:41:24Z</time>
      </trkpt>
      <trkpt lat="34.82479581201688" lon="113.66052846141264">
        <ele>91.23649166338146</ele>
        <time>2026-09-25T02:41:52Z</time>
      </trkpt>
      <trkpt lat="34.82497547853645" lon="113.66048200936528">
        <ele>90.54052249807864</ele>
        <time>2026-09-25T02:42:11Z</time>
      </trkpt>
      <trkpt lat="34.825170874893814" lon="113.66048177745272">
        <ele>88.64605974778533</ele>
        <time>2026-09-25T02:43:17Z</time>
      </trkpt>
      <trkpt lat="34.825237529476865" lon="113.66046583554889">
        <ele>87.98325554654002</ele>
        <time>2026-09-25T02:43:23Z</time>
      </trkpt>
      <trkpt lat="34.82534625604036" lon="113.6603741125083">
        <ele>88.16523616667837</ele>
        <time>2026-09-25T02:43:41Z</time>
      </trkpt>
      <trkpt lat="34.825466740690445" lon="113.66033966032623">
        <ele>89.65332356933504</ele>
        <time>2026-09-25T02:43:53Z</time>
      </trkpt>
      <trkpt lat="34.82546431621174" lon="113.66014775533871">
        <ele>89.96103739738464</ele>
        <time>2026-09-25T02:44:09Z</time>
      </trkpt>
      <trkpt lat="34.82543719775115" lon="113.66028818578198">
        <ele>89.29457189422101</ele>
        <time>2026-09-25T02:44:13Z</time>
      </trkpt>
      <trkpt lat="34.8255135708806" lon="113.66003860688288">
        <ele>89.56505963949463</ele>
        <time>2026-09-25T02:44:26Z</time>
      </trkpt>
      <trkpt lat="34.825608036668335" lon="113.66005164513228">
        <ele>89.26</ele>
        <time>2026-09-25T02:44:32Z</time>
      </trkpt>
      <trkpt lat="34.82567000615022" lon="113.66002929005369">
        <ele>90.59746367670596</ele>
        <time>2026-09-25T02:44:39Z</time>
      </trkpt>
      <trkpt lat="34.825729489685266" lon="113.66004194082517">
        <ele>90.57567398808897</ele>
        <time>2026-09-25T02:44:45Z</time>
      </trkpt>
      <trkpt lat="34.82572181794799" lon="113.65998805264218">
        <ele>91.34929713327438</ele>
        <time>2026-09-25T02:44:57Z</time>
      </trkpt>
      <trkpt lat="34.82577892663112" lon="113.65993598303962">
        <ele>91.7062013214454</ele>
        <time>2026-09-25T02:45:06Z</time>
      </trkpt>
      <trkpt lat="34.82592654470742" lon="113.65997793897431">
        <ele>98.72255456913263</ele>
        <time>2026-09-25T02:45:21Z</time>
      </trkpt>
      <trkpt lat="34.826040987549575" lon="113.65993794875693">
        <ele>101.12450966332108</ele>
        <time>2026-09-25T02:45:36Z</time>
      </trkpt>
      <trkpt lat="34.826095750075055" lon="113.65997123759068">
        <ele>102.49804767593741</ele>
        <time>2026-09-25T02:45:45Z</time>
      </trkpt>
      <trkpt lat="34.8260613334069" lon="113.65987506026987">
        <ele>107.89474488981068</ele>
        <time>2026-09-25T02:46:09Z</time>
      </trkpt>
      <trkpt lat="34.826400027581315" lon="113.66008193000138">
        <ele>95.77759930872152</ele>
        <time>2026-09-25T02:46:22Z</time>
      </trkpt>
      <trkpt lat="34.82650234981135" lon="113.66011872377265">
        <ele>102.16628162469715</ele>
        <time>2026-09-25T02:46:28Z</time>
      </trkpt>
      <trkpt lat="34.82643955513018" lon="113.66001869786515">
        <ele>100.70557615533471</ele>
        <time>2026-09-25T02:46:31Z</time>
      </trkpt>
      <trkpt lat="34.82649382050842" lon="113.66006934623276">
        <ele>101.220704193227</ele>
        <time>2026-09-25T02:46:43Z</time>
      </trkpt>
      <trkpt lat="34.826639196724926" lon="113.66010529089543">
        <ele>93.50406809196491</ele>
        <time>2026-09-25T02:46:52Z</time>
      </trkpt>
      <trkpt lat="34.82657992642157" lon="113.66017578679323">
        <ele>94.49250342129675</ele>
        <time>2026-09-25T02:47:10Z</time>
      </trkpt>
      <trkpt lat="34.8266132499705" lon="113.66012703571296">
        <ele>94.47330779305321</ele>
        <time>2026-09-25T02:47:14Z</time>
      </trkpt>
      <trkpt lat="34.826655883507925" lon="113.660145270926">
        <ele>94.43292222765554</ele>
        <time>2026-09-25T02:47:22Z</time>
      </trkpt>
      <trkpt lat="34.826546214903374" lon="113.66013641866894">
        <ele>94.43146730195284</ele>
        <time>2026-09-25T02:47:28Z</time>
      </trkpt>
      <trkpt lat="34.82659500494473" lon="113.66016076549552">
        <ele>94.3043303390288</ele>
        <time>2026-09-25T02:47:34Z</time>
      </trkpt>
      <trkpt lat="34.82667333016831" lon="113.66006200137632">
        <ele>95.05000446962181</ele>
        <time>2026-09-25T02:48:06Z</time>
      </trkpt>
      <trkpt lat="34.82657198037667" lon="113.66010158500578">
        <ele>95.33</ele>
        <time>2026-09-25T02:48:13Z</time>
      </trkpt>
      <trkpt lat="34.826513721803174" lon="113.66020215899957">
        <ele>93.92252823835548</ele>
        <time>2026-09-25T02:48:19Z</time>
      </trkpt>
      <trkpt lat="34.82667600955899" lon="113.66016893763411">
        <ele>94.22722595327853</ele>
        <time>2026-09-25T02:48:36Z</time>
      </trkpt>
      <trkpt lat="34.826783922029286" lon="113.66005462873578">
        <ele>94.74104337979898</ele>
        <time>2026-09-25T02:48:42Z</time>
      </trkpt>
      <trkpt lat="34.82691384379445" lon="113.66005168817796">
        <ele>91.19391661555146</ele>
        <time>2026-09-25T02:48:54Z</time>
      </trkpt>
      <trkpt lat="34.82700948888694" lon="113.66009413980923">
        <ele>93.1080794471976</ele>
        <time>2026-09-25T02:49:06Z</time>
      </trkpt>
      <trkpt lat="34.82697250872523" lon="113.66000883630323">
        <ele>93.2502433737401</ele>
        <time>2026-09-25T02:49:12Z</time>
      </trkpt>
      <trkpt lat="34.82721820129021" lon="113.66024453630067">
        <ele>90.24</ele>
        <time>2026-09-25T02:49:24Z</time>
      </trkpt>
      <trkpt lat="34.82716054268111" lon="113.66017360155404">
        <ele>92.64564679341304</ele>
        <time>2026-09-25T02:49:30Z</time>
      </trkpt>
      <trkpt lat="34.82692880187915" lon="113.66004377442039">
        <ele>94.7236823686016</ele>
        <time>2026-09-25T02:49:36Z</time>
      </trkpt>
      <trkpt lat="34.82691734842931" lon="113.65992974510628">
        <ele>94.77481693707132</ele>
        <time>2026-09-25T02:49:48Z</time>
      </trkpt>
      <trkpt lat="34.82707271381846" lon="113.65995871454442">
        <ele>94.2833595543065</ele>
        <time>2026-09-25T02:50:00Z</time>
      </trkpt>
      <trkpt lat="34.8270801820587" lon="113.65982920732837">
        <ele>96.08379505667835</ele>
        <time>2026-09-25T02:50:05Z</time>
      </trkpt>
      <trkpt lat="34.82729059265891" lon="113.65979310938401">
        <ele>94.47462893929332</ele>
        <time>2026-09-25T02:50:09Z</time>
      </trkpt>
      <trkpt lat="34.82732230914407" lon="113.65972189023836">
        <ele>91.73670705314726</ele>
        <time>2026-09-25T02:50:13Z</time>
      </trkpt>
      <trkpt lat="34.82733683115464" lon="113.65964271709748">
        <ele>92.07027063891292</ele>
        <time>2026-09-25T02:50:19Z</time>
      </trkpt>
      <trkpt lat="34.827375238926734" lon="113.65959629110377">
        <ele>90.47317860741168</ele>
        <time>2026-09-25T02:50:28Z</time>
      </trkpt>
      <trkpt lat="34.82749591019816" lon="113.6596054471079">
        <ele>89.69196738488972</ele>
        <time>2026-09-25T02:50:46Z</time>
      </trkpt>
      <trkpt lat="34.8275494418868" lon="113.65955832778815">
        <ele>89.34418398886919</ele>
        <time>2026-09-25T02:50:52Z</time>
      </trkpt>
      <trkpt lat="34.827601836555296" lon="113.65953760273086">
        <ele>88.69475033972412</ele>
        <time>2026-09-25T02:50:58Z</time>
      </trkpt>
      <trkpt lat="34.82763241385689" lon="113.65948798421431">
        <ele>89.60360065661371</ele>
        <time>2026-09-25T02:51:04Z</time>
      </trkpt>
      <trkpt lat="34.82770087766597" lon="113.6591966788561">
        <ele>85.42290475126356</ele>
        <time>2026-09-25T02:51:25Z</time>
      </trkpt>
      <trkpt lat="34.827721611120886" lon="113.65897359971919">
        <ele>84.59296704269946</ele>
        <time>2026-09-25T02:51:43Z</time>
      </trkpt>
      <trkpt lat="34.8276941170931" lon="113.65884717583708">
        <ele>85.29108490701765</ele>
        <time>2026-09-25T02:51:52Z</time>
      </trkpt>
      <trkpt lat="34.82771246515213" lon="113.65864764855846">
        <ele>85.31182314455509</ele>
        <time>2026-09-25T02:52:10Z</time>
      </trkpt>
      <trkpt lat="34.82777791790253" lon="113.65853995332274">
        <ele>84.26472903601825</ele>
        <time>2026-09-25T02:52:26Z</time>
      </trkpt>
      <trkpt lat="34.82782574158855" lon="113.65855168592479">
        <ele>84.96385767962784</ele>
        <time>2026-09-25T02:52:32Z</time>
      </trkpt>
      <trkpt lat="34.82790133088568" lon="113.65853234375655">
        <ele>84.8434208733961</ele>
        <time>2026-09-25T02:52:38Z</time>
      </trkpt>
      <trkpt lat="34.827994082876565" lon="113.65854736469672">
        <ele>84.56628147512674</ele>
        <time>2026-09-25T02:52:50Z</time>
      </trkpt>
      <trkpt lat="34.82804348858158" lon="113.65858422140165">
        <ele>86.7212101239711</ele>
        <time>2026-09-25T02:52:56Z</time>
      </trkpt>
      <trkpt lat="34.82805564111623" lon="113.65852070196144">
        <ele>92.14985874015838</ele>
        <time>2026-09-25T02:53:20Z</time>
      </trkpt>
      <trkpt lat="34.82810211378765" lon="113.65855401495537">
        <ele>88.56445485167205</ele>
        <time>2026-09-25T02:53:29Z</time>
      </trkpt>
      <trkpt lat="34.828177514096" lon="113.65854541706179">
        <ele>89.4612983269617</ele>
        <time>2026-09-25T02:53:38Z</time>
      </trkpt>
      <trkpt lat="34.828213035994054" lon="113.65858464669246">
        <ele>90.23866946808994</ele>
        <time>2026-09-25T02:53:44Z</time>
      </trkpt>
      <trkpt lat="34.828267490154936" lon="113.65855476577738">
        <ele>90.25501011218876</ele>
        <time>2026-09-25T02:53:50Z</time>
      </trkpt>
      <trkpt lat="34.828327472989805" lon="113.6585836935191">
        <ele>90.43296029698104</ele>
        <time>2026-09-25T02:53:56Z</time>
      </trkpt>
      <trkpt lat="34.828412216805965" lon="113.65855502328462">
        <ele>89.18074625823647</ele>
        <time>2026-09-25T02:54:02Z</time>
      </trkpt>
      <trkpt lat="34.82847012984016" lon="113.65859684429195">
        <ele>88.34713125228882</ele>
        <time>2026-09-25T02:54:11Z</time>
      </trkpt>
      <trkpt lat="34.82849591773477" lon="113.65864203918841">
        <ele>88.25856472738087</ele>
        <time>2026-09-25T02:54:17Z</time>
      </trkpt>
      <trkpt lat="34.828660098962025" lon="113.65869330344256">
        <ele>90.07671552151442</ele>
        <time>2026-09-25T02:54:35Z</time>
      </trkpt>
      <trkpt lat="34.82873224651997" lon="113.65867776920614">
        <ele>88.41593693103641</ele>
        <time>2026-09-25T02:54:45Z</time>
      </trkpt>
      <trkpt lat="34.828792683178825" lon="113.65868895735353">
        <ele>87.72311040665954</ele>
        <time>2026-09-25T02:54:54Z</time>
      </trkpt>
      <trkpt lat="34.82905839108845" lon="113.65856027952849">
        <ele>86.10199843812734</ele>
        <time>2026-09-25T02:55:24Z</time>
      </trkpt>
      <trkpt lat="34.82916957063998" lon="113.65850258680611">
        <ele>85.56259692367166</ele>
        <time>2026-09-25T02:55:39Z</time>
      </trkpt>
      <trkpt lat="34.82921721452014" lon="113.6585450863756">
        <ele>84.12995652854443</ele>
        <time>2026-09-25T02:55:51Z</time>
      </trkpt>
      <trkpt lat="34.82922489665098" lon="113.65877470801851">
        <ele>83.14739407319576</ele>
        <time>2026-09-25T02:56:12Z</time>
      </trkpt>
      <trkpt lat="34.82920735269557" lon="113.65888911160526">
        <ele>83.11881757155061</ele>
        <time>2026-09-25T02:56:24Z</time>
      </trkpt>
      <trkpt lat="34.82910062187108" lon="113.65886056675512">
        <ele>80.89367879368365</ele>
        <time>2026-09-25T02:56:39Z</time>
      </trkpt>
      <trkpt lat="34.82899377454151" lon="113.65885747150966">
        <ele>80.68292418122292</ele>
        <time>2026-09-25T02:56:43Z</time>
      </trkpt>
      <trkpt lat="34.82906680189679" lon="113.658789488886">
        <ele>79.9729976831004</ele>
        <time>2026-09-25T02:56:50Z</time>
      </trkpt>
      <trkpt lat="34.828992037302804" lon="113.65875336482904">
        <ele>80.03835679776967</ele>
        <time>2026-09-25T02:56:53Z</time>
      </trkpt>
      <trkpt lat="34.82903354036928" lon="113.65879614372433">
        <ele>94.79763149421856</ele>
        <time>2026-09-25T02:57:05Z</time>
      </trkpt>
      <trkpt lat="34.82874472974143" lon="113.65864235126993">
        <ele>99.07176913519864</ele>
        <time>2026-09-25T02:57:18Z</time>
      </trkpt>
      <trkpt lat="34.82874472974143" lon="113.65864235126993">
        <ele>99.07176913519864</ele>
        <time>2026-09-25T02:57:18Z</time>
      </trkpt>
    </trkseg>
  </trk>
</gpx>