<?xml version="1.0" encoding="UTF-8"?>
<gpx xmlns="http://www.topografix.com/GPX/1/1" xmlns:gpxtpx="http://www.garmin.com/xmlschemas/TrackPointExtension/v1" xmlns:xsi="http://www.w3.org/2001/XMLSchema-instance" xsi:schemaLocation="http://www.topografix.com/GPX/1/1 http://www.topografix.com/GPX/1/1/gpx.xsd" version="1.1" creator="gpx.py -- https://github.com/tkrajina/gpxpy">
  <trk>
    <name>gpx from keep</name>
    <type>Walk</type>
    <trkseg>
      <trkpt lat="34.82928865837197" lon="113.65806951920622">
        <ele>87.9560546875</ele>
        <time>2026-09-27T11:17:51Z</time>
      </trkpt>
      <trkpt lat="34.829348502612085" lon="113.65809217296679">
        <ele>88.46331787109375</ele>
        <time>2026-09-27T11:17:55Z</time>
      </trkpt>
      <trkpt lat="34.82941279394313" lon="113.65804506184908">
        <ele>90.28365921135992</ele>
        <time>2026-09-27T11:18:03Z</time>
      </trkpt>
      <trkpt lat="34.82947415623446" lon="113.6580247920788">
        <ele>88.46331226453185</ele>
        <time>2026-09-27T11:18:14Z</time>
      </trkpt>
      <trkpt lat="34.829588448824104" lon="113.65805580540137">
        <ele>86.1654033921659</ele>
        <time>2026-09-27T11:18:18Z</time>
      </trkpt>
      <trkpt lat="34.82966825719941" lon="113.65803869934493">
        <ele>87.22803286649287</ele>
        <time>2026-09-27T11:18:22Z</time>
      </trkpt>
      <trkpt lat="34.82970692239903" lon="113.6579858454015">
        <ele>87.35802712943405</ele>
        <time>2026-09-27T11:18:26Z</time>
      </trkpt>
      <trkpt lat="34.8296910676875" lon="113.65784684861197">
        <ele>82.16713881678879</ele>
        <time>2026-09-27T11:18:34Z</time>
      </trkpt>
      <trkpt lat="34.82971228713747" lon="113.65777002774422">
        <ele>82.38670347351581</ele>
        <time>2026-09-27T11:18:38Z</time>
      </trkpt>
      <trkpt lat="34.82972049648785" lon="113.65739215909583">
        <ele>81.74365063197911</ele>
        <time>2026-09-27T11:18:58Z</time>
      </trkpt>
      <trkpt lat="34.82969243124197" lon="113.65728321802618">
        <ele>81.30327544827014</ele>
        <time>2026-09-27T11:19:04Z</time>
      </trkpt>
      <trkpt lat="34.82971131616247" lon="113.65708335755744">
        <ele>81.32540839351714</ele>
        <time>2026-09-27T11:19:16Z</time>
      </trkpt>
      <trkpt lat="34.82973893584896" lon="113.65701680052523">
        <ele>82.89964809361845</ele>
        <time>2026-09-27T11:19:19Z</time>
      </trkpt>
      <trkpt lat="34.829738797290155" lon="113.65689734984018">
        <ele>81.99475923553109</ele>
        <time>2026-09-27T11:19:25Z</time>
      </trkpt>
      <trkpt lat="34.82977322822794" lon="113.65678303755416">
        <ele>83.55008336156607</ele>
        <time>2026-09-27T11:19:31Z</time>
      </trkpt>
      <trkpt lat="34.829763692351875" lon="113.65672503002446">
        <ele>82.456180091016</ele>
        <time>2026-09-27T11:19:34Z</time>
      </trkpt>
      <trkpt lat="34.82978137041654" lon="113.65651324627005">
        <ele>82.53547894302756</ele>
        <time>2026-09-27T11:19:46Z</time>
      </trkpt>
      <trkpt lat="34.829849601949896" lon="113.65624715719817">
        <ele>85.22632197476923</ele>
        <time>2026-09-27T11:19:59Z</time>
      </trkpt>
      <trkpt lat="34.829850589365094" lon="113.65614228161459">
        <ele>84.64868925977498</ele>
        <time>2026-09-27T11:20:05Z</time>
      </trkpt>
      <trkpt lat="34.82989359922541" lon="113.6560140727931">
        <ele>85.56525462772697</ele>
        <time>2026-09-27T11:20:14Z</time>
      </trkpt>
      <trkpt lat="34.829844375558174" lon="113.65605431492257">
        <ele>85.0115116853267</ele>
        <time>2026-09-27T11:20:20Z</time>
      </trkpt>
      <trkpt lat="34.82987136045152" lon="113.65599843880221">
        <ele>87.18361933156848</ele>
        <time>2026-09-27T11:20:53Z</time>
      </trkpt>
      <trkpt lat="34.82985817680522" lon="113.65592540101797">
        <ele>86.13032358139753</ele>
        <time>2026-09-27T11:20:59Z</time>
      </trkpt>
      <trkpt lat="34.8298923478874" lon="113.65564127412041">
        <ele>85.15403444413096</ele>
        <time>2026-09-27T11:21:17Z</time>
      </trkpt>
      <trkpt lat="34.82992498502531" lon="113.65557697628074">
        <ele>86.36467141564935</ele>
        <time>2026-09-27T11:21:23Z</time>
      </trkpt>
      <trkpt lat="34.830126159655535" lon="113.65559579691785">
        <ele>88.85500339232385</ele>
        <time>2026-09-27T11:22:53Z</time>
      </trkpt>
      <trkpt lat="34.83018948827646" lon="113.65554111301414">
        <ele>87.37244342919439</ele>
        <time>2026-09-27T11:22:56Z</time>
      </trkpt>
      <trkpt lat="34.830347805708094" lon="113.65544513791195">
        <ele>86.37305958941579</ele>
        <time>2026-09-27T11:23:05Z</time>
      </trkpt>
      <trkpt lat="34.83051625959411" lon="113.65541144754194">
        <ele>87.61094230227172</ele>
        <time>2026-09-27T11:23:17Z</time>
      </trkpt>
      <trkpt lat="34.83064331331654" lon="113.65530931862202">
        <ele>88.70851112436503</ele>
        <time>2026-09-27T11:23:26Z</time>
      </trkpt>
      <trkpt lat="34.830914874275486" lon="113.65524976599046">
        <ele>89.83729750663042</ele>
        <time>2026-09-27T11:23:44Z</time>
      </trkpt>
      <trkpt lat="34.83122757980092" lon="113.6550551455744">
        <ele>87.59632920380682</ele>
        <time>2026-09-27T11:24:09Z</time>
      </trkpt>
      <trkpt lat="34.831445978979026" lon="113.65498486078239">
        <ele>88.00594540126622</ele>
        <time>2026-09-27T11:24:24Z</time>
      </trkpt>
      <trkpt lat="34.83157491595311" lon="113.65496602017895">
        <ele>86.67373733222485</ele>
        <time>2026-09-27T11:24:33Z</time>
      </trkpt>
      <trkpt lat="34.83189208473311" lon="113.65478302399394">
        <ele>85.27261407859623</ele>
        <time>2026-09-27T11:24:57Z</time>
      </trkpt>
      <trkpt lat="34.831967756079024" lon="113.6547359852875">
        <ele>85.89854764658958</ele>
        <time>2026-09-27T11:25:03Z</time>
      </trkpt>
      <trkpt lat="34.83224185227517" lon="113.65466612067308">
        <ele>88.33179989736527</ele>
        <time>2026-09-27T11:25:21Z</time>
      </trkpt>
      <trkpt lat="34.8325161218151" lon="113.654599529745">
        <ele>89.07782102189958</ele>
        <time>2026-09-27T11:25:39Z</time>
      </trkpt>
      <trkpt lat="34.83277903669927" lon="113.65449801182764">
        <ele>88.95976703148335</ele>
        <time>2026-09-27T11:25:57Z</time>
      </trkpt>
      <trkpt lat="34.832844663022925" lon="113.65442575169013">
        <ele>89.92262224107981</ele>
        <time>2026-09-27T11:26:03Z</time>
      </trkpt>
      <trkpt lat="34.832873560443886" lon="113.6540418522373">
        <ele>91.88836255390197</ele>
        <time>2026-09-27T11:26:25Z</time>
      </trkpt>
      <trkpt lat="34.83287296578232" lon="113.65386089163454">
        <ele>93.27842437196523</ele>
        <time>2026-09-27T11:26:34Z</time>
      </trkpt>
      <trkpt lat="34.83285728324564" lon="113.65375280335995">
        <ele>93.54640354122967</ele>
        <time>2026-09-27T11:26:40Z</time>
      </trkpt>
      <trkpt lat="34.83276626376745" lon="113.65361255290293">
        <ele>89.21876143943518</ele>
        <time>2026-09-27T11:26:49Z</time>
      </trkpt>
      <trkpt lat="34.8327851785563" lon="113.65351975565157">
        <ele>89.23135997261852</ele>
        <time>2026-09-27T11:26:55Z</time>
      </trkpt>
      <trkpt lat="34.833024519416334" lon="113.6532715121872">
        <ele>91.2434591492638</ele>
        <time>2026-09-27T11:27:16Z</time>
      </trkpt>
      <trkpt lat="34.833085452667845" lon="113.65317979522375">
        <ele>91.56359632778913</ele>
        <time>2026-09-27T11:27:22Z</time>
      </trkpt>
      <trkpt lat="34.833098370642645" lon="113.65305643333915">
        <ele>91.44914426933974</ele>
        <time>2026-09-27T11:27:28Z</time>
      </trkpt>
      <trkpt lat="34.83314554560209" lon="113.65294231469863">
        <ele>90.87845350336283</ele>
        <time>2026-09-27T11:27:34Z</time>
      </trkpt>
      <trkpt lat="34.83340750943259" lon="113.65281120549686">
        <ele>87.28309047874063</ele>
        <time>2026-09-27T11:27:52Z</time>
      </trkpt>
      <trkpt lat="34.83345585303741" lon="113.65278845541879">
        <ele>88.4336252650246</ele>
        <time>2026-09-27T11:27:55Z</time>
      </trkpt>
      <trkpt lat="34.833559469936006" lon="113.65263546074527">
        <ele>87.05666378047317</ele>
        <time>2026-09-27T11:28:04Z</time>
      </trkpt>
      <trkpt lat="34.83359208242901" lon="113.65251586053367">
        <ele>89.34318139497191</ele>
        <time>2026-09-27T11:28:10Z</time>
      </trkpt>
      <trkpt lat="34.83385013314229" lon="113.65231152665771">
        <ele>86.6974625531584</ele>
        <time>2026-09-27T11:28:28Z</time>
      </trkpt>
      <trkpt lat="34.834091122084814" lon="113.65207227093187">
        <ele>86.80590769648552</ele>
        <time>2026-09-27T11:28:46Z</time>
      </trkpt>
      <trkpt lat="34.834212347564765" lon="113.65194532512471">
        <ele>87.05625193472952</ele>
        <time>2026-09-27T11:28:55Z</time>
      </trkpt>
      <trkpt lat="34.834476781589345" lon="113.65181159181783">
        <ele>86.7889594193548</ele>
        <time>2026-09-27T11:29:13Z</time>
      </trkpt>
      <trkpt lat="34.83449882784707" lon="113.65173984076783">
        <ele>86.30497251823545</ele>
        <time>2026-09-27T11:29:16Z</time>
      </trkpt>
      <trkpt lat="34.83472465794707" lon="113.65164495899057">
        <ele>90.30413051787764</ele>
        <time>2026-09-27T11:29:31Z</time>
      </trkpt>
      <trkpt lat="34.8347429692408" lon="113.65158693459784">
        <ele>90.54424623586237</ele>
        <time>2026-09-27T11:29:34Z</time>
      </trkpt>
      <trkpt lat="34.83474179578006" lon="113.65151285962139">
        <ele>89.42100634798408</ele>
        <time>2026-09-27T11:29:37Z</time>
      </trkpt>
      <trkpt lat="34.83481487501059" lon="113.65140244207599">
        <ele>88.1463181246072</ele>
        <time>2026-09-27T11:29:43Z</time>
      </trkpt>
      <trkpt lat="34.83504776901258" lon="113.65130997680336">
        <ele>87.15089068096131</ele>
        <time>2026-09-27T11:29:58Z</time>
      </trkpt>
      <trkpt lat="34.835136515221" lon="113.6512332946199">
        <ele>86.75130095612258</ele>
        <time>2026-09-27T11:30:04Z</time>
      </trkpt>
      <trkpt lat="34.835238753637576" lon="113.65121372109613">
        <ele>88.55373324081302</ele>
        <time>2026-09-27T11:30:10Z</time>
      </trkpt>
      <trkpt lat="34.83551984957879" lon="113.65111000582112">
        <ele>87.76046777982265</ele>
        <time>2026-09-27T11:30:26Z</time>
      </trkpt>
      <trkpt lat="34.8355881829965" lon="113.65110765095858">
        <ele>87.58860054425895</ele>
        <time>2026-09-27T11:30:30Z</time>
      </trkpt>
      <trkpt lat="34.83585881175398" lon="113.65100084351278">
        <ele>88.63636994920671</ele>
        <time>2026-09-27T11:30:46Z</time>
      </trkpt>
      <trkpt lat="34.83610675348013" lon="113.65082572512836">
        <ele>89.90468060411513</ele>
        <time>2026-09-27T11:31:01Z</time>
      </trkpt>
      <trkpt lat="34.836415982379826" lon="113.6507552458279">
        <ele>89.251454831101</ele>
        <time>2026-09-27T11:31:22Z</time>
      </trkpt>
      <trkpt lat="34.836592148017274" lon="113.65067558982489">
        <ele>90.52910825796425</ele>
        <time>2026-09-27T11:31:31Z</time>
      </trkpt>
      <trkpt lat="34.83665142192868" lon="113.65067172216186">
        <ele>89.69076914712787</ele>
        <time>2026-09-27T11:31:34Z</time>
      </trkpt>
      <trkpt lat="34.836977255987584" lon="113.65053163656475">
        <ele>86.91236834228039</ele>
        <time>2026-09-27T11:31:55Z</time>
      </trkpt>
      <trkpt lat="34.83725200578073" lon="113.65042397475572">
        <ele>90.6775819528848</ele>
        <time>2026-09-27T11:32:13Z</time>
      </trkpt>
      <trkpt lat="34.83734626162458" lon="113.65037451462777">
        <ele>88.96453902311623</ele>
        <time>2026-09-27T11:32:19Z</time>
      </trkpt>
      <trkpt lat="34.83762322866726" lon="113.65026794581345">
        <ele>90.06024191901088</ele>
        <time>2026-09-27T11:32:36Z</time>
      </trkpt>
      <trkpt lat="34.8379183319539" lon="113.65014424266627">
        <ele>90.93452378734946</ele>
        <time>2026-09-27T11:32:56Z</time>
      </trkpt>
      <trkpt lat="34.838085235059175" lon="113.65006872597333">
        <ele>89.79393534827977</ele>
        <time>2026-09-27T11:33:07Z</time>
      </trkpt>
      <trkpt lat="34.83822193595758" lon="113.65003292541948">
        <ele>90.45965543482453</ele>
        <time>2026-09-27T11:33:16Z</time>
      </trkpt>
      <trkpt lat="34.83846496783029" lon="113.64991934381122">
        <ele>92.07256708946079</ele>
        <time>2026-09-27T11:33:34Z</time>
      </trkpt>
      <trkpt lat="34.83866151362118" lon="113.64986017703097">
        <ele>88.97879997920245</ele>
        <time>2026-09-27T11:33:46Z</time>
      </trkpt>
      <trkpt lat="34.838760906544294" lon="113.64980562226742">
        <ele>88.1137142078951</ele>
        <time>2026-09-27T11:33:52Z</time>
      </trkpt>
      <trkpt lat="34.838800646243435" lon="113.64975881533015">
        <ele>88.27245902642608</ele>
        <time>2026-09-27T11:33:55Z</time>
      </trkpt>
      <trkpt lat="34.838893694498424" lon="113.64970207767442">
        <ele>88.52203309815377</ele>
        <time>2026-09-27T11:34:01Z</time>
      </trkpt>
      <trkpt lat="34.83906887802214" lon="113.64968993620046">
        <ele>90.41243634931743</ele>
        <time>2026-09-27T11:34:13Z</time>
      </trkpt>
      <trkpt lat="34.839168472084715" lon="113.64960260970125">
        <ele>93.86738681513816</ele>
        <time>2026-09-27T11:34:22Z</time>
      </trkpt>
      <trkpt lat="34.839181801742264" lon="113.64953191022127">
        <ele>89.16744864266366</ele>
        <time>2026-09-27T11:34:28Z</time>
      </trkpt>
      <trkpt lat="34.83913242033221" lon="113.64948686670061">
        <ele>87.96002630796283</ele>
        <time>2026-09-27T11:34:34Z</time>
      </trkpt>
      <trkpt lat="34.83906563318728" lon="113.6491465820219">
        <ele>92.42284446768463</ele>
        <time>2026-09-27T11:34:54Z</time>
      </trkpt>
      <trkpt lat="34.83903189197328" lon="113.6490884374987">
        <ele>93.34896449651569</ele>
        <time>2026-09-27T11:34:58Z</time>
      </trkpt>
      <trkpt lat="34.83900913632205" lon="113.64889323310797">
        <ele>91.3316871682182</ele>
        <time>2026-09-27T11:35:09Z</time>
      </trkpt>
      <trkpt lat="34.838918745976265" lon="113.64856080504589">
        <ele>90.15280248038471</ele>
        <time>2026-09-27T11:35:27Z</time>
      </trkpt>
      <trkpt lat="34.83889652601847" lon="113.64844135033309">
        <ele>90.67426890600473</ele>
        <time>2026-09-27T11:35:33Z</time>
      </trkpt>
      <trkpt lat="34.83893104299281" lon="113.64823010651038">
        <ele>92.39986507128924</ele>
        <time>2026-09-27T11:35:45Z</time>
      </trkpt>
    </trkseg>
  </trk>
</gpx>