<?xml version="1.0" encoding="UTF-8"?>
<gpx xmlns="http://www.topografix.com/GPX/1/1" xmlns:gpxtpx="http://www.garmin.com/xmlschemas/TrackPointExtension/v1" xmlns:xsi="http://www.w3.org/2001/XMLSchema-instance" xsi:schemaLocation="http://www.topografix.com/GPX/1/1 http://www.topografix.com/GPX/1/1/gpx.xsd" version="1.1" creator="gpx.py -- https://github.com/tkrajina/gpxpy">
  <trk>
    <name>gpx from keep</name>
    <type>Walk</type>
    <trkseg>
      <trkpt lat="35.506526649415804" lon="112.84636128816184">
        <ele>740.6183033687994</ele>
        <time>2026-07-25T12:23:15Z</time>
      </trkpt>
      <trkpt lat="35.50631463127273" lon="112.84618823177992">
        <ele>738.4325612364337</ele>
        <time>2026-07-25T12:23:39Z</time>
      </trkpt>
      <trkpt lat="35.50627174323893" lon="112.84616910403703">
        <ele>738.8856418048963</ele>
        <time>2026-07-25T12:23:45Z</time>
      </trkpt>
      <trkpt lat="35.50609068250297" lon="112.84593572616592">
        <ele>736.4508545268327</ele>
        <time>2026-07-25T12:24:12Z</time>
      </trkpt>
      <trkpt lat="35.505983659653" lon="112.84583453084797">
        <ele>736.2140565495938</ele>
        <time>2026-07-25T12:24:24Z</time>
      </trkpt>
      <trkpt lat="35.50588120861321" lon="112.84580990390491">
        <ele>735.542375061661</ele>
        <time>2026-07-25T12:24:36Z</time>
      </trkpt>
      <trkpt lat="35.50583990250628" lon="112.84575048911353">
        <ele>734.1370624471456</ele>
        <time>2026-07-25T12:24:42Z</time>
      </trkpt>
      <trkpt lat="35.50577642562555" lon="112.84573454779192">
        <ele>734.3725479003042</ele>
        <time>2026-07-25T12:24:48Z</time>
      </trkpt>
      <trkpt lat="35.50568270471623" lon="112.84564126667784">
        <ele>735.4110994217917</ele>
        <time>2026-07-25T12:25:00Z</time>
      </trkpt>
      <trkpt lat="35.5056453097232" lon="112.84557486546639">
        <ele>735.3466674620286</ele>
        <time>2026-07-25T12:25:06Z</time>
      </trkpt>
      <trkpt lat="35.50547316029615" lon="112.84545807839584">
        <ele>733.556714980863</ele>
        <time>2026-07-25T12:25:25Z</time>
      </trkpt>
      <trkpt lat="35.50567577968041" lon="112.84568518864005">
        <ele>734.9895778764039</ele>
        <time>2026-07-25T12:26:01Z</time>
      </trkpt>
      <trkpt lat="35.50585004402076" lon="112.8458243680551">
        <ele>734.9138953788206</ele>
        <time>2026-07-25T12:26:16Z</time>
      </trkpt>
      <trkpt lat="35.50592346581642" lon="112.84586289525465">
        <ele>734.7391080185771</ele>
        <time>2026-07-25T12:26:22Z</time>
      </trkpt>
      <trkpt lat="35.50588950713585" lon="112.84580671455673">
        <ele>735.1224725069478</ele>
        <time>2026-07-25T12:26:49Z</time>
      </trkpt>
      <trkpt lat="35.505819258694004" lon="112.84571262240735">
        <ele>735.3684604717419</ele>
        <time>2026-07-25T12:27:51Z</time>
      </trkpt>
      <trkpt lat="35.50570283452821" lon="112.84563672765292">
        <ele>734.9476230768487</ele>
        <time>2026-07-25T12:27:54Z</time>
      </trkpt>
      <trkpt lat="35.50565042137368" lon="112.84553868234039">
        <ele>735.1100908201188</ele>
        <time>2026-07-25T12:27:57Z</time>
      </trkpt>
      <trkpt lat="35.50534095859156" lon="112.84529219635972">
        <ele>733.6268460974097</ele>
        <time>2026-07-25T12:28:06Z</time>
      </trkpt>
      <trkpt lat="35.50499309181986" lon="112.84499947311161">
        <ele>732.616984934546</ele>
        <time>2026-07-25T12:28:15Z</time>
      </trkpt>
      <trkpt lat="35.50477655282417" lon="112.84492930574802">
        <ele>732.739199723117</ele>
        <time>2026-07-25T12:28:18Z</time>
      </trkpt>
      <trkpt lat="35.504479588305486" lon="112.84471918646197">
        <ele>732.1719842711464</ele>
        <time>2026-07-25T12:28:24Z</time>
      </trkpt>
      <trkpt lat="35.50427099801128" lon="112.84458749037657">
        <ele>730.7321266410872</ele>
        <time>2026-07-25T12:28:36Z</time>
      </trkpt>
      <trkpt lat="35.50420961615432" lon="112.84460673458597">
        <ele>732.6134399753064</ele>
        <time>2026-07-25T12:28:54Z</time>
      </trkpt>
      <trkpt lat="35.504231282884156" lon="112.8449646994612">
        <ele>732.5550157036632</ele>
        <time>2026-07-25T12:29:06Z</time>
      </trkpt>
      <trkpt lat="35.50424258258731" lon="112.84508363689196">
        <ele>732.3734299317002</ele>
        <time>2026-07-25T12:29:12Z</time>
      </trkpt>
      <trkpt lat="35.50427331629026" lon="112.84466151862216">
        <ele>732.3783486988395</ele>
        <time>2026-07-25T12:29:41Z</time>
      </trkpt>
      <trkpt lat="35.504331107251765" lon="112.84472035308639">
        <ele>732.0051610488445</ele>
        <time>2026-07-25T12:29:47Z</time>
      </trkpt>
      <trkpt lat="35.50438359372075" lon="112.84472310201417">
        <ele>732.1341541856527</ele>
        <time>2026-07-25T12:29:50Z</time>
      </trkpt>
      <trkpt lat="35.50446557042004" lon="112.84475731885247">
        <ele>732.0392998913303</ele>
        <time>2026-07-25T12:29:56Z</time>
      </trkpt>
      <trkpt lat="35.504720035744725" lon="112.84494571741169">
        <ele>735.4795041279867</ele>
        <time>2026-07-25T12:30:11Z</time>
      </trkpt>
      <trkpt lat="35.50501642959009" lon="112.84514918800987">
        <ele>734.6536753801629</ele>
        <time>2026-07-25T12:30:23Z</time>
      </trkpt>
      <trkpt lat="35.50524304649643" lon="112.84535767913071">
        <ele>733.7508893506601</ele>
        <time>2026-07-25T12:30:32Z</time>
      </trkpt>
      <trkpt lat="35.50547221580385" lon="112.84553981396122">
        <ele>734.0679551223293</ele>
        <time>2026-07-25T12:30:41Z</time>
      </trkpt>
      <trkpt lat="35.505755634408885" lon="112.84577070478707">
        <ele>735.5067579643801</ele>
        <time>2026-07-25T12:30:47Z</time>
      </trkpt>
      <trkpt lat="35.50588304259404" lon="112.84585830299837">
        <ele>734.3361759763211</ele>
        <time>2026-07-25T12:30:50Z</time>
      </trkpt>
      <trkpt lat="35.50599924796698" lon="112.84598019717163">
        <ele>736.2405932005495</ele>
        <time>2026-07-25T12:30:56Z</time>
      </trkpt>
      <trkpt lat="35.50614072756755" lon="112.84608606413003">
        <ele>737.4642210276797</ele>
        <time>2026-07-25T12:31:02Z</time>
      </trkpt>
      <trkpt lat="35.50635976781374" lon="112.84631895064427">
        <ele>737.9888683091849</ele>
        <time>2026-07-25T12:31:11Z</time>
      </trkpt>
      <trkpt lat="35.50658390253155" lon="112.84649285548446">
        <ele>739.001847053878</ele>
        <time>2026-07-25T12:31:23Z</time>
      </trkpt>
      <trkpt lat="35.50681655739919" lon="112.84677930412418">
        <ele>738.8220857027918</ele>
        <time>2026-07-25T12:31:34Z</time>
      </trkpt>
      <trkpt lat="35.50713004703643" lon="112.84705607125343">
        <ele>738.3312627542764</ele>
        <time>2026-07-25T12:31:46Z</time>
      </trkpt>
      <trkpt lat="35.50719446366704" lon="112.84715465324925">
        <ele>738.8859687661752</ele>
        <time>2026-07-25T12:31:50Z</time>
      </trkpt>
      <trkpt lat="35.50728557567449" lon="112.84722306827564">
        <ele>738.2669363608584</ele>
        <time>2026-07-25T12:31:53Z</time>
      </trkpt>
      <trkpt lat="35.50743194965196" lon="112.84727332945546">
        <ele>739.4002004843205</ele>
        <time>2026-07-25T12:32:02Z</time>
      </trkpt>
      <trkpt lat="35.50748740804172" lon="112.84724883470086">
        <ele>739.0991867082193</ele>
        <time>2026-07-25T12:32:05Z</time>
      </trkpt>
      <trkpt lat="35.50761507890819" lon="112.84731190334111">
        <ele>739.3244167743251</ele>
        <time>2026-07-25T12:32:11Z</time>
      </trkpt>
      <trkpt lat="35.50764260436936" lon="112.84752784009207">
        <ele>739.0389228183776</ele>
        <time>2026-07-25T12:32:17Z</time>
      </trkpt>
      <trkpt lat="35.507622078627115" lon="112.84764573163274">
        <ele>739.5871929069981</ele>
        <time>2026-07-25T12:32:35Z</time>
      </trkpt>
      <trkpt lat="35.50764725354263" lon="112.84769955088846">
        <ele>740.0312826186419</ele>
        <time>2026-07-25T12:32:56Z</time>
      </trkpt>
      <trkpt lat="35.50777835741643" lon="112.84770454577392">
        <ele>740.002036635764</ele>
        <time>2026-07-25T12:33:02Z</time>
      </trkpt>
      <trkpt lat="35.50786328606073" lon="112.84768100897652">
        <ele>739.7903053807095</ele>
        <time>2026-07-25T12:33:05Z</time>
      </trkpt>
      <trkpt lat="35.507939005856144" lon="112.8476045117145">
        <ele>739.7839672444388</ele>
        <time>2026-07-25T12:33:08Z</time>
      </trkpt>
      <trkpt lat="35.50796173378701" lon="112.84746866233901">
        <ele>739.6335157277063</ele>
        <time>2026-07-25T12:33:11Z</time>
      </trkpt>
      <trkpt lat="35.50794786166908" lon="112.84714124590215">
        <ele>738.3879515333101</ele>
        <time>2026-07-25T12:33:17Z</time>
      </trkpt>
      <trkpt lat="35.50789630088008" lon="112.846940562068">
        <ele>737.4620623691007</ele>
        <time>2026-07-25T12:33:20Z</time>
      </trkpt>
      <trkpt lat="35.50789020918826" lon="112.84685330401867">
        <ele>737.7031087232754</ele>
        <time>2026-07-25T12:33:23Z</time>
      </trkpt>
      <trkpt lat="35.507886004803595" lon="112.8467935584744">
        <ele>737.4284037631005</ele>
        <time>2026-07-25T12:33:44Z</time>
      </trkpt>
      <trkpt lat="35.50793119167416" lon="112.84678021768235">
        <ele>737.4456927869469</ele>
        <time>2026-07-25T12:33:48Z</time>
      </trkpt>
      <trkpt lat="35.507978972098876" lon="112.84695547414114">
        <ele>739.0436085034162</ele>
        <time>2026-07-25T12:34:06Z</time>
      </trkpt>
      <trkpt lat="35.5080475772308" lon="112.84696432218392">
        <ele>739.3779451809824</ele>
        <time>2026-07-25T12:34:12Z</time>
      </trkpt>
      <trkpt lat="35.508154227973854" lon="112.84701622066706">
        <ele>738.7341694729403</ele>
        <time>2026-07-25T12:34:27Z</time>
      </trkpt>
      <trkpt lat="35.508269142175116" lon="112.84697974356543">
        <ele>738.3484498942271</ele>
        <time>2026-07-25T12:34:48Z</time>
      </trkpt>
      <trkpt lat="35.508324974662706" lon="112.8469983987902">
        <ele>738.4070904543623</ele>
        <time>2026-07-25T12:34:54Z</time>
      </trkpt>
      <trkpt lat="35.5084209635807" lon="112.8470879864594">
        <ele>738.552680737339</ele>
        <time>2026-07-25T12:35:06Z</time>
      </trkpt>
      <trkpt lat="35.5084663668584" lon="112.84706977699506">
        <ele>739.0912390435115</ele>
        <time>2026-07-25T12:35:12Z</time>
      </trkpt>
      <trkpt lat="35.508515865712205" lon="112.84690806470121">
        <ele>738.221889205277</ele>
        <time>2026-07-25T12:35:24Z</time>
      </trkpt>
      <trkpt lat="35.50855154960772" lon="112.84684215698815">
        <ele>737.8831387581304</ele>
        <time>2026-07-25T12:35:30Z</time>
      </trkpt>
      <trkpt lat="35.508601829081414" lon="112.846807528878">
        <ele>738.2931616082788</ele>
        <time>2026-07-25T12:35:36Z</time>
      </trkpt>
      <trkpt lat="35.508663951610934" lon="112.84680474952758">
        <ele>738.1725405808538</ele>
        <time>2026-07-25T12:35:43Z</time>
      </trkpt>
      <trkpt lat="35.50871325326555" lon="112.84677669996572">
        <ele>738.5615507792681</ele>
        <time>2026-07-25T12:35:49Z</time>
      </trkpt>
      <trkpt lat="35.50876458744105" lon="112.84679361631297">
        <ele>738.7430714908987</ele>
        <time>2026-07-25T12:35:55Z</time>
      </trkpt>
      <trkpt lat="35.508783166701726" lon="112.84671260758498">
        <ele>738.8023963011801</ele>
        <time>2026-07-25T12:36:01Z</time>
      </trkpt>
      <trkpt lat="35.50872230386371" lon="112.84659455813978">
        <ele>738.6996809728444</ele>
        <time>2026-07-25T12:36:16Z</time>
      </trkpt>
      <trkpt lat="35.508675425949" lon="112.84661173231638">
        <ele>738.1661349702626</ele>
        <time>2026-07-25T12:36:28Z</time>
      </trkpt>
      <trkpt lat="35.50863115850135" lon="112.84665577195942">
        <ele>738.4824177790433</ele>
        <time>2026-07-25T12:36:34Z</time>
      </trkpt>
      <trkpt lat="35.508586134460096" lon="112.84662021607296">
        <ele>738.1068576099351</ele>
        <time>2026-07-25T12:36:40Z</time>
      </trkpt>
      <trkpt lat="35.50852719656148" lon="112.84664261840271">
        <ele>737.5013766102493</ele>
        <time>2026-07-25T12:36:46Z</time>
      </trkpt>
      <trkpt lat="35.50850530743936" lon="112.8467217822837">
        <ele>738.6175735229626</ele>
        <time>2026-07-25T12:36:52Z</time>
      </trkpt>
      <trkpt lat="35.50852344231643" lon="112.8468822010965">
        <ele>738.7007321566343</ele>
        <time>2026-07-25T12:37:04Z</time>
      </trkpt>
      <trkpt lat="35.508515974080495" lon="112.84694931759586">
        <ele>737.8722614301369</ele>
        <time>2026-07-25T12:37:28Z</time>
      </trkpt>
      <trkpt lat="35.50848307447052" lon="112.847014994555">
        <ele>739.3264528736472</ele>
        <time>2026-07-25T12:37:43Z</time>
      </trkpt>
      <trkpt lat="35.508416009501154" lon="112.8470263600027">
        <ele>737.5620135441422</ele>
        <time>2026-07-25T12:37:54Z</time>
      </trkpt>
      <trkpt lat="35.50835901158482" lon="112.84699815172468">
        <ele>738.1872731698677</ele>
        <time>2026-07-25T12:38:00Z</time>
      </trkpt>
      <trkpt lat="35.50824280649847" lon="112.84698178045504">
        <ele>737.9798604138196</ele>
        <time>2026-07-25T12:38:12Z</time>
      </trkpt>
      <trkpt lat="35.508134098051826" lon="112.84701245481578">
        <ele>737.5581362806261</ele>
        <time>2026-07-25T12:38:27Z</time>
      </trkpt>
      <trkpt lat="35.50808771874086" lon="112.84697578842642">
        <ele>737.3549398528412</ele>
        <time>2026-07-25T12:38:33Z</time>
      </trkpt>
      <trkpt lat="35.50796918972397" lon="112.84695750327573">
        <ele>737.7202545143664</ele>
        <time>2026-07-25T12:38:45Z</time>
      </trkpt>
      <trkpt lat="35.50793020401373" lon="112.84690432652471">
        <ele>737.6892506154254</ele>
        <time>2026-07-25T12:38:51Z</time>
      </trkpt>
      <trkpt lat="35.507917352591754" lon="112.84682122929831">
        <ele>736.5098439194262</ele>
        <time>2026-07-25T12:38:57Z</time>
      </trkpt>
      <trkpt lat="35.50794476231068" lon="112.84677673808463">
        <ele>737.3693093396723</ele>
        <time>2026-07-25T12:39:30Z</time>
      </trkpt>
      <trkpt lat="35.50789514998456" lon="112.84644130014871">
        <ele>735.7948037246242</ele>
        <time>2026-07-25T12:39:39Z</time>
      </trkpt>
      <trkpt lat="35.507876305930075" lon="112.84606223553308">
        <ele>734.2693823697045</ele>
        <time>2026-07-25T12:39:45Z</time>
      </trkpt>
      <trkpt lat="35.507820883321514" lon="112.8459006793979">
        <ele>733.6835353318602</ele>
        <time>2026-07-25T12:39:48Z</time>
      </trkpt>
      <trkpt lat="35.50778236415825" lon="112.84552666111708">
        <ele>731.9616166083142</ele>
        <time>2026-07-25T12:39:58Z</time>
      </trkpt>
      <trkpt lat="35.50772888321433" lon="112.84526192300704">
        <ele>731.114162761718</ele>
        <time>2026-07-25T12:40:10Z</time>
      </trkpt>
      <trkpt lat="35.50772658064069" lon="112.84513315288977">
        <ele>730.7440795693547</ele>
        <time>2026-07-25T12:40:13Z</time>
      </trkpt>
      <trkpt lat="35.50769836547909" lon="112.84502810658844">
        <ele>730.3333576647565</ele>
        <time>2026-07-25T12:40:19Z</time>
      </trkpt>
      <trkpt lat="35.50755649286347" lon="112.84483178947387">
        <ele>729.5391001319513</ele>
        <time>2026-07-25T12:40:25Z</time>
      </trkpt>
      <trkpt lat="35.50734240908192" lon="112.8445824646795">
        <ele>728.288762643002</ele>
        <time>2026-07-25T12:40:34Z</time>
      </trkpt>
      <trkpt lat="35.50713073368774" lon="112.84432901720992">
        <ele>728.1657806225121</ele>
        <time>2026-07-25T12:40:46Z</time>
      </trkpt>
      <trkpt lat="35.507000089744814" lon="112.84411831548103">
        <ele>728.2572522610426</ele>
        <time>2026-07-25T12:40:58Z</time>
      </trkpt>
      <trkpt lat="35.506911596160435" lon="112.8439246677129">
        <ele>726.7686502113938</ele>
        <time>2026-07-25T12:41:04Z</time>
      </trkpt>
      <trkpt lat="35.506815350107885" lon="112.84355537951187">
        <ele>725.9575176592916</ele>
        <time>2026-07-25T12:41:13Z</time>
      </trkpt>
      <trkpt lat="35.506802450873685" lon="112.84345648845395">
        <ele>725.9880231143907</ele>
        <time>2026-07-25T12:41:16Z</time>
      </trkpt>
      <trkpt lat="35.50676283195552" lon="112.84334289510846">
        <ele>725.6718097552657</ele>
        <time>2026-07-25T12:41:19Z</time>
      </trkpt>
      <trkpt lat="35.506693767147816" lon="112.84297991815394">
        <ele>723.9673160724342</ele>
        <time>2026-07-25T12:41:28Z</time>
      </trkpt>
      <trkpt lat="35.50660901537543" lon="112.84271567853435">
        <ele>723.1711758868769</ele>
        <time>2026-07-25T12:41:34Z</time>
      </trkpt>
      <trkpt lat="35.50653557166041" lon="112.84239663212425">
        <ele>721.456126762554</ele>
        <time>2026-07-25T12:41:40Z</time>
      </trkpt>
      <trkpt lat="35.506461691833906" lon="112.84197804240362">
        <ele>720.8755204919726</ele>
        <time>2026-07-25T12:41:49Z</time>
      </trkpt>
      <trkpt lat="35.50634912385572" lon="112.84156841585813">
        <ele>718.446764732711</ele>
        <time>2026-07-25T12:41:59Z</time>
      </trkpt>
      <trkpt lat="35.50630590284126" lon="112.84143560242275">
        <ele>717.9462529085577</ele>
        <time>2026-07-25T12:42:03Z</time>
      </trkpt>
      <trkpt lat="35.50623792736336" lon="112.84099796861295">
        <ele>716.0578755103052</ele>
        <time>2026-07-25T12:42:15Z</time>
      </trkpt>
      <trkpt lat="35.506195473163764" lon="112.8406527126914">
        <ele>714.6245210794732</ele>
        <time>2026-07-25T12:42:25Z</time>
      </trkpt>
      <trkpt lat="35.50617601020207" lon="112.84032903263383">
        <ele>714.312537622638</ele>
        <time>2026-07-25T12:42:31Z</time>
      </trkpt>
      <trkpt lat="35.50611835248602" lon="112.84014180995628">
        <ele>714.3044800022617</ele>
        <time>2026-07-25T12:42:34Z</time>
      </trkpt>
      <trkpt lat="35.506110004450356" lon="112.83976831391756">
        <ele>715.2900774423033</ele>
        <time>2026-07-25T12:42:49Z</time>
      </trkpt>
      <trkpt lat="35.50612130750512" lon="112.83969038889921">
        <ele>715.587704882957</ele>
        <time>2026-07-25T12:42:52Z</time>
      </trkpt>
      <trkpt lat="35.506413445879694" lon="112.83964505145161">
        <ele>716.6715117879212</ele>
        <time>2026-07-25T12:42:58Z</time>
      </trkpt>
      <trkpt lat="35.50681003742041" lon="112.83963238164156">
        <ele>717.1286184825003</ele>
        <time>2026-07-25T12:43:07Z</time>
      </trkpt>
      <trkpt lat="35.50713336945412" lon="112.83961868986435">
        <ele>717.5174097800627</ele>
        <time>2026-07-25T12:43:16Z</time>
      </trkpt>
      <trkpt lat="35.507480215303026" lon="112.83962650493716">
        <ele>718.5996724786237</ele>
        <time>2026-07-25T12:43:25Z</time>
      </trkpt>
      <trkpt lat="35.50779547274545" lon="112.83961343048448">
        <ele>718.2810257934034</ele>
        <time>2026-07-25T12:43:31Z</time>
      </trkpt>
      <trkpt lat="35.50813891715706" lon="112.83961084275987">
        <ele>718.4873386137187</ele>
        <time>2026-07-25T12:43:40Z</time>
      </trkpt>
      <trkpt lat="35.508499313994044" lon="112.8396098159339">
        <ele>719.6665383465588</ele>
        <time>2026-07-25T12:43:49Z</time>
      </trkpt>
      <trkpt lat="35.50877767212721" lon="112.83960608659902">
        <ele>720.7152118450031</ele>
        <time>2026-07-25T12:43:55Z</time>
      </trkpt>
      <trkpt lat="35.50912593824121" lon="112.839610416232">
        <ele>721.0583638427779</ele>
        <time>2026-07-25T12:44:01Z</time>
      </trkpt>
      <trkpt lat="35.509270624923005" lon="112.83960307804469">
        <ele>721.4190167691559</ele>
        <time>2026-07-25T12:44:05Z</time>
      </trkpt>
      <trkpt lat="35.509447712544066" lon="112.8395535778321">
        <ele>722.9144996451214</ele>
        <time>2026-07-25T12:44:09Z</time>
      </trkpt>
      <trkpt lat="35.509813486602745" lon="112.83956368852542">
        <ele>724.5648031765595</ele>
        <time>2026-07-25T12:44:17Z</time>
      </trkpt>
      <trkpt lat="35.510008713380714" lon="112.83953097116536">
        <ele>724.6167141888291</ele>
        <time>2026-07-25T12:44:21Z</time>
      </trkpt>
      <trkpt lat="35.51040364105912" lon="112.83942218919107">
        <ele>724.2964685903862</ele>
        <time>2026-07-25T12:44:31Z</time>
      </trkpt>
      <trkpt lat="35.51071058529088" lon="112.83940411414862">
        <ele>723.9891566876322</ele>
        <time>2026-07-25T12:44:37Z</time>
      </trkpt>
      <trkpt lat="35.511011090530616" lon="112.83937786655179">
        <ele>725.865166102536</ele>
        <time>2026-07-25T12:44:46Z</time>
      </trkpt>
      <trkpt lat="35.51115337724993" lon="112.83935288291208">
        <ele>726.614439887926</ele>
        <time>2026-07-25T12:44:55Z</time>
      </trkpt>
      <trkpt lat="35.5112417271221" lon="112.83946277779813">
        <ele>726.2597628356889</ele>
        <time>2026-07-25T12:45:10Z</time>
      </trkpt>
      <trkpt lat="35.51125904319169" lon="112.83940781465722">
        <ele>727.6932108579203</ele>
        <time>2026-07-25T12:46:26Z</time>
      </trkpt>
      <trkpt lat="35.5112662556326" lon="112.83946344149034">
        <ele>727.0392045266926</ele>
        <time>2026-07-25T12:46:41Z</time>
      </trkpt>
      <trkpt lat="35.51125442934999" lon="112.83951724151765">
        <ele>726.5654683411121</ele>
        <time>2026-07-25T12:47:08Z</time>
      </trkpt>
      <trkpt lat="35.5113057704417" lon="112.83952884604214">
        <ele>727.3229456860572</ele>
        <time>2026-07-25T12:48:14Z</time>
      </trkpt>
      <trkpt lat="35.51128145970017" lon="112.8394729890193">
        <ele>726.0223244689405</ele>
        <time>2026-07-25T12:51:38Z</time>
      </trkpt>
      <trkpt lat="35.51126190123118" lon="112.83953526448677">
        <ele>726.1299982545897</ele>
        <time>2026-07-25T12:52:45Z</time>
      </trkpt>
      <trkpt lat="35.51128327498597" lon="112.83987955060768">
        <ele>726.924952111207</ele>
        <time>2026-07-25T12:52:54Z</time>
      </trkpt>
      <trkpt lat="35.51130364949707" lon="112.84022349746401">
        <ele>726.0579771380872</ele>
        <time>2026-07-25T12:53:03Z</time>
      </trkpt>
      <trkpt lat="35.51133080021772" lon="112.84059629514107">
        <ele>725.7969652414322</ele>
        <time>2026-07-25T12:53:12Z</time>
      </trkpt>
      <trkpt lat="35.51136617252149" lon="112.84097544157463">
        <ele>724.305001613684</ele>
        <time>2026-07-25T12:53:21Z</time>
      </trkpt>
      <trkpt lat="35.51137488576773" lon="112.84136580084441">
        <ele>723.9235971281305</ele>
        <time>2026-07-25T12:53:33Z</time>
      </trkpt>
      <trkpt lat="35.51141398919766" lon="112.84175051540225">
        <ele>725.2546082278714</ele>
        <time>2026-07-25T12:53:45Z</time>
      </trkpt>
      <trkpt lat="35.511407732725196" lon="112.84183523055073">
        <ele>724.4860253529623</ele>
        <time>2026-07-25T12:53:48Z</time>
      </trkpt>
      <trkpt lat="35.51143436374795" lon="112.84192017177087">
        <ele>725.8691743081436</ele>
        <time>2026-07-25T12:53:51Z</time>
      </trkpt>
      <trkpt lat="35.511461534038965" lon="112.84234764698701">
        <ele>724.6581589579582</ele>
        <time>2026-07-25T12:54:03Z</time>
      </trkpt>
      <trkpt lat="35.51143714284418" lon="112.84279789461759">
        <ele>726.4909860044718</ele>
        <time>2026-07-25T12:54:21Z</time>
      </trkpt>
      <trkpt lat="35.51143459920294" lon="112.84293532663885">
        <ele>726.659061039798</ele>
        <time>2026-07-25T12:54:27Z</time>
      </trkpt>
      <trkpt lat="35.51134603262121" lon="112.84335622245686">
        <ele>727.9295876557007</ele>
        <time>2026-07-25T12:54:41Z</time>
      </trkpt>
      <trkpt lat="35.51126690501131" lon="112.8437057679367">
        <ele>726.4163175551221</ele>
        <time>2026-07-25T12:54:52Z</time>
      </trkpt>
      <trkpt lat="35.511240646086414" lon="112.84382522095888">
        <ele>726.9728720951825</ele>
        <time>2026-07-25T12:54:55Z</time>
      </trkpt>
      <trkpt lat="35.51112249060282" lon="112.84402563809293">
        <ele>727.7731659524143</ele>
        <time>2026-07-25T12:55:01Z</time>
      </trkpt>
      <trkpt lat="35.51104949470631" lon="112.84421500242148">
        <ele>728.1663385517895</ele>
        <time>2026-07-25T12:55:07Z</time>
      </trkpt>
      <trkpt lat="35.510884896898844" lon="112.84448878994209">
        <ele>729.1021959586069</ele>
        <time>2026-07-25T12:55:16Z</time>
      </trkpt>
      <trkpt lat="35.510652753823244" lon="112.844800234073">
        <ele>731.1235318491235</ele>
        <time>2026-07-25T12:55:28Z</time>
      </trkpt>
      <trkpt lat="35.51044753114644" lon="112.84503792996456">
        <ele>732.9042900521308</ele>
        <time>2026-07-25T12:55:37Z</time>
      </trkpt>
      <trkpt lat="35.51021994097408" lon="112.84528375721403">
        <ele>734.5471263630316</ele>
        <time>2026-07-25T12:55:46Z</time>
      </trkpt>
      <trkpt lat="35.51000674317936" lon="112.845477347792">
        <ele>735.3795743389055</ele>
        <time>2026-07-25T12:55:52Z</time>
      </trkpt>
      <trkpt lat="35.50982239583521" lon="112.84573010417229">
        <ele>735.2080360352993</ele>
        <time>2026-07-25T12:55:58Z</time>
      </trkpt>
      <trkpt lat="35.50956352080074" lon="112.84613170658649">
        <ele>737.7249957118183</ele>
        <time>2026-07-25T12:56:07Z</time>
      </trkpt>
      <trkpt lat="35.50938573262923" lon="112.84638895891497">
        <ele>738.732863528654</ele>
        <time>2026-07-25T12:56:13Z</time>
      </trkpt>
      <trkpt lat="35.509322422663885" lon="112.84648363906274">
        <ele>739.6189038977027</ele>
        <time>2026-07-25T12:56:16Z</time>
      </trkpt>
      <trkpt lat="35.50928270296144" lon="112.8465878552051">
        <ele>739.8512487150729</ele>
        <time>2026-07-25T12:56:19Z</time>
      </trkpt>
      <trkpt lat="35.509244422022704" lon="112.84699705309737">
        <ele>740.2105828598142</ele>
        <time>2026-07-25T12:56:31Z</time>
      </trkpt>
      <trkpt lat="35.50924751421988" lon="112.8471641216637">
        <ele>740.9748887233436</ele>
        <time>2026-07-25T12:56:37Z</time>
      </trkpt>
      <trkpt lat="35.50920160475662" lon="112.84755186835623">
        <ele>742.3786417888477</ele>
        <time>2026-07-25T12:56:49Z</time>
      </trkpt>
      <trkpt lat="35.509166625783806" lon="112.84759634282892">
        <ele>742.7479544365779</ele>
        <time>2026-07-25T12:56:53Z</time>
      </trkpt>
      <trkpt lat="35.50905464234257" lon="112.84764914310693">
        <ele>742.1144195040688</ele>
        <time>2026-07-25T12:56:59Z</time>
      </trkpt>
      <trkpt lat="35.508699998295484" lon="112.84766966969076">
        <ele>741.2090570367873</ele>
        <time>2026-07-25T12:57:11Z</time>
      </trkpt>
      <trkpt lat="35.508423896351985" lon="112.8476996365607">
        <ele>740.1685923822224</ele>
        <time>2026-07-25T12:57:20Z</time>
      </trkpt>
      <trkpt lat="35.508181232435994" lon="112.84770165209835">
        <ele>739.8198462063447</ele>
        <time>2026-07-25T12:57:29Z</time>
      </trkpt>
      <trkpt lat="35.508133129957" lon="112.84770579371354">
        <ele>739.4021469457075</ele>
        <time>2026-07-25T12:58:02Z</time>
      </trkpt>
      <trkpt lat="35.50785507532619" lon="112.84768555897142">
        <ele>739.4252536119893</ele>
        <time>2026-07-25T12:58:52Z</time>
      </trkpt>
      <trkpt lat="35.50774114865937" lon="112.84766994423663">
        <ele>738.7432066174224</ele>
        <time>2026-07-25T12:58:56Z</time>
      </trkpt>
      <trkpt lat="35.5076576600799" lon="112.84768167987407">
        <ele>738.8645854666829</ele>
        <time>2026-07-25T12:59:00Z</time>
      </trkpt>
      <trkpt lat="35.50756421997995" lon="112.84774597427273">
        <ele>739.2644733125344</ele>
        <time>2026-07-25T12:59:03Z</time>
      </trkpt>
      <trkpt lat="35.507413720060754" lon="112.84777393306578">
        <ele>739.2986443163827</ele>
        <time>2026-07-25T12:59:06Z</time>
      </trkpt>
      <trkpt lat="35.50711333388097" lon="112.84777650867845">
        <ele>739.2177341366187</ele>
        <time>2026-07-25T12:59:12Z</time>
      </trkpt>
      <trkpt lat="35.506891416337695" lon="112.84773599316001">
        <ele>739.9127299441025</ele>
        <time>2026-07-25T12:59:18Z</time>
      </trkpt>
      <trkpt lat="35.506541043517274" lon="112.84795627274083">
        <ele>738.7243874557316</ele>
        <time>2026-07-25T12:59:27Z</time>
      </trkpt>
      <trkpt lat="35.50578572019041" lon="112.84800252853104">
        <ele>738.3150020642206</ele>
        <time>2026-07-25T12:59:42Z</time>
      </trkpt>
      <trkpt lat="35.50512385965547" lon="112.84802751319616">
        <ele>736.2855689153075</ele>
        <time>2026-07-25T12:59:57Z</time>
      </trkpt>
      <trkpt lat="35.505124074065826" lon="112.84780746384423">
        <ele>736.0500334957615</ele>
        <time>2026-07-25T13:00:06Z</time>
      </trkpt>
      <trkpt lat="35.50488250091277" lon="112.84781210423503">
        <ele>736.247306773439</ele>
        <time>2026-07-25T13:00:12Z</time>
      </trkpt>
      <trkpt lat="35.50475464316484" lon="112.84784241462808">
        <ele>733.8042045049369</ele>
        <time>2026-07-25T13:00:15Z</time>
      </trkpt>
      <trkpt lat="35.50463522560364" lon="112.84783941600904">
        <ele>733.3808822026476</ele>
        <time>2026-07-25T13:00:18Z</time>
      </trkpt>
      <trkpt lat="35.50455090528906" lon="112.84788483863466">
        <ele>732.9937603240833</ele>
        <time>2026-07-25T13:00:21Z</time>
      </trkpt>
      <trkpt lat="35.50439396777631" lon="112.84785126736358">
        <ele>732.7297644782811</ele>
        <time>2026-07-25T13:00:24Z</time>
      </trkpt>
      <trkpt lat="35.50420601586315" lon="112.84784553268965">
        <ele>732.4479099940509</ele>
        <time>2026-07-25T13:00:27Z</time>
      </trkpt>
      <trkpt lat="35.503999572238314" lon="112.84806480274513">
        <ele>730.4545863112435</ele>
        <time>2026-07-25T13:00:30Z</time>
      </trkpt>
      <trkpt lat="35.50359036861371" lon="112.84807715990502">
        <ele>729.4081690413877</ele>
        <time>2026-07-25T13:00:36Z</time>
      </trkpt>
      <trkpt lat="35.50321605328643" lon="112.84808847530176">
        <ele>727.7425015317276</ele>
        <time>2026-07-25T13:00:42Z</time>
      </trkpt>
      <trkpt lat="35.50283948435767" lon="112.84810117126058">
        <ele>726.4513786258176</ele>
        <time>2026-07-25T13:00:48Z</time>
      </trkpt>
      <trkpt lat="35.50248094435325" lon="112.84811356940462">
        <ele>723.8736939746886</ele>
        <time>2026-07-25T13:00:55Z</time>
      </trkpt>
      <trkpt lat="35.50237238284178" lon="112.84798680235657">
        <ele>723.6499625183642</ele>
        <time>2026-07-25T13:00:59Z</time>
      </trkpt>
      <trkpt lat="35.502287899109675" lon="112.84793870043437">
        <ele>725.6602834369987</ele>
        <time>2026-07-25T13:01:03Z</time>
      </trkpt>
      <trkpt lat="35.502180191142386" lon="112.84797205083473">
        <ele>725.4311420219019</ele>
        <time>2026-07-25T13:01:07Z</time>
      </trkpt>
      <trkpt lat="35.50205216397062" lon="112.84795801650138">
        <ele>723.5209959875792</ele>
        <time>2026-07-25T13:01:13Z</time>
      </trkpt>
      <trkpt lat="35.50200357524437" lon="112.8479371779288">
        <ele>723.68120503705</ele>
        <time>2026-07-25T13:01:16Z</time>
      </trkpt>
      <trkpt lat="35.50197261092999" lon="112.847867191002">
        <ele>723.8634779453278</ele>
        <time>2026-07-25T13:01:19Z</time>
      </trkpt>
      <trkpt lat="35.50193655094285" lon="112.84749838825194">
        <ele>723.3144512530416</ele>
        <time>2026-07-25T13:01:28Z</time>
      </trkpt>
      <trkpt lat="35.5018759803473" lon="112.8471921064996">
        <ele>723.5805377978832</ele>
        <time>2026-07-25T13:01:40Z</time>
      </trkpt>
      <trkpt lat="35.5018690549655" lon="112.84707694185099">
        <ele>723.8193172654137</ele>
        <time>2026-07-25T13:01:43Z</time>
      </trkpt>
      <trkpt lat="35.501805698176895" lon="112.84688001904874">
        <ele>724.1932326052338</ele>
        <time>2026-07-25T13:01:49Z</time>
      </trkpt>
      <trkpt lat="35.50178065090023" lon="112.84639188177715">
        <ele>724.5283999340609</ele>
        <time>2026-07-25T13:01:58Z</time>
      </trkpt>
      <trkpt lat="35.50172058098693" lon="112.84600668903734">
        <ele>724.694163438864</ele>
        <time>2026-07-25T13:02:07Z</time>
      </trkpt>
      <trkpt lat="35.50167989977868" lon="112.84568509848563">
        <ele>725.2043096777052</ele>
        <time>2026-07-25T13:02:19Z</time>
      </trkpt>
      <trkpt lat="35.50164778791777" lon="112.8456157744852">
        <ele>726.6444280352443</ele>
        <time>2026-07-25T13:02:22Z</time>
      </trkpt>
      <trkpt lat="35.501610042906925" lon="112.84544689816762">
        <ele>725.1143182022497</ele>
        <time>2026-07-25T13:02:28Z</time>
      </trkpt>
      <trkpt lat="35.501598801159304" lon="112.84503085056572">
        <ele>725.4542911518365</ele>
        <time>2026-07-25T13:02:40Z</time>
      </trkpt>
      <trkpt lat="35.5015918180221" lon="112.84488467211654">
        <ele>725.7976917997003</ele>
        <time>2026-07-25T13:02:43Z</time>
      </trkpt>
      <trkpt lat="35.50161247869657" lon="112.84446894274672">
        <ele>725.7807251205668</ele>
        <time>2026-07-25T13:02:52Z</time>
      </trkpt>
      <trkpt lat="35.5016442427569" lon="112.84415183486114">
        <ele>727.4830151228234</ele>
        <time>2026-07-25T13:03:02Z</time>
      </trkpt>
      <trkpt lat="35.50170131851598" lon="112.8440741432941">
        <ele>728.0672633461654</ele>
        <time>2026-07-25T13:03:10Z</time>
      </trkpt>
      <trkpt lat="35.501894498430694" lon="112.84406077606009">
        <ele>726.79420777224</ele>
        <time>2026-07-25T13:03:19Z</time>
      </trkpt>
      <trkpt lat="35.50218345229383" lon="112.84407711219801">
        <ele>729.2435233583674</ele>
        <time>2026-07-25T13:03:31Z</time>
      </trkpt>
      <trkpt lat="35.50224566384484" lon="112.84404387889055">
        <ele>730.0178010920063</ele>
        <time>2026-07-25T13:03:34Z</time>
      </trkpt>
      <trkpt lat="35.50243639031865" lon="112.84409162571964">
        <ele>728.9817544808611</ele>
        <time>2026-07-25T13:03:43Z</time>
      </trkpt>
      <trkpt lat="35.50252981412678" lon="112.84403871580312">
        <ele>729.2925206143409</ele>
        <time>2026-07-25T13:03:49Z</time>
      </trkpt>
      <trkpt lat="35.50281053727606" lon="112.84399067649775">
        <ele>728.325118990615</ele>
        <time>2026-07-25T13:04:01Z</time>
      </trkpt>
      <trkpt lat="35.50299699211719" lon="112.84399679878916">
        <ele>728.0506697492674</ele>
        <time>2026-07-25T13:04:07Z</time>
      </trkpt>
      <trkpt lat="35.50304136769072" lon="112.84401725243828">
        <ele>728.6389952730387</ele>
        <time>2026-07-25T13:04:10Z</time>
      </trkpt>
      <trkpt lat="35.50317769468101" lon="112.84401455336445">
        <ele>728.4654179187492</ele>
        <time>2026-07-25T13:04:16Z</time>
      </trkpt>
      <trkpt lat="35.503338997994085" lon="112.8440963715529">
        <ele>730.3074833238497</ele>
        <time>2026-07-25T13:04:25Z</time>
      </trkpt>
      <trkpt lat="35.50349783905506" lon="112.84412748139952">
        <ele>731.0519282277673</ele>
        <time>2026-07-25T13:04:40Z</time>
      </trkpt>
      <trkpt lat="35.50347642968559" lon="112.84407651219634">
        <ele>732.7966426629573</ele>
        <time>2026-07-25T13:04:52Z</time>
      </trkpt>
      <trkpt lat="35.503152093473425" lon="112.84396554514142">
        <ele>729.8451207000762</ele>
        <time>2026-07-25T13:05:11Z</time>
      </trkpt>
      <trkpt lat="35.5028669240105" lon="112.84385926480213">
        <ele>729.3274918273091</ele>
        <time>2026-07-25T13:05:30Z</time>
      </trkpt>
      <trkpt lat="35.50277710408388" lon="112.84386535971355">
        <ele>729.191012667492</ele>
        <time>2026-07-25T13:05:33Z</time>
      </trkpt>
      <trkpt lat="35.50269538877431" lon="112.84384692748925">
        <ele>728.4175706198439</ele>
        <time>2026-07-25T13:05:36Z</time>
      </trkpt>
      <trkpt lat="35.502397136442575" lon="112.84390572241486">
        <ele>726.6703103585169</ele>
        <time>2026-07-25T13:05:48Z</time>
      </trkpt>
      <trkpt lat="35.50218237422363" lon="112.84394271352559">
        <ele>727.410318735987</ele>
        <time>2026-07-25T13:06:00Z</time>
      </trkpt>
      <trkpt lat="35.50195590778292" lon="112.84402983856265">
        <ele>727.0373400896788</ele>
        <time>2026-07-25T13:06:12Z</time>
      </trkpt>
      <trkpt lat="35.501867232413005" lon="112.84396167021205">
        <ele>728.7603170471266</ele>
        <time>2026-07-25T13:06:15Z</time>
      </trkpt>
      <trkpt lat="35.501597646784155" lon="112.8439987078429">
        <ele>728.2451743958518</ele>
        <time>2026-07-25T13:06:27Z</time>
      </trkpt>
      <trkpt lat="35.50151897717766" lon="112.84395947197376">
        <ele>727.2382788937539</ele>
        <time>2026-07-25T13:06:30Z</time>
      </trkpt>
      <trkpt lat="35.50144620835224" lon="112.84388729345045">
        <ele>726.506310371682</ele>
        <time>2026-07-25T13:06:33Z</time>
      </trkpt>
      <trkpt lat="35.501414284649776" lon="112.84383106210859">
        <ele>725.3741919677705</ele>
        <time>2026-07-25T13:06:45Z</time>
      </trkpt>
      <trkpt lat="35.50142388470916" lon="112.84373861179895">
        <ele>725.553428703919</ele>
        <time>2026-07-25T13:06:48Z</time>
      </trkpt>
      <trkpt lat="35.50136152871519" lon="112.84344936778322">
        <ele>724.4563715895638</ele>
        <time>2026-07-25T13:06:54Z</time>
      </trkpt>
      <trkpt lat="35.50135810225593" lon="112.84333351598178">
        <ele>722.7199019044638</ele>
        <time>2026-07-25T13:06:57Z</time>
      </trkpt>
      <trkpt lat="35.50131442196022" lon="112.84299854516695">
        <ele>720.4149013813585</ele>
        <time>2026-07-25T13:07:03Z</time>
      </trkpt>
      <trkpt lat="35.50122897790493" lon="112.84265929035935">
        <ele>717.193782730028</ele>
        <time>2026-07-25T13:07:13Z</time>
      </trkpt>
      <trkpt lat="35.5011898325353" lon="112.84231970840511">
        <ele>716.206100711599</ele>
        <time>2026-07-25T13:07:22Z</time>
      </trkpt>
      <trkpt lat="35.50120017603289" lon="112.84211700412084">
        <ele>715.1204910865054</ele>
        <time>2026-07-25T13:07:28Z</time>
      </trkpt>
      <trkpt lat="35.50122659517132" lon="112.84201044311229">
        <ele>714.7896472159773</ele>
        <time>2026-07-25T13:07:31Z</time>
      </trkpt>
      <trkpt lat="35.50122664335058" lon="112.84178836323538">
        <ele>715.2966699386016</ele>
        <time>2026-07-25T13:07:37Z</time>
      </trkpt>
      <trkpt lat="35.50119524916669" lon="112.84165300319161">
        <ele>714.2470265598968</ele>
        <time>2026-07-25T13:07:40Z</time>
      </trkpt>
      <trkpt lat="35.50120189150349" lon="112.84157466726566">
        <ele>714.7910503614694</ele>
        <time>2026-07-25T13:07:43Z</time>
      </trkpt>
      <trkpt lat="35.501176072546265" lon="112.84151221133862">
        <ele>717.7294700387865</ele>
        <time>2026-07-25T13:07:52Z</time>
      </trkpt>
      <trkpt lat="35.501117432190526" lon="112.84145225942049">
        <ele>719.3785736709833</ele>
        <time>2026-07-25T13:07:55Z</time>
      </trkpt>
      <trkpt lat="35.50100018896998" lon="112.84102628720687">
        <ele>714.5990821104497</ele>
        <time>2026-07-25T13:08:04Z</time>
      </trkpt>
      <trkpt lat="35.500941577048295" lon="112.84063893959213">
        <ele>713.7099105659872</ele>
        <time>2026-07-25T13:08:13Z</time>
      </trkpt>
      <trkpt lat="35.50095482460259" lon="112.84055175073439">
        <ele>712.5727023798972</ele>
        <time>2026-07-25T13:08:16Z</time>
      </trkpt>
      <trkpt lat="35.50094565730027" lon="112.84044200964478">
        <ele>713.1010786956176</ele>
        <time>2026-07-25T13:08:19Z</time>
      </trkpt>
      <trkpt lat="35.50088674702027" lon="112.84019879999717">
        <ele>714.3900616038591</ele>
        <time>2026-07-25T13:08:28Z</time>
      </trkpt>
      <trkpt lat="35.50090961501607" lon="112.8400953643458">
        <ele>713.5941407261416</ele>
        <time>2026-07-25T13:08:31Z</time>
      </trkpt>
      <trkpt lat="35.500986211248126" lon="112.84003673998023">
        <ele>713.3582512363791</ele>
        <time>2026-07-25T13:08:37Z</time>
      </trkpt>
      <trkpt lat="35.50114984723512" lon="112.84000452973059">
        <ele>711.1062192404643</ele>
        <time>2026-07-25T13:08:52Z</time>
      </trkpt>
      <trkpt lat="35.501188473923094" lon="112.83997335271536">
        <ele>709.2591224918142</ele>
        <time>2026-07-25T13:09:04Z</time>
      </trkpt>
      <trkpt lat="35.501235166152185" lon="112.83996756263853">
        <ele>709.0200408129022</ele>
        <time>2026-07-25T13:09:42Z</time>
      </trkpt>
      <trkpt lat="35.5012752942607" lon="112.839923873188">
        <ele>709.3376881936565</ele>
        <time>2026-07-25T13:11:25Z</time>
      </trkpt>
      <trkpt lat="35.50156424841784" lon="112.83987107993542">
        <ele>709.5937698325142</ele>
        <time>2026-07-25T13:11:34Z</time>
      </trkpt>
      <trkpt lat="35.50196787823964" lon="112.83983806625703">
        <ele>709.0635971641168</ele>
        <time>2026-07-25T13:11:43Z</time>
      </trkpt>
      <trkpt lat="35.50230287341235" lon="112.83978384042337">
        <ele>708.1223917026073</ele>
        <time>2026-07-25T13:11:49Z</time>
      </trkpt>
      <trkpt lat="35.5025843851489" lon="112.83973335940189">
        <ele>708.4697089558467</ele>
        <time>2026-07-25T13:11:55Z</time>
      </trkpt>
      <trkpt lat="35.50271477687782" lon="112.83972508795206">
        <ele>708.6795900827274</ele>
        <time>2026-07-25T13:11:58Z</time>
      </trkpt>
      <trkpt lat="35.50299398692189" lon="112.83965642482157">
        <ele>709.1240683859214</ele>
        <time>2026-07-25T13:12:04Z</time>
      </trkpt>
      <trkpt lat="35.50337895420362" lon="112.8396077291309">
        <ele>710.3261147821322</ele>
        <time>2026-07-25T13:12:13Z</time>
      </trkpt>
      <trkpt lat="35.50366607995869" lon="112.83956761049379">
        <ele>711.2846170309931</ele>
        <time>2026-07-25T13:12:19Z</time>
      </trkpt>
      <trkpt lat="35.50403270451712" lon="112.8395592694497">
        <ele>711.5146201476455</ele>
        <time>2026-07-25T13:12:25Z</time>
      </trkpt>
      <trkpt lat="35.50420381067532" lon="112.83959243804712">
        <ele>711.6586618656293</ele>
        <time>2026-07-25T13:12:28Z</time>
      </trkpt>
      <trkpt lat="35.50456060693623" lon="112.83960137216287">
        <ele>712.2593906195834</ele>
        <time>2026-07-25T13:12:34Z</time>
      </trkpt>
      <trkpt lat="35.5049073832769" lon="112.8396009815335">
        <ele>713.5013360725716</ele>
        <time>2026-07-25T13:12:40Z</time>
      </trkpt>
      <trkpt lat="35.50524764048419" lon="112.83962784725063">
        <ele>713.7997934482992</ele>
        <time>2026-07-25T13:12:46Z</time>
      </trkpt>
      <trkpt lat="35.505630400347314" lon="112.83965119089666">
        <ele>714.4386310130358</ele>
        <time>2026-07-25T13:12:55Z</time>
      </trkpt>
      <trkpt lat="35.50585386520249" lon="112.83963748863151">
        <ele>716.0486853905022</ele>
        <time>2026-07-25T13:13:10Z</time>
      </trkpt>
      <trkpt lat="35.505921964974085" lon="112.83964799613031">
        <ele>715.9180500330403</ele>
        <time>2026-07-25T13:13:13Z</time>
      </trkpt>
      <trkpt lat="35.506011194971684" lon="112.83988476072699">
        <ele>716.5256396047771</ele>
        <time>2026-07-25T13:13:16Z</time>
      </trkpt>
      <trkpt lat="35.50601998291294" lon="112.84034272730362">
        <ele>715.3408108288422</ele>
        <time>2026-07-25T13:13:22Z</time>
      </trkpt>
      <trkpt lat="35.506051798723476" lon="112.84073510593242">
        <ele>714.9010967491195</ele>
        <time>2026-07-25T13:13:29Z</time>
      </trkpt>
      <trkpt lat="35.5061157917446" lon="112.84112691556268">
        <ele>715.2416801974177</ele>
        <time>2026-07-25T13:13:35Z</time>
      </trkpt>
      <trkpt lat="35.50615738615517" lon="112.84131055651144">
        <ele>714.9461160283536</ele>
        <time>2026-07-25T13:13:38Z</time>
      </trkpt>
      <trkpt lat="35.50618888370924" lon="112.84144959346061">
        <ele>715.2220827983692</ele>
        <time>2026-07-25T13:13:41Z</time>
      </trkpt>
      <trkpt lat="35.50621147708593" lon="112.84154932664035">
        <ele>715.5437987307087</ele>
        <time>2026-07-25T13:13:44Z</time>
      </trkpt>
      <trkpt lat="35.50619800599072" lon="112.84163996197914">
        <ele>716.0008433023468</ele>
        <time>2026-07-25T13:13:47Z</time>
      </trkpt>
      <trkpt lat="35.506262113169036" lon="112.84201269037844">
        <ele>718.6845170082524</ele>
        <time>2026-07-25T13:14:02Z</time>
      </trkpt>
      <trkpt lat="35.50632943538138" lon="112.84240101449744">
        <ele>721.6347666718066</ele>
        <time>2026-07-25T13:14:11Z</time>
      </trkpt>
      <trkpt lat="35.50643485831918" lon="112.84278997889798">
        <ele>723.6860381970182</ele>
        <time>2026-07-25T13:14:20Z</time>
      </trkpt>
      <trkpt lat="35.506498871049224" lon="112.84309140003232">
        <ele>725.9367387099192</ele>
        <time>2026-07-25T13:14:32Z</time>
      </trkpt>
      <trkpt lat="35.506509371634756" lon="112.84324975297984">
        <ele>726.5457211248577</ele>
        <time>2026-07-25T13:14:35Z</time>
      </trkpt>
      <trkpt lat="35.50657984365694" lon="112.8435259061134">
        <ele>727.8268569037318</ele>
        <time>2026-07-25T13:14:41Z</time>
      </trkpt>
      <trkpt lat="35.50664304992813" lon="112.84388078096605">
        <ele>730.0171710802242</ele>
        <time>2026-07-25T13:14:50Z</time>
      </trkpt>
      <trkpt lat="35.50667786652515" lon="112.84399773105977">
        <ele>730.270419745706</ele>
        <time>2026-07-25T13:14:53Z</time>
      </trkpt>
      <trkpt lat="35.50671373856091" lon="112.84406299478732">
        <ele>730.549215563573</ele>
        <time>2026-07-25T13:14:56Z</time>
      </trkpt>
      <trkpt lat="35.506738198444104" lon="112.84420196894796">
        <ele>730.5869493130594</ele>
        <time>2026-07-25T13:14:59Z</time>
      </trkpt>
      <trkpt lat="35.506854822113105" lon="112.8444680717074">
        <ele>731.14378633257</ele>
        <time>2026-07-25T13:15:05Z</time>
      </trkpt>
      <trkpt lat="35.506999781889675" lon="112.84473475328723">
        <ele>732.5151706077158</ele>
        <time>2026-07-25T13:15:11Z</time>
      </trkpt>
      <trkpt lat="35.50711654859974" lon="112.8448756771588">
        <ele>732.7892015939578</ele>
        <time>2026-07-25T13:15:14Z</time>
      </trkpt>
      <trkpt lat="35.50721762275083" lon="112.84505187157623">
        <ele>733.7099896874279</ele>
        <time>2026-07-25T13:15:17Z</time>
      </trkpt>
      <trkpt lat="35.5072873708624" lon="112.8452250830247">
        <ele>734.1124921469018</ele>
        <time>2026-07-25T13:15:20Z</time>
      </trkpt>
      <trkpt lat="35.50734182652053" lon="112.8454408668106">
        <ele>734.1631963811815</ele>
        <time>2026-07-25T13:15:26Z</time>
      </trkpt>
      <trkpt lat="35.50758063073299" lon="112.84555889569275">
        <ele>735.1157921403646</ele>
        <time>2026-07-25T13:15:29Z</time>
      </trkpt>
      <trkpt lat="35.507599516910574" lon="112.84574237068301">
        <ele>735.8508112477139</ele>
        <time>2026-07-25T13:15:32Z</time>
      </trkpt>
      <trkpt lat="35.50751276277776" lon="112.846012583155">
        <ele>737.7231603348628</ele>
        <time>2026-07-25T13:15:36Z</time>
      </trkpt>
      <trkpt lat="35.50752389872261" lon="112.84629189334433">
        <ele>737.9618184566498</ele>
        <time>2026-07-25T13:15:40Z</time>
      </trkpt>
      <trkpt lat="35.50766148653348" lon="112.8465077260927">
        <ele>738.0874431505799</ele>
        <time>2026-07-25T13:15:44Z</time>
      </trkpt>
      <trkpt lat="35.507526738829846" lon="112.84666998504866">
        <ele>738.2141180224717</ele>
        <time>2026-07-25T13:15:48Z</time>
      </trkpt>
      <trkpt lat="35.5075140537715" lon="112.84678236306422">
        <ele>738.0098928920925</ele>
        <time>2026-07-25T13:15:51Z</time>
      </trkpt>
      <trkpt lat="35.50754611760593" lon="112.846976481512">
        <ele>739.049700002186</ele>
        <time>2026-07-25T13:15:57Z</time>
      </trkpt>
      <trkpt lat="35.50757901103244" lon="112.84702652980059">
        <ele>738.7690237965435</ele>
        <time>2026-07-25T13:16:12Z</time>
      </trkpt>
      <trkpt lat="35.50757853363836" lon="112.84711798088983">
        <ele>738.6895678685978</ele>
        <time>2026-07-25T13:17:15Z</time>
      </trkpt>
      <trkpt lat="35.507522814969384" lon="112.84718831449929">
        <ele>738.4048515073955</ele>
        <time>2026-07-25T13:17:21Z</time>
      </trkpt>
      <trkpt lat="35.50740682958897" lon="112.84723037376595">
        <ele>736.4434699686244</ele>
        <time>2026-07-25T13:17:30Z</time>
      </trkpt>
      <trkpt lat="35.50730041700319" lon="112.84731909559905">
        <ele>738.7050222801045</ele>
        <time>2026-07-25T13:17:46Z</time>
      </trkpt>
      <trkpt lat="35.50725223069003" lon="112.84733181679066">
        <ele>739.277086914517</ele>
        <time>2026-07-25T13:17:52Z</time>
      </trkpt>
      <trkpt lat="35.5072069395732" lon="112.84736833425627">
        <ele>739.3476894712076</ele>
        <time>2026-07-25T13:17:55Z</time>
      </trkpt>
      <trkpt lat="35.50731590178459" lon="112.84736334324874">
        <ele>739.1719550155103</ele>
        <time>2026-07-25T13:18:01Z</time>
      </trkpt>
      <trkpt lat="35.50738509147552" lon="112.8473366759172">
        <ele>739.1710130451247</ele>
        <time>2026-07-25T13:18:04Z</time>
      </trkpt>
      <trkpt lat="35.50745125120954" lon="112.8473509864578">
        <ele>739.0332082668319</ele>
        <time>2026-07-25T13:18:10Z</time>
      </trkpt>
      <trkpt lat="35.507651898820576" lon="112.84732532270853">
        <ele>738.9378287121654</ele>
        <time>2026-07-25T13:18:19Z</time>
      </trkpt>
      <trkpt lat="35.50737038045527" lon="112.84731434522548">
        <ele>740.055803318508</ele>
        <time>2026-07-25T13:18:40Z</time>
      </trkpt>
      <trkpt lat="35.506980106917226" lon="112.84703886865513">
        <ele>837.5791187481955</ele>
        <time>2026-07-25T13:19:49Z</time>
      </trkpt>
      <trkpt lat="35.50686434230612" lon="112.8466986086171">
        <ele>970.1927664615214</ele>
        <time>2026-07-25T13:20:01Z</time>
      </trkpt>
      <trkpt lat="35.50683243607159" lon="112.84665546640191">
        <ele>978.2372000152245</ele>
        <time>2026-07-25T13:20:04Z</time>
      </trkpt>
      <trkpt lat="35.506918470305465" lon="112.84720550451034">
        <ele>739.0002057505772</ele>
        <time>2026-07-25T13:20:19Z</time>
      </trkpt>
      <trkpt lat="35.50696725201651" lon="112.84718737709825">
        <ele>739.0086534917355</ele>
        <time>2026-07-25T13:20:22Z</time>
      </trkpt>
      <trkpt lat="35.507006327302264" lon="112.84720505633621">
        <ele>739.16596264299</ele>
        <time>2026-07-25T13:20:28Z</time>
      </trkpt>
    </trkseg>
  </trk>
</gpx>