<?xml version="1.0" encoding="UTF-8"?>
<gpx xmlns="http://www.topografix.com/GPX/1/1" xmlns:gpxtpx="http://www.garmin.com/xmlschemas/TrackPointExtension/v1" xmlns:xsi="http://www.w3.org/2001/XMLSchema-instance" xsi:schemaLocation="http://www.topografix.com/GPX/1/1 http://www.topografix.com/GPX/1/1/gpx.xsd" version="1.1" creator="gpx.py -- https://github.com/tkrajina/gpxpy">
  <trk>
    <name>gpx from keep</name>
    <type>Run</type>
    <trkseg>
      <trkpt lat="34.8389327345018" lon="113.64803353536313">
        <ele>90.92083724308759</ele>
        <time>2026-10-09T00:30:07Z</time>
      </trkpt>
      <trkpt lat="34.838906233325076" lon="113.6483775592141">
        <ele>89.5385318165645</ele>
        <time>2026-10-09T00:30:20Z</time>
      </trkpt>
      <trkpt lat="34.83889749512557" lon="113.64878000617303">
        <ele>89.65340095479041</ele>
        <time>2026-10-09T00:30:35Z</time>
      </trkpt>
      <trkpt lat="34.838904160594986" lon="113.64909238329683">
        <ele>89.51629214454442</ele>
        <time>2026-10-09T00:30:47Z</time>
      </trkpt>
      <trkpt lat="34.838988380595225" lon="113.64912046229156">
        <ele>88.50745371263474</ele>
        <time>2026-10-09T00:30:53Z</time>
      </trkpt>
      <trkpt lat="34.839041822790826" lon="113.64911649670637">
        <ele>87.4028407279402</ele>
        <time>2026-10-09T00:31:20Z</time>
      </trkpt>
      <trkpt lat="34.83912620912303" lon="113.64934663859343">
        <ele>85.81192575208843</ele>
        <time>2026-10-09T00:31:32Z</time>
      </trkpt>
      <trkpt lat="34.83916536404945" lon="113.6495499374035">
        <ele>86.81775055173784</ele>
        <time>2026-10-09T00:31:41Z</time>
      </trkpt>
      <trkpt lat="34.8391638046969" lon="113.64961892738617">
        <ele>86.64227746333927</ele>
        <time>2026-10-09T00:31:44Z</time>
      </trkpt>
      <trkpt lat="34.83913084931979" lon="113.64968739656221">
        <ele>86.54740640241653</ele>
        <time>2026-10-09T00:31:47Z</time>
      </trkpt>
      <trkpt lat="34.83893141825056" lon="113.64987235379334">
        <ele>86.3825758015737</ele>
        <time>2026-10-09T00:31:59Z</time>
      </trkpt>
      <trkpt lat="34.8386661010992" lon="113.64999903734191">
        <ele>86.26924903038889</ele>
        <time>2026-10-09T00:32:12Z</time>
      </trkpt>
      <trkpt lat="34.838344558933365" lon="113.65010744811802">
        <ele>85.65335801336914</ele>
        <time>2026-10-09T00:32:27Z</time>
      </trkpt>
      <trkpt lat="34.838163249870185" lon="113.65019380171904">
        <ele>84.99141181819141</ele>
        <time>2026-10-09T00:32:36Z</time>
      </trkpt>
      <trkpt lat="34.837984292918264" lon="113.65038669384514">
        <ele>84.62372296024114</ele>
        <time>2026-10-09T00:32:45Z</time>
      </trkpt>
      <trkpt lat="34.8379228248701" lon="113.65042739567862">
        <ele>85.11261912994087</ele>
        <time>2026-10-09T00:32:48Z</time>
      </trkpt>
      <trkpt lat="34.83766503921942" lon="113.65054716915628">
        <ele>85.7340233400464</ele>
        <time>2026-10-09T00:33:00Z</time>
      </trkpt>
      <trkpt lat="34.837597329068934" lon="113.65057000993143">
        <ele>85.02810152992606</ele>
        <time>2026-10-09T00:33:03Z</time>
      </trkpt>
      <trkpt lat="34.83725519869607" lon="113.65057439392261">
        <ele>85.66036571096629</ele>
        <time>2026-10-09T00:33:18Z</time>
      </trkpt>
      <trkpt lat="34.837053864866334" lon="113.65059418229887">
        <ele>85.97948900144547</ele>
        <time>2026-10-09T00:33:27Z</time>
      </trkpt>
      <trkpt lat="34.83699467436408" lon="113.6506222974253">
        <ele>85.13550663273782</ele>
        <time>2026-10-09T00:33:30Z</time>
      </trkpt>
      <trkpt lat="34.83694177611886" lon="113.65061982303469">
        <ele>84.63615418598056</ele>
        <time>2026-10-09T00:33:33Z</time>
      </trkpt>
      <trkpt lat="34.83664169552057" lon="113.65079352727166">
        <ele>84.77610680088401</ele>
        <time>2026-10-09T00:33:48Z</time>
      </trkpt>
      <trkpt lat="34.836332353914074" lon="113.65094683196983">
        <ele>85.89123097341508</ele>
        <time>2026-10-09T00:34:03Z</time>
      </trkpt>
      <trkpt lat="34.836006574674926" lon="113.65110365440958">
        <ele>86.04412351734936</ele>
        <time>2026-10-09T00:34:18Z</time>
      </trkpt>
      <trkpt lat="34.835680966746494" lon="113.65121135434977">
        <ele>86.09257832355797</ele>
        <time>2026-10-09T00:34:34Z</time>
      </trkpt>
      <trkpt lat="34.8356184892504" lon="113.65122874362521">
        <ele>85.41475371643901</ele>
        <time>2026-10-09T00:34:37Z</time>
      </trkpt>
      <trkpt lat="34.83559337688985" lon="113.65127431743497">
        <ele>85.29450710024685</ele>
        <time>2026-10-09T00:34:40Z</time>
      </trkpt>
      <trkpt lat="34.835610372183844" lon="113.6516275334654">
        <ele>88.70273600891232</ele>
        <time>2026-10-09T00:34:55Z</time>
      </trkpt>
      <trkpt lat="34.835729554021476" lon="113.6518163200015">
        <ele>86.6642855592072</ele>
        <time>2026-10-09T00:35:07Z</time>
      </trkpt>
      <trkpt lat="34.835704656615896" lon="113.6518728103795">
        <ele>86.91480352170765</ele>
        <time>2026-10-09T00:35:10Z</time>
      </trkpt>
      <trkpt lat="34.83540447646608" lon="113.6520168871155">
        <ele>87.10943854413927</ele>
        <time>2026-10-09T00:35:25Z</time>
      </trkpt>
      <trkpt lat="34.835092380949355" lon="113.6521596321378">
        <ele>86.56845275405794</ele>
        <time>2026-10-09T00:35:40Z</time>
      </trkpt>
      <trkpt lat="34.83502810337036" lon="113.65216812533917">
        <ele>85.79745086282492</ele>
        <time>2026-10-09T00:35:43Z</time>
      </trkpt>
      <trkpt lat="34.834764936193345" lon="113.65228975300693">
        <ele>87.61237963102758</ele>
        <time>2026-10-09T00:35:55Z</time>
      </trkpt>
      <trkpt lat="34.83445199002721" lon="113.65240692161981">
        <ele>87.1701521454379</ele>
        <time>2026-10-09T00:36:10Z</time>
      </trkpt>
      <trkpt lat="34.8342264667785" lon="113.65251732036954">
        <ele>87.34387370478362</ele>
        <time>2026-10-09T00:36:21Z</time>
      </trkpt>
      <trkpt lat="34.83386800471872" lon="113.65258798790148">
        <ele>88.37487337552011</ele>
        <time>2026-10-09T00:36:37Z</time>
      </trkpt>
      <trkpt lat="34.833793535303876" lon="113.65262674391684">
        <ele>87.78571290615946</ele>
        <time>2026-10-09T00:36:41Z</time>
      </trkpt>
      <trkpt lat="34.83358402723745" lon="113.6526859034811">
        <ele>87.72682858631015</ele>
        <time>2026-10-09T00:36:50Z</time>
      </trkpt>
      <trkpt lat="34.83345165960718" lon="113.65274868707289">
        <ele>87.7304716212675</ele>
        <time>2026-10-09T00:36:56Z</time>
      </trkpt>
      <trkpt lat="34.83338015177689" lon="113.65274866930645">
        <ele>87.6605477379635</ele>
        <time>2026-10-09T00:36:59Z</time>
      </trkpt>
      <trkpt lat="34.83325887775622" lon="113.65284769892615">
        <ele>87.51800644304603</ele>
        <time>2026-10-09T00:37:05Z</time>
      </trkpt>
      <trkpt lat="34.83319376547327" lon="113.65285891496637">
        <ele>86.60437367670238</ele>
        <time>2026-10-09T00:37:08Z</time>
      </trkpt>
      <trkpt lat="34.8331352208984" lon="113.65282204925023">
        <ele>86.42636263463646</ele>
        <time>2026-10-09T00:37:11Z</time>
      </trkpt>
      <trkpt lat="34.83295553679716" lon="113.65287961776187">
        <ele>86.5632484620437</ele>
        <time>2026-10-09T00:37:20Z</time>
      </trkpt>
      <trkpt lat="34.832683542288414" lon="113.65302803990518">
        <ele>86.62743855733424</ele>
        <time>2026-10-09T00:37:32Z</time>
      </trkpt>
      <trkpt lat="34.83247541294151" lon="113.65313230833159">
        <ele>88.16370207909495</ele>
        <time>2026-10-09T00:37:41Z</time>
      </trkpt>
      <trkpt lat="34.832332680605575" lon="113.65316579367767">
        <ele>88.21001598332077</ele>
        <time>2026-10-09T00:37:47Z</time>
      </trkpt>
      <trkpt lat="34.83225493018047" lon="113.65315300800148">
        <ele>87.6703196875751</ele>
        <time>2026-10-09T00:37:50Z</time>
      </trkpt>
      <trkpt lat="34.832116827813934" lon="113.65318679793081">
        <ele>87.17231672909111</ele>
        <time>2026-10-09T00:37:56Z</time>
      </trkpt>
      <trkpt lat="34.83207752633504" lon="113.65323837282915">
        <ele>87.15866654086858</ele>
        <time>2026-10-09T00:37:59Z</time>
      </trkpt>
      <trkpt lat="34.83210733253218" lon="113.65338413841744">
        <ele>88.54633566364646</ele>
        <time>2026-10-09T00:38:05Z</time>
      </trkpt>
      <trkpt lat="34.83208622211361" lon="113.6534429202378">
        <ele>88.74240019824356</ele>
        <time>2026-10-09T00:38:08Z</time>
      </trkpt>
      <trkpt lat="34.831991142814026" lon="113.65350195105982">
        <ele>86.6768945204094</ele>
        <time>2026-10-09T00:38:14Z</time>
      </trkpt>
      <trkpt lat="34.83188849356812" lon="113.6535234620271">
        <ele>85.5474726818502</ele>
        <time>2026-10-09T00:38:20Z</time>
      </trkpt>
      <trkpt lat="34.83159798877517" lon="113.65351545303896">
        <ele>87.5328269675374</ele>
        <time>2026-10-09T00:38:32Z</time>
      </trkpt>
      <trkpt lat="34.83150266777063" lon="113.65351332407597">
        <ele>87.71577959135175</ele>
        <time>2026-10-09T00:38:36Z</time>
      </trkpt>
      <trkpt lat="34.83122593668188" lon="113.65361810940705">
        <ele>89.05637921672314</ele>
        <time>2026-10-09T00:38:48Z</time>
      </trkpt>
      <trkpt lat="34.83110398298382" lon="113.65367396042436">
        <ele>89.64827402401716</ele>
        <time>2026-10-09T00:38:54Z</time>
      </trkpt>
      <trkpt lat="34.831036502813625" lon="113.6536690281113">
        <ele>90.33145040553063</ele>
        <time>2026-10-09T00:38:57Z</time>
      </trkpt>
      <trkpt lat="34.8308538670738" lon="113.65379172698712">
        <ele>89.05125207826495</ele>
        <time>2026-10-09T00:39:06Z</time>
      </trkpt>
      <trkpt lat="34.830584377818205" lon="113.65380428464594">
        <ele>88.84433971438557</ele>
        <time>2026-10-09T00:39:18Z</time>
      </trkpt>
      <trkpt lat="34.83050353629046" lon="113.65401740655261">
        <ele>88.46722769271582</ele>
        <time>2026-10-09T00:39:27Z</time>
      </trkpt>
      <trkpt lat="34.8304349068856" lon="113.65415001932362">
        <ele>90.10855382680893</ele>
        <time>2026-10-09T00:39:33Z</time>
      </trkpt>
      <trkpt lat="34.83041549130248" lon="113.65447980683489">
        <ele>89.69587342906743</ele>
        <time>2026-10-09T00:39:45Z</time>
      </trkpt>
      <trkpt lat="34.83038756095658" lon="113.65486268569066">
        <ele>89.03021544404328</ele>
        <time>2026-10-09T00:40:00Z</time>
      </trkpt>
      <trkpt lat="34.830362142754744" lon="113.65495030460495">
        <ele>89.56858509033918</ele>
        <time>2026-10-09T00:40:03Z</time>
      </trkpt>
      <trkpt lat="34.830343073235845" lon="113.65528963094401">
        <ele>88.49137308634818</ele>
        <time>2026-10-09T00:40:15Z</time>
      </trkpt>
      <trkpt lat="34.8303250850746" lon="113.65537302043987">
        <ele>87.81876035965979</ele>
        <time>2026-10-09T00:40:18Z</time>
      </trkpt>
      <trkpt lat="34.830288599039086" lon="113.65543115768773">
        <ele>87.78105249162763</ele>
        <time>2026-10-09T00:40:21Z</time>
      </trkpt>
      <trkpt lat="34.830235480503056" lon="113.65546761108534">
        <ele>87.97617434058338</ele>
        <time>2026-10-09T00:40:24Z</time>
      </trkpt>
      <trkpt lat="34.829922009528836" lon="113.65560433530831">
        <ele>88.09349911659956</ele>
        <time>2026-10-09T00:40:40Z</time>
      </trkpt>
      <trkpt lat="34.829868560898944" lon="113.65562647560557">
        <ele>87.12486176658422</ele>
        <time>2026-10-09T00:40:44Z</time>
      </trkpt>
      <trkpt lat="34.829805657548974" lon="113.65562753640033">
        <ele>88.0997064281255</ele>
        <time>2026-10-09T00:40:52Z</time>
      </trkpt>
      <trkpt lat="34.82976842574949" lon="113.6556697705393">
        <ele>88.4705097451806</ele>
        <time>2026-10-09T00:40:56Z</time>
      </trkpt>
      <trkpt lat="34.82981537580935" lon="113.6557096810105">
        <ele>87.89892506413162</ele>
        <time>2026-10-09T00:41:02Z</time>
      </trkpt>
      <trkpt lat="34.82981537580935" lon="113.6557096810105">
        <ele>87.89892506413162</ele>
        <time>2026-10-09T00:41:13Z</time>
      </trkpt>
    </trkseg>
  </trk>
</gpx>