<?xml version="1.0" encoding="UTF-8"?>
<gpx xmlns="http://www.topografix.com/GPX/1/1" xmlns:gpxtpx="http://www.garmin.com/xmlschemas/TrackPointExtension/v1" xmlns:xsi="http://www.w3.org/2001/XMLSchema-instance" xsi:schemaLocation="http://www.topografix.com/GPX/1/1 http://www.topografix.com/GPX/1/1/gpx.xsd" version="1.1" creator="gpx.py -- https://github.com/tkrajina/gpxpy">
  <trk>
    <name>gpx from keep</name>
    <type>Walk</type>
    <trkseg>
      <trkpt lat="34.82810108113902" lon="113.65585887562816">
        <ele>85.08329512830824</ele>
        <time>2026-08-11T11:45:32Z</time>
      </trkpt>
      <trkpt lat="34.8280635673808" lon="113.65580278887236">
        <ele>82.87414588872343</ele>
        <time>2026-08-11T11:45:35Z</time>
      </trkpt>
      <trkpt lat="34.82797749106008" lon="113.65578456906917">
        <ele>89.06651489250362</ele>
        <time>2026-08-11T11:45:38Z</time>
      </trkpt>
      <trkpt lat="34.82780261355712" lon="113.65583349851575">
        <ele>91.11835734732449</ele>
        <time>2026-08-11T11:45:50Z</time>
      </trkpt>
      <trkpt lat="34.8277489296261" lon="113.65582137073129">
        <ele>93.2274993378669</ele>
        <time>2026-08-11T11:45:59Z</time>
      </trkpt>
      <trkpt lat="34.82771371326605" lon="113.65592889449574">
        <ele>93.50509342458099</ele>
        <time>2026-08-11T11:46:06Z</time>
      </trkpt>
      <trkpt lat="34.82757635294348" lon="113.65594591936134">
        <ele>95.70740375388414</ele>
        <time>2026-08-11T11:46:15Z</time>
      </trkpt>
      <trkpt lat="34.82751525167689" lon="113.65598961280865">
        <ele>93.48521837033331</ele>
        <time>2026-08-11T11:46:21Z</time>
      </trkpt>
      <trkpt lat="34.82731793961395" lon="113.65603250738425">
        <ele>94.4353605993092</ele>
        <time>2026-08-11T11:46:36Z</time>
      </trkpt>
      <trkpt lat="34.827258285079566" lon="113.65607350538049">
        <ele>94.50729559361935</ele>
        <time>2026-08-11T11:46:42Z</time>
      </trkpt>
      <trkpt lat="34.82718940876198" lon="113.65609206619004">
        <ele>94.02835566271096</ele>
        <time>2026-08-11T11:46:45Z</time>
      </trkpt>
      <trkpt lat="34.82713040552797" lon="113.65613113082276">
        <ele>94.51266753766686</ele>
        <time>2026-08-11T11:46:51Z</time>
      </trkpt>
      <trkpt lat="34.82708519610817" lon="113.65613231112707">
        <ele>95.73260534834117</ele>
        <time>2026-08-11T11:46:54Z</time>
      </trkpt>
      <trkpt lat="34.82698120511317" lon="113.65619578929606">
        <ele>94.18949330877513</ele>
        <time>2026-08-11T11:47:03Z</time>
      </trkpt>
      <trkpt lat="34.82697055279417" lon="113.65627899998432">
        <ele>92.06453330721706</ele>
        <time>2026-08-11T11:47:15Z</time>
      </trkpt>
      <trkpt lat="34.827055118681194" lon="113.65637483343906">
        <ele>92.86895195394754</ele>
        <time>2026-08-11T11:47:30Z</time>
      </trkpt>
      <trkpt lat="34.827083626546205" lon="113.65648566401211">
        <ele>93.77959247492254</ele>
        <time>2026-08-11T11:47:39Z</time>
      </trkpt>
      <trkpt lat="34.827087018126846" lon="113.656592261652">
        <ele>94.03661506809294</ele>
        <time>2026-08-11T11:47:48Z</time>
      </trkpt>
      <trkpt lat="34.827114733975904" lon="113.65666951270231">
        <ele>94.547897182405</ele>
        <time>2026-08-11T11:47:54Z</time>
      </trkpt>
      <trkpt lat="34.82717662958277" lon="113.65666616414316">
        <ele>93.09552593063563</ele>
        <time>2026-08-11T11:48:00Z</time>
      </trkpt>
      <trkpt lat="34.82731765977891" lon="113.65658207506628">
        <ele>93.4105167221278</ele>
        <time>2026-08-11T11:48:13Z</time>
      </trkpt>
      <trkpt lat="34.82744203298082" lon="113.65655790669024">
        <ele>94.26558333169669</ele>
        <time>2026-08-11T11:48:21Z</time>
      </trkpt>
      <trkpt lat="34.82765459755827" lon="113.65645325958054">
        <ele>92.72476961370558</ele>
        <time>2026-08-11T11:48:42Z</time>
      </trkpt>
      <trkpt lat="34.827701709467014" lon="113.6564483626707">
        <ele>92.2551801437512</ele>
        <time>2026-08-11T11:48:45Z</time>
      </trkpt>
      <trkpt lat="34.827719224796446" lon="113.65650477897053">
        <ele>90.45994029846042</ele>
        <time>2026-08-11T11:48:54Z</time>
      </trkpt>
      <trkpt lat="34.82768737029704" lon="113.65654694631343">
        <ele>82.23186951782554</ele>
        <time>2026-08-11T11:49:36Z</time>
      </trkpt>
      <trkpt lat="34.82771725405848" lon="113.65668285310129">
        <ele>84.72319822385907</ele>
        <time>2026-08-11T11:49:45Z</time>
      </trkpt>
      <trkpt lat="34.827752882395686" lon="113.65674884295086">
        <ele>86.43772014882416</ele>
        <time>2026-08-11T11:49:51Z</time>
      </trkpt>
      <trkpt lat="34.82777083103977" lon="113.65683076223678">
        <ele>86.44296819996089</ele>
        <time>2026-08-11T11:49:57Z</time>
      </trkpt>
      <trkpt lat="34.82776391352938" lon="113.6569213438822">
        <ele>86.54901327285916</ele>
        <time>2026-08-11T11:50:06Z</time>
      </trkpt>
      <trkpt lat="34.82772519410954" lon="113.6569526247668">
        <ele>86.09053599555045</ele>
        <time>2026-08-11T11:50:12Z</time>
      </trkpt>
      <trkpt lat="34.82772103237649" lon="113.65706479889936">
        <ele>86.90726754348725</ele>
        <time>2026-08-11T11:50:19Z</time>
      </trkpt>
      <trkpt lat="34.82773856497564" lon="113.65741074244346">
        <ele>88.0690002720803</ele>
        <time>2026-08-11T11:50:39Z</time>
      </trkpt>
      <trkpt lat="34.82767605901679" lon="113.65757487815902">
        <ele>92.05918609630316</ele>
        <time>2026-08-11T11:50:51Z</time>
      </trkpt>
      <trkpt lat="34.827681740981596" lon="113.65765524674393">
        <ele>91.18411107547581</ele>
        <time>2026-08-11T11:50:57Z</time>
      </trkpt>
      <trkpt lat="34.82764921107508" lon="113.65775381994806">
        <ele>89.54506077524275</ele>
        <time>2026-08-11T11:51:09Z</time>
      </trkpt>
      <trkpt lat="34.827691770658895" lon="113.65782035819848">
        <ele>89.9333813637495</ele>
        <time>2026-08-11T11:51:15Z</time>
      </trkpt>
      <trkpt lat="34.82776341222855" lon="113.65787760373465">
        <ele>92.42746343277395</ele>
        <time>2026-08-11T11:51:21Z</time>
      </trkpt>
      <trkpt lat="34.827711012039984" lon="113.65799186346173">
        <ele>93.04270563833416</ele>
        <time>2026-08-11T11:51:27Z</time>
      </trkpt>
      <trkpt lat="34.82769704397804" lon="113.65836726151397">
        <ele>89.52412078529596</ele>
        <time>2026-08-11T11:51:48Z</time>
      </trkpt>
      <trkpt lat="34.82767606871984" lon="113.65850427403407">
        <ele>89.86111570522189</ele>
        <time>2026-08-11T11:51:57Z</time>
      </trkpt>
      <trkpt lat="34.82771624307423" lon="113.65857441903859">
        <ele>91.59964235965163</ele>
        <time>2026-08-11T11:52:03Z</time>
      </trkpt>
      <trkpt lat="34.827980543924" lon="113.65854340750346">
        <ele>90.61484401114285</ele>
        <time>2026-08-11T11:52:21Z</time>
      </trkpt>
      <trkpt lat="34.82802575955583" lon="113.65856129101647">
        <ele>90.03177647665143</ele>
        <time>2026-08-11T11:52:25Z</time>
      </trkpt>
      <trkpt lat="34.8279979606415" lon="113.65891680927946">
        <ele>90.18107915483415</ele>
        <time>2026-08-11T11:52:45Z</time>
      </trkpt>
      <trkpt lat="34.827962757857335" lon="113.6592593418626">
        <ele>90.82928763423115</ele>
        <time>2026-08-11T11:53:05Z</time>
      </trkpt>
      <trkpt lat="34.82795318335757" lon="113.65936297468804">
        <ele>89.98491897340864</ele>
        <time>2026-08-11T11:53:11Z</time>
      </trkpt>
      <trkpt lat="34.82802417771306" lon="113.65947179453362">
        <ele>91.68870085477829</ele>
        <time>2026-08-11T11:53:17Z</time>
      </trkpt>
      <trkpt lat="34.82829564064226" lon="113.65954736984811">
        <ele>90.40677147265524</ele>
        <time>2026-08-11T11:53:35Z</time>
      </trkpt>
      <trkpt lat="34.82842230550657" lon="113.65953636964248">
        <ele>89.2710300097242</ele>
        <time>2026-08-11T11:53:44Z</time>
      </trkpt>
      <trkpt lat="34.82849648685673" lon="113.65955694274196">
        <ele>89.97197827510536</ele>
        <time>2026-08-11T11:53:50Z</time>
      </trkpt>
      <trkpt lat="34.82854355956753" lon="113.65954650481729">
        <ele>90.06397843454033</ele>
        <time>2026-08-11T11:53:53Z</time>
      </trkpt>
      <trkpt lat="34.82881568512391" lon="113.65956775237325">
        <ele>91.49638575315475</ele>
        <time>2026-08-11T11:54:11Z</time>
      </trkpt>
      <trkpt lat="34.829089329223116" lon="113.65960805966884">
        <ele>86.21822727657855</ele>
        <time>2026-08-11T11:54:38Z</time>
      </trkpt>
      <trkpt lat="34.82914344170091" lon="113.65958881377827">
        <ele>85.06442961469293</ele>
        <time>2026-08-11T11:54:42Z</time>
      </trkpt>
      <trkpt lat="34.82918411110534" lon="113.65953303710974">
        <ele>81.91822434403002</ele>
        <time>2026-08-11T11:54:46Z</time>
      </trkpt>
      <trkpt lat="34.82920989068152" lon="113.65939477535717">
        <ele>77.22657354362309</ele>
        <time>2026-08-11T11:54:55Z</time>
      </trkpt>
      <trkpt lat="34.82920989068152" lon="113.65939477535717">
        <ele>77.22657354362309</ele>
        <time>2026-08-11T11:54:58Z</time>
      </trkpt>
    </trkseg>
  </trk>
</gpx>