<?xml version="1.0" encoding="UTF-8"?>
<gpx xmlns="http://www.topografix.com/GPX/1/1" xmlns:gpxtpx="http://www.garmin.com/xmlschemas/TrackPointExtension/v1" xmlns:xsi="http://www.w3.org/2001/XMLSchema-instance" xsi:schemaLocation="http://www.topografix.com/GPX/1/1 http://www.topografix.com/GPX/1/1/gpx.xsd" version="1.1" creator="gpx.py -- https://github.com/tkrajina/gpxpy">
  <trk>
    <name>gpx from keep</name>
    <type>Run</type>
    <trkseg>
      <trkpt lat="34.829774310289324" lon="113.65744351513044">
        <ele>95.41632080078125</ele>
        <time>2026-07-28T00:23:27Z</time>
      </trkpt>
      <trkpt lat="34.829753611466785" lon="113.65736908836587">
        <ele>89.12518310546875</ele>
        <time>2026-07-28T00:23:32Z</time>
      </trkpt>
      <trkpt lat="34.82974677447056" lon="113.6572040333453">
        <ele>88.99768117349595</ele>
        <time>2026-07-28T00:23:38Z</time>
      </trkpt>
      <trkpt lat="34.8297591852146" lon="113.6568138178466">
        <ele>91.49192384257913</ele>
        <time>2026-07-28T00:23:50Z</time>
      </trkpt>
      <trkpt lat="34.82976782273582" lon="113.65650014088583">
        <ele>90.53429137542844</ele>
        <time>2026-07-28T00:24:02Z</time>
      </trkpt>
      <trkpt lat="34.82979684348406" lon="113.6562961284382">
        <ele>89.66351477149874</ele>
        <time>2026-07-28T00:24:11Z</time>
      </trkpt>
      <trkpt lat="34.82978829653905" lon="113.65623541684405">
        <ele>89.42938583344221</ele>
        <time>2026-07-28T00:24:14Z</time>
      </trkpt>
      <trkpt lat="34.82981233690772" lon="113.65609270659574">
        <ele>88.62424864713103</ele>
        <time>2026-07-28T00:24:20Z</time>
      </trkpt>
      <trkpt lat="34.82981761050447" lon="113.6557497883121">
        <ele>88.80344532057643</ele>
        <time>2026-07-28T00:24:35Z</time>
      </trkpt>
      <trkpt lat="34.82983686487267" lon="113.65538706703416">
        <ele>88.40089748706669</ele>
        <time>2026-07-28T00:24:50Z</time>
      </trkpt>
      <trkpt lat="34.82987340555946" lon="113.6550599157696">
        <ele>88.58992056362331</ele>
        <time>2026-07-28T00:25:05Z</time>
      </trkpt>
      <trkpt lat="34.82990719998228" lon="113.65470158953144">
        <ele>89.88040139060467</ele>
        <time>2026-07-28T00:25:20Z</time>
      </trkpt>
      <trkpt lat="34.82990565574183" lon="113.65433016958876">
        <ele>90.39674979168922</ele>
        <time>2026-07-28T00:25:36Z</time>
      </trkpt>
      <trkpt lat="34.82985492436657" lon="113.65429041291117">
        <ele>90.56437235604972</ele>
        <time>2026-07-28T00:25:39Z</time>
      </trkpt>
      <trkpt lat="34.82979276479878" lon="113.65433440470386">
        <ele>90.4157879492268</ele>
        <time>2026-07-28T00:25:45Z</time>
      </trkpt>
      <trkpt lat="34.82953578558554" lon="113.65445495319912">
        <ele>90.97620489727706</ele>
        <time>2026-07-28T00:26:00Z</time>
      </trkpt>
      <trkpt lat="34.829199589577385" lon="113.65459041852195">
        <ele>90.9142815740779</ele>
        <time>2026-07-28T00:26:18Z</time>
      </trkpt>
      <trkpt lat="34.829086394135295" lon="113.65465935105807">
        <ele>90.62776220403612</ele>
        <time>2026-07-28T00:26:24Z</time>
      </trkpt>
      <trkpt lat="34.82879961898355" lon="113.6547754969266">
        <ele>91.38014939706773</ele>
        <time>2026-07-28T00:26:39Z</time>
      </trkpt>
      <trkpt lat="34.82849896678768" lon="113.65489624988446">
        <ele>90.80778066441417</ele>
        <time>2026-07-28T00:26:54Z</time>
      </trkpt>
      <trkpt lat="34.82822724588961" lon="113.65500729049674">
        <ele>91.7573676276952</ele>
        <time>2026-07-28T00:27:09Z</time>
      </trkpt>
      <trkpt lat="34.82810373677109" lon="113.65504389652578">
        <ele>91.80748165491968</ele>
        <time>2026-07-28T00:27:15Z</time>
      </trkpt>
      <trkpt lat="34.8278222126011" lon="113.65516679725044">
        <ele>93.26697876676917</ele>
        <time>2026-07-28T00:27:30Z</time>
      </trkpt>
      <trkpt lat="34.82750203950356" lon="113.655295383923">
        <ele>92.94941353425384</ele>
        <time>2026-07-28T00:27:48Z</time>
      </trkpt>
      <trkpt lat="34.827207861999646" lon="113.65542154186707">
        <ele>93.59830585122108</ele>
        <time>2026-07-28T00:28:03Z</time>
      </trkpt>
      <trkpt lat="34.82694770207093" lon="113.65552602410621">
        <ele>94.34032327309251</ele>
        <time>2026-07-28T00:28:15Z</time>
      </trkpt>
      <trkpt lat="34.826670038301785" lon="113.65564191171536">
        <ele>93.14550430048257</ele>
        <time>2026-07-28T00:28:30Z</time>
      </trkpt>
      <trkpt lat="34.826608471582006" lon="113.65567151982813">
        <ele>93.38346325419843</ele>
        <time>2026-07-28T00:28:33Z</time>
      </trkpt>
      <trkpt lat="34.82655229030376" lon="113.65567622238828">
        <ele>93.36770728230476</ele>
        <time>2026-07-28T00:28:36Z</time>
      </trkpt>
      <trkpt lat="34.826259680885585" lon="113.65581421001335">
        <ele>93.34573260881007</ele>
        <time>2026-07-28T00:28:51Z</time>
      </trkpt>
      <trkpt lat="34.82596218173836" lon="113.6559386180432">
        <ele>92.14234041050076</ele>
        <time>2026-07-28T00:29:06Z</time>
      </trkpt>
      <trkpt lat="34.82569318958155" lon="113.65605793841672">
        <ele>91.70990116521716</ele>
        <time>2026-07-28T00:29:21Z</time>
      </trkpt>
      <trkpt lat="34.82546889709105" lon="113.65618003799031">
        <ele>92.33522675465792</ele>
        <time>2026-07-28T00:29:33Z</time>
      </trkpt>
      <trkpt lat="34.825143015824985" lon="113.65631878373021">
        <ele>92.06969712395221</ele>
        <time>2026-07-28T00:29:50Z</time>
      </trkpt>
      <trkpt lat="34.82484139223937" lon="113.65641850894467">
        <ele>93.32633312512189</ele>
        <time>2026-07-28T00:30:06Z</time>
      </trkpt>
      <trkpt lat="34.82480229074978" lon="113.65645404212115">
        <ele>93.25523137580603</ele>
        <time>2026-07-28T00:30:09Z</time>
      </trkpt>
      <trkpt lat="34.82457747731577" lon="113.6565332734614">
        <ele>92.94167811796069</ele>
        <time>2026-07-28T00:30:21Z</time>
      </trkpt>
      <trkpt lat="34.824502089943365" lon="113.65658781428405">
        <ele>94.39857987873256</ele>
        <time>2026-07-28T00:30:24Z</time>
      </trkpt>
      <trkpt lat="34.824282586920745" lon="113.65664845850976">
        <ele>92.01212553679943</ele>
        <time>2026-07-28T00:30:36Z</time>
      </trkpt>
      <trkpt lat="34.8239908198348" lon="113.65678187303143">
        <ele>92.07613963447511</ele>
        <time>2026-07-28T00:30:51Z</time>
      </trkpt>
      <trkpt lat="34.823788771664695" lon="113.65685822161278">
        <ele>92.27289164159447</ele>
        <time>2026-07-28T00:31:00Z</time>
      </trkpt>
      <trkpt lat="34.82373001765546" lon="113.6568657607612">
        <ele>92.11941597703844</ele>
        <time>2026-07-28T00:31:03Z</time>
      </trkpt>
      <trkpt lat="34.82343500348463" lon="113.65699359909925">
        <ele>92.26966767571867</ele>
        <time>2026-07-28T00:31:18Z</time>
      </trkpt>
      <trkpt lat="34.82319599961132" lon="113.65707724153272">
        <ele>93.58840813301504</ele>
        <time>2026-07-28T00:31:30Z</time>
      </trkpt>
      <trkpt lat="34.82308698437309" lon="113.6571529640299">
        <ele>93.36769024468958</ele>
        <time>2026-07-28T00:31:36Z</time>
      </trkpt>
      <trkpt lat="34.82290679300359" lon="113.65721107684496">
        <ele>93.88503363449126</ele>
        <time>2026-07-28T00:31:45Z</time>
      </trkpt>
      <trkpt lat="34.822852210527905" lon="113.65724546854965">
        <ele>94.07393381651491</ele>
        <time>2026-07-28T00:31:48Z</time>
      </trkpt>
      <trkpt lat="34.822773241072206" lon="113.65724749038688">
        <ele>92.35667506884784</ele>
        <time>2026-07-28T00:31:52Z</time>
      </trkpt>
      <trkpt lat="34.822712588024764" lon="113.65729495784588">
        <ele>91.81407498661429</ele>
        <time>2026-07-28T00:31:56Z</time>
      </trkpt>
      <trkpt lat="34.822488871390945" lon="113.65741264505627">
        <ele>92.15778819657862</ele>
        <time>2026-07-28T00:32:07Z</time>
      </trkpt>
      <trkpt lat="34.82219044425492" lon="113.65748609855962">
        <ele>89.2763124620542</ele>
        <time>2026-07-28T00:32:22Z</time>
      </trkpt>
      <trkpt lat="34.821927953292374" lon="113.65760548845508">
        <ele>90.50053897500038</ele>
        <time>2026-07-28T00:32:37Z</time>
      </trkpt>
      <trkpt lat="34.82170205811269" lon="113.65768877269554">
        <ele>90.32908563036472</ele>
        <time>2026-07-28T00:32:49Z</time>
      </trkpt>
      <trkpt lat="34.82155275931624" lon="113.65777933182551">
        <ele>91.89551232382655</ele>
        <time>2026-07-28T00:32:58Z</time>
      </trkpt>
      <trkpt lat="34.82137165989066" lon="113.65782544834371">
        <ele>91.41002663131803</ele>
        <time>2026-07-28T00:33:07Z</time>
      </trkpt>
      <trkpt lat="34.82116464073926" lon="113.65792917602208">
        <ele>92.17806619219482</ele>
        <time>2026-07-28T00:33:19Z</time>
      </trkpt>
      <trkpt lat="34.82088900753678" lon="113.65803508319006">
        <ele>92.46285093948245</ele>
        <time>2026-07-28T00:33:34Z</time>
      </trkpt>
      <trkpt lat="34.820845145486395" lon="113.65816557055012">
        <ele>87.76435321941972</ele>
        <time>2026-07-28T00:33:46Z</time>
      </trkpt>
      <trkpt lat="34.8205499504172" lon="113.65828620883198">
        <ele>88.62840787041932</ele>
        <time>2026-07-28T00:34:03Z</time>
      </trkpt>
      <trkpt lat="34.820482108643205" lon="113.65830617746265">
        <ele>88.05991547834128</ele>
        <time>2026-07-28T00:34:07Z</time>
      </trkpt>
      <trkpt lat="34.820418059037394" lon="113.6582958951484">
        <ele>88.45848977658898</ele>
        <time>2026-07-28T00:34:11Z</time>
      </trkpt>
      <trkpt lat="34.8203890149359" lon="113.65822474787942">
        <ele>88.32148464024067</ele>
        <time>2026-07-28T00:34:14Z</time>
      </trkpt>
      <trkpt lat="34.82026695097543" lon="113.65834681805404">
        <ele>88.75701033230871</ele>
        <time>2026-07-28T00:34:17Z</time>
      </trkpt>
      <trkpt lat="34.8202442882419" lon="113.658394053497">
        <ele>88.51994854491204</ele>
        <time>2026-07-28T00:34:20Z</time>
      </trkpt>
      <trkpt lat="34.81997124838124" lon="113.65852454067006">
        <ele>87.96406917646527</ele>
        <time>2026-07-28T00:34:35Z</time>
      </trkpt>
      <trkpt lat="34.819696587775695" lon="113.65862781778914">
        <ele>87.94859563931823</ele>
        <time>2026-07-28T00:34:50Z</time>
      </trkpt>
      <trkpt lat="34.81943092473361" lon="113.65874703721218">
        <ele>88.25993738044053</ele>
        <time>2026-07-28T00:35:05Z</time>
      </trkpt>
      <trkpt lat="34.81925842788396" lon="113.65880473835736">
        <ele>87.98095433507115</ele>
        <time>2026-07-28T00:35:14Z</time>
      </trkpt>
      <trkpt lat="34.81898867563552" lon="113.65893333864821">
        <ele>88.80702864844352</ele>
        <time>2026-07-28T00:35:29Z</time>
      </trkpt>
      <trkpt lat="34.81872012458255" lon="113.65904413141847">
        <ele>88.27798677235842</ele>
        <time>2026-07-28T00:35:44Z</time>
      </trkpt>
      <trkpt lat="34.818462074769414" lon="113.6591534238875">
        <ele>88.68731664773077</ele>
        <time>2026-07-28T00:35:59Z</time>
      </trkpt>
      <trkpt lat="34.81817744567404" lon="113.65926000633422">
        <ele>89.29792552627623</ele>
        <time>2026-07-28T00:36:15Z</time>
      </trkpt>
      <trkpt lat="34.8179117491246" lon="113.65937238528781">
        <ele>90.16458987165242</ele>
        <time>2026-07-28T00:36:30Z</time>
      </trkpt>
      <trkpt lat="34.817864910838004" lon="113.65941112996484">
        <ele>89.42257967311889</ele>
        <time>2026-07-28T00:36:33Z</time>
      </trkpt>
      <trkpt lat="34.81754648850502" lon="113.65953512071576">
        <ele>88.67149835079908</ele>
        <time>2026-07-28T00:36:51Z</time>
      </trkpt>
      <trkpt lat="34.81728943866267" lon="113.65964061827235">
        <ele>88.53585721924901</ele>
        <time>2026-07-28T00:37:06Z</time>
      </trkpt>
      <trkpt lat="34.81699446794127" lon="113.65975662161095">
        <ele>89.84687888994813</ele>
        <time>2026-07-28T00:37:21Z</time>
      </trkpt>
      <trkpt lat="34.81672490544895" lon="113.65986185368399">
        <ele>88.84314304590225</ele>
        <time>2026-07-28T00:37:36Z</time>
      </trkpt>
      <trkpt lat="34.81645223154376" lon="113.65997809219755">
        <ele>89.77649858035147</ele>
        <time>2026-07-28T00:37:51Z</time>
      </trkpt>
      <trkpt lat="34.81639662484572" lon="113.66002454291757">
        <ele>89.96706740092486</ele>
        <time>2026-07-28T00:37:54Z</time>
      </trkpt>
      <trkpt lat="34.81629877015011" lon="113.66005198610627">
        <ele>89.60364762693644</ele>
        <time>2026-07-28T00:38:00Z</time>
      </trkpt>
      <trkpt lat="34.81625802664946" lon="113.65998413454949">
        <ele>90.23133943136781</ele>
        <time>2026-07-28T00:38:10Z</time>
      </trkpt>
      <trkpt lat="34.81624118863101" lon="113.65991307187822">
        <ele>91.24870703183115</ele>
        <time>2026-07-28T00:38:14Z</time>
      </trkpt>
      <trkpt lat="34.81616189666392" lon="113.65978856906808">
        <ele>90.81062950287014</ele>
        <time>2026-07-28T00:38:22Z</time>
      </trkpt>
      <trkpt lat="34.816134527746065" lon="113.65984233396794">
        <ele>91.00550088193268</ele>
        <time>2026-07-28T00:38:28Z</time>
      </trkpt>
      <trkpt lat="34.81616528459469" lon="113.66007952267798">
        <ele>91.07087872177362</ele>
        <time>2026-07-28T00:38:37Z</time>
      </trkpt>
      <trkpt lat="34.81626475649338" lon="113.66041030847472">
        <ele>89.71655299980193</ele>
        <time>2026-07-28T00:38:52Z</time>
      </trkpt>
      <trkpt lat="34.81630815410989" lon="113.66067670725117">
        <ele>91.42728308215737</ele>
        <time>2026-07-28T00:39:04Z</time>
      </trkpt>
      <trkpt lat="34.81633841556734" lon="113.66073775798621">
        <ele>92.0508392592892</ele>
        <time>2026-07-28T00:39:07Z</time>
      </trkpt>
      <trkpt lat="34.816432484785416" lon="113.66076190099731">
        <ele>91.71333448216319</ele>
        <time>2026-07-28T00:39:13Z</time>
      </trkpt>
      <trkpt lat="34.816585159580384" lon="113.66065913788202">
        <ele>90.84570110682398</ele>
        <time>2026-07-28T00:39:22Z</time>
      </trkpt>
      <trkpt lat="34.816599220902255" lon="113.66054549640711">
        <ele>90.04399665724486</ele>
        <time>2026-07-28T00:39:28Z</time>
      </trkpt>
      <trkpt lat="34.81654966030007" lon="113.66046946209785">
        <ele>87.79142158012837</ele>
        <time>2026-07-28T00:39:34Z</time>
      </trkpt>
      <trkpt lat="34.81656508466635" lon="113.66040203406209">
        <ele>87.71182354167104</ele>
        <time>2026-07-28T00:39:37Z</time>
      </trkpt>
      <trkpt lat="34.81684832902341" lon="113.66028218801614">
        <ele>88.78336310945451</ele>
        <time>2026-07-28T00:39:52Z</time>
      </trkpt>
      <trkpt lat="34.81711736763046" lon="113.66017303864263">
        <ele>89.43834408279508</ele>
        <time>2026-07-28T00:40:07Z</time>
      </trkpt>
      <trkpt lat="34.81744211285814" lon="113.66004559700414">
        <ele>90.34785413742065</ele>
        <time>2026-07-28T00:40:24Z</time>
      </trkpt>
      <trkpt lat="34.81772466199901" lon="113.65992591138108">
        <ele>89.82214465271682</ele>
        <time>2026-07-28T00:40:40Z</time>
      </trkpt>
      <trkpt lat="34.81801130556232" lon="113.65982676299436">
        <ele>89.68222226761281</ele>
        <time>2026-07-28T00:40:55Z</time>
      </trkpt>
      <trkpt lat="34.81830725021203" lon="113.65970754658977">
        <ele>88.15812932886183</ele>
        <time>2026-07-28T00:41:10Z</time>
      </trkpt>
      <trkpt lat="34.818582134106045" lon="113.65958602060694">
        <ele>88.8411433249712</ele>
        <time>2026-07-28T00:41:25Z</time>
      </trkpt>
      <trkpt lat="34.818634351530974" lon="113.65953453105097">
        <ele>91.17688939440995</ele>
        <time>2026-07-28T00:41:28Z</time>
      </trkpt>
      <trkpt lat="34.81890478441379" lon="113.65947350964055">
        <ele>87.79492992535233</ele>
        <time>2026-07-28T00:41:43Z</time>
      </trkpt>
      <trkpt lat="34.81917908377502" lon="113.65935287543975">
        <ele>87.95386426988989</ele>
        <time>2026-07-28T00:41:58Z</time>
      </trkpt>
      <trkpt lat="34.81923639540366" lon="113.65931595309587">
        <ele>87.96869908180088</ele>
        <time>2026-07-28T00:42:01Z</time>
      </trkpt>
      <trkpt lat="34.81950226601004" lon="113.65922239010261">
        <ele>87.36835309956223</ele>
        <time>2026-07-28T00:42:16Z</time>
      </trkpt>
      <trkpt lat="34.81978731213227" lon="113.65909823581228">
        <ele>88.85067075397819</ele>
        <time>2026-07-28T00:42:32Z</time>
      </trkpt>
      <trkpt lat="34.81994069611269" lon="113.65904301625716">
        <ele>88.57888185419142</ele>
        <time>2026-07-28T00:42:41Z</time>
      </trkpt>
      <trkpt lat="34.81999076429502" lon="113.65899951057447">
        <ele>89.01549827493727</ele>
        <time>2026-07-28T00:42:44Z</time>
      </trkpt>
      <trkpt lat="34.82025326067587" lon="113.65890863871842">
        <ele>87.88315771427006</ele>
        <time>2026-07-28T00:42:59Z</time>
      </trkpt>
      <trkpt lat="34.82030179046499" lon="113.65895126721381">
        <ele>89.71506527252495</ele>
        <time>2026-07-28T00:43:05Z</time>
      </trkpt>
      <trkpt lat="34.82033889815472" lon="113.65891886183886">
        <ele>89.97632008325309</ele>
        <time>2026-07-28T00:43:08Z</time>
      </trkpt>
      <trkpt lat="34.820342087781825" lon="113.6585383486782">
        <ele>92.22385557927191</ele>
        <time>2026-07-28T00:43:26Z</time>
      </trkpt>
      <trkpt lat="34.82034210893854" lon="113.65825194219246">
        <ele>91.46515231207013</ele>
        <time>2026-07-28T00:43:38Z</time>
      </trkpt>
      <trkpt lat="34.82029172873974" lon="113.6582488442303">
        <ele>92.60957256238908</ele>
        <time>2026-07-28T00:43:41Z</time>
      </trkpt>
      <trkpt lat="34.82025651008628" lon="113.65829404760414">
        <ele>92.79132792819291</ele>
        <time>2026-07-28T00:43:44Z</time>
      </trkpt>
      <trkpt lat="34.820265448895675" lon="113.65836246761978">
        <ele>90.56746565643698</ele>
        <time>2026-07-28T00:43:47Z</time>
      </trkpt>
      <trkpt lat="34.82032297947604" lon="113.65837398240315">
        <ele>89.37212819047272</ele>
        <time>2026-07-28T00:43:53Z</time>
      </trkpt>
      <trkpt lat="34.820585977107186" lon="113.65826610630653">
        <ele>89.33007834013551</ele>
        <time>2026-07-28T00:44:05Z</time>
      </trkpt>
      <trkpt lat="34.820630146640575" lon="113.65819842259062">
        <ele>89.3384550595656</ele>
        <time>2026-07-28T00:44:08Z</time>
      </trkpt>
      <trkpt lat="34.82068297722919" lon="113.65825842885324">
        <ele>88.46944723185152</ele>
        <time>2026-07-28T00:44:11Z</time>
      </trkpt>
      <trkpt lat="34.820627660735106" lon="113.65816106859876">
        <ele>91.36262050550431</ele>
        <time>2026-07-28T00:44:20Z</time>
      </trkpt>
      <trkpt lat="34.82057405505061" lon="113.65812605512471">
        <ele>91.52101137302816</ele>
        <time>2026-07-28T00:44:23Z</time>
      </trkpt>
      <trkpt lat="34.82060280848819" lon="113.65820315171325">
        <ele>91.11222761683166</ele>
        <time>2026-07-28T00:44:27Z</time>
      </trkpt>
      <trkpt lat="34.82058743151035" lon="113.65837562404965">
        <ele>91.73883084207773</ele>
        <time>2026-07-28T00:44:34Z</time>
      </trkpt>
      <trkpt lat="34.8206090180765" lon="113.65857011346328">
        <ele>91.61034125089645</ele>
        <time>2026-07-28T00:44:41Z</time>
      </trkpt>
      <trkpt lat="34.82062174842363" lon="113.65884414565743">
        <ele>91.66463701892644</ele>
        <time>2026-07-28T00:44:53Z</time>
      </trkpt>
      <trkpt lat="34.82078439953181" lon="113.6587872183205">
        <ele>89.47268054354936</ele>
        <time>2026-07-28T00:45:05Z</time>
      </trkpt>
      <trkpt lat="34.82084004768472" lon="113.65873133184205">
        <ele>89.5565118137747</ele>
        <time>2026-07-28T00:45:08Z</time>
      </trkpt>
      <trkpt lat="34.820999373302186" lon="113.65866814183956">
        <ele>89.18250791635364</ele>
        <time>2026-07-28T00:45:17Z</time>
      </trkpt>
      <trkpt lat="34.821074716874" lon="113.65867233999784">
        <ele>88.50204224791378</ele>
        <time>2026-07-28T00:45:20Z</time>
      </trkpt>
      <trkpt lat="34.821351133857654" lon="113.65855291396295">
        <ele>88.90408988855779</ele>
        <time>2026-07-28T00:45:35Z</time>
      </trkpt>
      <trkpt lat="34.8216088225499" lon="113.65844537205037">
        <ele>89.34593958035111</ele>
        <time>2026-07-28T00:45:50Z</time>
      </trkpt>
      <trkpt lat="34.82173061465175" lon="113.65837888547163">
        <ele>88.7600165149197</ele>
        <time>2026-07-28T00:45:56Z</time>
      </trkpt>
      <trkpt lat="34.82185485025925" lon="113.6583544293968">
        <ele>89.05472348630428</ele>
        <time>2026-07-28T00:46:02Z</time>
      </trkpt>
      <trkpt lat="34.82190427888832" lon="113.65831176838773">
        <ele>88.66459357459098</ele>
        <time>2026-07-28T00:46:05Z</time>
      </trkpt>
      <trkpt lat="34.82220026388304" lon="113.65820422490785">
        <ele>87.64517219178379</ele>
        <time>2026-07-28T00:46:20Z</time>
      </trkpt>
      <trkpt lat="34.822529084219006" lon="113.65806369354685">
        <ele>88.8182221846655</ele>
        <time>2026-07-28T00:46:37Z</time>
      </trkpt>
      <trkpt lat="34.822739469039064" lon="113.657968066475">
        <ele>88.8698076531291</ele>
        <time>2026-07-28T00:46:48Z</time>
      </trkpt>
      <trkpt lat="34.822857204566354" lon="113.65793984592369">
        <ele>88.93207701854408</ele>
        <time>2026-07-28T00:46:54Z</time>
      </trkpt>
      <trkpt lat="34.823131266283795" lon="113.65781469771171">
        <ele>89.60092731472105</ele>
        <time>2026-07-28T00:47:09Z</time>
      </trkpt>
      <trkpt lat="34.82325258234531" lon="113.65778077068312">
        <ele>88.57381502445787</ele>
        <time>2026-07-28T00:47:15Z</time>
      </trkpt>
      <trkpt lat="34.8235156644388" lon="113.65765043250634">
        <ele>88.77102042548358</ele>
        <time>2026-07-28T00:47:30Z</time>
      </trkpt>
      <trkpt lat="34.82374439229681" lon="113.65758990315369">
        <ele>89.53213654272258</ele>
        <time>2026-07-28T00:47:42Z</time>
      </trkpt>
      <trkpt lat="34.82401038825262" lon="113.6574573748712">
        <ele>88.48973605688661</ele>
        <time>2026-07-28T00:47:57Z</time>
      </trkpt>
      <trkpt lat="34.82431098561095" lon="113.65731395681266">
        <ele>88.5250973412767</ele>
        <time>2026-07-28T00:48:12Z</time>
      </trkpt>
      <trkpt lat="34.82461239433443" lon="113.65723114034168">
        <ele>88.34846161305904</ele>
        <time>2026-07-28T00:48:27Z</time>
      </trkpt>
      <trkpt lat="34.82490804830629" lon="113.65709787438512">
        <ele>88.96878301072866</ele>
        <time>2026-07-28T00:48:43Z</time>
      </trkpt>
      <trkpt lat="34.82497937827056" lon="113.65706840971957">
        <ele>89.35391903202981</ele>
        <time>2026-07-28T00:48:47Z</time>
      </trkpt>
    </trkseg>
  </trk>
</gpx>