<?xml version="1.0" encoding="UTF-8"?>
<gpx xmlns="http://www.topografix.com/GPX/1/1" xmlns:gpxtpx="http://www.garmin.com/xmlschemas/TrackPointExtension/v1" xmlns:xsi="http://www.w3.org/2001/XMLSchema-instance" xsi:schemaLocation="http://www.topografix.com/GPX/1/1 http://www.topografix.com/GPX/1/1/gpx.xsd" version="1.1" creator="gpx.py -- https://github.com/tkrajina/gpxpy">
  <trk>
    <name>gpx from keep</name>
    <type>Walk</type>
    <trkseg>
      <trkpt lat="34.82905302351759" lon="113.65465487983879">
        <ele>95.95660400390625</ele>
        <time>2026-07-26T10:45:56Z</time>
      </trkpt>
      <trkpt lat="34.829223232384216" lon="113.65458021150305">
        <ele>89.7931109815836</ele>
        <time>2026-07-26T10:46:14Z</time>
      </trkpt>
      <trkpt lat="34.82931214598071" lon="113.65450933113638">
        <ele>89.05145288724452</ele>
        <time>2026-07-26T10:46:25Z</time>
      </trkpt>
      <trkpt lat="34.82961064321231" lon="113.65439702487514">
        <ele>92.0227783024311</ele>
        <time>2026-07-26T10:46:52Z</time>
      </trkpt>
      <trkpt lat="34.82980907976979" lon="113.65430134857871">
        <ele>91.26499770395458</ele>
        <time>2026-07-26T10:47:12Z</time>
      </trkpt>
      <trkpt lat="34.8298783103653" lon="113.65429106644784">
        <ele>90.45347481407225</ele>
        <time>2026-07-26T10:47:22Z</time>
      </trkpt>
      <trkpt lat="34.82991305309712" lon="113.65435360288834">
        <ele>90.03209302853793</ele>
        <time>2026-07-26T10:47:29Z</time>
      </trkpt>
      <trkpt lat="34.82989912251517" lon="113.65443283177719">
        <ele>89.14526109863073</ele>
        <time>2026-07-26T10:47:35Z</time>
      </trkpt>
      <trkpt lat="34.82987647276423" lon="113.654807376869">
        <ele>88.66634866502136</ele>
        <time>2026-07-26T10:48:01Z</time>
      </trkpt>
      <trkpt lat="34.82985046328564" lon="113.65514918307372">
        <ele>88.92528855148703</ele>
        <time>2026-07-26T10:48:25Z</time>
      </trkpt>
      <trkpt lat="34.82983781137931" lon="113.65523933104915">
        <ele>87.95162172988057</ele>
        <time>2026-07-26T10:48:31Z</time>
      </trkpt>
      <trkpt lat="34.8298391352551" lon="113.65558616567016">
        <ele>87.49308573547751</ele>
        <time>2026-07-26T10:48:55Z</time>
      </trkpt>
      <trkpt lat="34.82985049398465" lon="113.6558517919899">
        <ele>87.93749672360718</ele>
        <time>2026-07-26T10:49:13Z</time>
      </trkpt>
      <trkpt lat="34.82982400784612" lon="113.65600457514277">
        <ele>86.45640760008246</ele>
        <time>2026-07-26T10:49:25Z</time>
      </trkpt>
      <trkpt lat="34.82983645429636" lon="113.65617523002571">
        <ele>85.49382396321744</ele>
        <time>2026-07-26T10:49:37Z</time>
      </trkpt>
      <trkpt lat="34.82979012633318" lon="113.65651774991521">
        <ele>85.50590986944735</ele>
        <time>2026-07-26T10:50:01Z</time>
      </trkpt>
      <trkpt lat="34.82973110008546" lon="113.65676226489457">
        <ele>87.66490573156625</ele>
        <time>2026-07-26T10:50:16Z</time>
      </trkpt>
      <trkpt lat="34.82973371869218" lon="113.65712210516979">
        <ele>89.4499769276008</ele>
        <time>2026-07-26T10:50:40Z</time>
      </trkpt>
      <trkpt lat="34.829733297949616" lon="113.65745301266635">
        <ele>92.36484390776604</ele>
        <time>2026-07-26T10:51:04Z</time>
      </trkpt>
      <trkpt lat="34.82975081163115" lon="113.65759296947111">
        <ele>96.7672324758023</ele>
        <time>2026-07-26T10:51:13Z</time>
      </trkpt>
      <trkpt lat="34.82973608366541" lon="113.65772052256757">
        <ele>93.61544497683644</ele>
        <time>2026-07-26T10:51:22Z</time>
      </trkpt>
      <trkpt lat="34.82975254170684" lon="113.65779154998968">
        <ele>93.51272728294134</ele>
        <time>2026-07-26T10:51:28Z</time>
      </trkpt>
      <trkpt lat="34.82973120967885" lon="113.6578660992584">
        <ele>92.47804381977767</ele>
        <time>2026-07-26T10:51:34Z</time>
      </trkpt>
      <trkpt lat="34.82964048704033" lon="113.65797368207431">
        <ele>91.95618371851742</ele>
        <time>2026-07-26T10:51:52Z</time>
      </trkpt>
      <trkpt lat="34.829779437069945" lon="113.65789062514614">
        <ele>89.25999999999999</ele>
        <time>2026-07-26T10:52:17Z</time>
      </trkpt>
      <trkpt lat="34.82977136850934" lon="113.65795192139349">
        <ele>89.2968014354467</ele>
        <time>2026-07-26T10:52:23Z</time>
      </trkpt>
      <trkpt lat="34.829921309763115" lon="113.65789570223615">
        <ele>91.135194869712</ele>
        <time>2026-07-26T10:52:45Z</time>
      </trkpt>
      <trkpt lat="34.82960736198476" lon="113.65799305141496">
        <ele>90.86901332158595</ele>
        <time>2026-07-26T10:53:01Z</time>
      </trkpt>
      <trkpt lat="34.8295837434498" lon="113.65794574838358">
        <ele>91.09115554299206</ele>
        <time>2026-07-26T10:53:08Z</time>
      </trkpt>
      <trkpt lat="34.829515189462164" lon="113.65794048239867">
        <ele>91.82537050079554</ele>
        <time>2026-07-26T10:53:11Z</time>
      </trkpt>
      <trkpt lat="34.82946147847821" lon="113.65797183496748">
        <ele>92.61654759850353</ele>
        <time>2026-07-26T10:53:14Z</time>
      </trkpt>
      <trkpt lat="34.82939118585117" lon="113.65796510115032">
        <ele>91.55175121687353</ele>
        <time>2026-07-26T10:53:20Z</time>
      </trkpt>
      <trkpt lat="34.829370490242034" lon="113.65774767868929">
        <ele>89.97874659951776</ele>
        <time>2026-07-26T10:53:38Z</time>
      </trkpt>
      <trkpt lat="34.82940380072947" lon="113.65760555258412">
        <ele>89.43897141609341</ele>
        <time>2026-07-26T10:53:50Z</time>
      </trkpt>
      <trkpt lat="34.8294071147214" lon="113.65751911586605">
        <ele>89.49114697612822</ele>
        <time>2026-07-26T10:53:56Z</time>
      </trkpt>
      <trkpt lat="34.8294320359816" lon="113.65745291253658">
        <ele>89.47939058206975</ele>
        <time>2026-07-26T10:54:02Z</time>
      </trkpt>
      <trkpt lat="34.82941681028943" lon="113.65739929674866">
        <ele>90.51324173621833</ele>
        <time>2026-07-26T10:54:08Z</time>
      </trkpt>
      <trkpt lat="34.82943810217675" lon="113.65726462883407">
        <ele>90.56243542954326</ele>
        <time>2026-07-26T10:54:20Z</time>
      </trkpt>
      <trkpt lat="34.8294106979018" lon="113.65711300813524">
        <ele>95.54627958508604</ele>
        <time>2026-07-26T10:54:50Z</time>
      </trkpt>
      <trkpt lat="34.82935071427167" lon="113.65694618461188">
        <ele>92.62278003854281</ele>
        <time>2026-07-26T10:54:58Z</time>
      </trkpt>
      <trkpt lat="34.829293400788565" lon="113.65697322949985">
        <ele>94.34124770047023</ele>
        <time>2026-07-26T10:55:08Z</time>
      </trkpt>
      <trkpt lat="34.829319519052895" lon="113.65692780844859">
        <ele>93.44797761389097</ele>
        <time>2026-07-26T10:55:16Z</time>
      </trkpt>
      <trkpt lat="34.829370172975224" lon="113.65668929379264">
        <ele>91.90266695371645</ele>
        <time>2026-07-26T10:55:29Z</time>
      </trkpt>
      <trkpt lat="34.82936731876731" lon="113.65693336475378">
        <ele>93.97274696205754</ele>
        <time>2026-07-26T10:55:34Z</time>
      </trkpt>
      <trkpt lat="34.82930761933886" lon="113.65706736803517">
        <ele>94.3177236607194</ele>
        <time>2026-07-26T10:55:46Z</time>
      </trkpt>
      <trkpt lat="34.829355204646426" lon="113.65691998840188">
        <ele>92.19918012873559</ele>
        <time>2026-07-26T10:55:58Z</time>
      </trkpt>
      <trkpt lat="34.82923523852292" lon="113.65690489323809">
        <ele>101.14225007686764</ele>
        <time>2026-07-26T10:56:13Z</time>
      </trkpt>
      <trkpt lat="34.829341477788205" lon="113.65695130392483">
        <ele>89.50444388389587</ele>
        <time>2026-07-26T10:56:17Z</time>
      </trkpt>
      <trkpt lat="34.829286850000216" lon="113.65697833205802">
        <ele>100.0002556014806</ele>
        <time>2026-07-26T10:56:47Z</time>
      </trkpt>
      <trkpt lat="34.829328876815715" lon="113.65700072550281">
        <ele>99.71021463070065</ele>
        <time>2026-07-26T10:56:53Z</time>
      </trkpt>
      <trkpt lat="34.82930512624352" lon="113.65695431749126">
        <ele>91.81184610910714</ele>
        <time>2026-07-26T10:56:56Z</time>
      </trkpt>
      <trkpt lat="34.82934258655881" lon="113.65690106837434">
        <ele>92.1533015495487</ele>
        <time>2026-07-26T10:57:04Z</time>
      </trkpt>
      <trkpt lat="34.82936188629752" lon="113.65698433824443">
        <ele>96.30213114619255</ele>
        <time>2026-07-26T10:57:08Z</time>
      </trkpt>
      <trkpt lat="34.829366703174465" lon="113.6568585697288">
        <ele>96.30427075922489</ele>
        <time>2026-07-26T10:57:11Z</time>
      </trkpt>
      <trkpt lat="34.82934587016426" lon="113.65710228152959">
        <ele>95.93513204436749</ele>
        <time>2026-07-26T10:57:17Z</time>
      </trkpt>
      <trkpt lat="34.82930172294441" lon="113.65697052011274">
        <ele>95.55611421354115</ele>
        <time>2026-07-26T10:57:23Z</time>
      </trkpt>
      <trkpt lat="34.82935426915598" lon="113.65700929029421">
        <ele>94.55027160406114</ele>
        <time>2026-07-26T10:57:46Z</time>
      </trkpt>
      <trkpt lat="34.82940880577557" lon="113.65697360962875">
        <ele>92.75867836303374</ele>
        <time>2026-07-26T10:57:52Z</time>
      </trkpt>
      <trkpt lat="34.82935511883893" lon="113.65700974496234">
        <ele>94.31772368944515</ele>
        <time>2026-07-26T10:57:58Z</time>
      </trkpt>
      <trkpt lat="34.82936820480217" lon="113.65684561758962">
        <ele>92.83189552614675</ele>
        <time>2026-07-26T10:58:10Z</time>
      </trkpt>
      <trkpt lat="34.82937308060601" lon="113.6569134589013">
        <ele>92.1415776726956</ele>
        <time>2026-07-26T10:58:40Z</time>
      </trkpt>
      <trkpt lat="34.829354411233226" lon="113.65700956139145">
        <ele>90.84028606687936</ele>
        <time>2026-07-26T10:59:12Z</time>
      </trkpt>
      <trkpt lat="34.829300091882686" lon="113.65697721507472">
        <ele>94.60533012052875</ele>
        <time>2026-07-26T10:59:24Z</time>
      </trkpt>
      <trkpt lat="34.829250784075136" lon="113.65677472686808">
        <ele>92.23828053490911</ele>
        <time>2026-07-26T10:59:36Z</time>
      </trkpt>
      <trkpt lat="34.829276872119266" lon="113.65696487174228">
        <ele>92.17992933328145</ele>
        <time>2026-07-26T10:59:42Z</time>
      </trkpt>
      <trkpt lat="34.82935426381371" lon="113.6570099128264">
        <ele>90.8481701517648</ele>
        <time>2026-07-26T10:59:48Z</time>
      </trkpt>
      <trkpt lat="34.82938566965701" lon="113.65682613454221">
        <ele>91.47374984594992</ele>
        <time>2026-07-26T10:59:54Z</time>
      </trkpt>
      <trkpt lat="34.82935120708047" lon="113.65700014630325">
        <ele>95.83</ele>
        <time>2026-07-26T11:00:00Z</time>
      </trkpt>
      <trkpt lat="34.829356667038624" lon="113.65732271308411">
        <ele>93.15306028164923</ele>
        <time>2026-07-26T11:00:16Z</time>
      </trkpt>
      <trkpt lat="34.82930744147472" lon="113.6573148208886">
        <ele>92.8822761029005</ele>
        <time>2026-07-26T11:00:19Z</time>
      </trkpt>
      <trkpt lat="34.82934558184264" lon="113.65735503825337">
        <ele>91.66271262522787</ele>
        <time>2026-07-26T11:00:26Z</time>
      </trkpt>
      <trkpt lat="34.829370906137086" lon="113.65743149319549">
        <ele>90.07397745735943</ele>
        <time>2026-07-26T11:00:32Z</time>
      </trkpt>
      <trkpt lat="34.82934068025777" lon="113.6575320932641">
        <ele>90.99504423607141</ele>
        <time>2026-07-26T11:00:38Z</time>
      </trkpt>
      <trkpt lat="34.829297630285296" lon="113.65756280656528">
        <ele>89.512910021469</ele>
        <time>2026-07-26T11:00:44Z</time>
      </trkpt>
      <trkpt lat="34.82925113826084" lon="113.65754323311609">
        <ele>89.14549987204373</ele>
        <time>2026-07-26T11:00:47Z</time>
      </trkpt>
      <trkpt lat="34.829235020518844" lon="113.65764278800837">
        <ele>87.5573145383969</ele>
        <time>2026-07-26T11:00:56Z</time>
      </trkpt>
      <trkpt lat="34.82926640264141" lon="113.65786824988584">
        <ele>86.26874759234488</ele>
        <time>2026-07-26T11:01:11Z</time>
      </trkpt>
      <trkpt lat="34.82924674724687" lon="113.65796901748156">
        <ele>87.35243671946228</ele>
        <time>2026-07-26T11:01:17Z</time>
      </trkpt>
      <trkpt lat="34.82927570160338" lon="113.65805655209019">
        <ele>86.15274932514876</ele>
        <time>2026-07-26T11:01:23Z</time>
      </trkpt>
      <trkpt lat="34.82927858307613" lon="113.65814881662021">
        <ele>87.78294359520078</ele>
        <time>2026-07-26T11:01:29Z</time>
      </trkpt>
      <trkpt lat="34.82921705369679" lon="113.65827926960395">
        <ele>87.55244447849691</ele>
        <time>2026-07-26T11:01:38Z</time>
      </trkpt>
      <trkpt lat="34.82920816053652" lon="113.65838968053328">
        <ele>89.2401711307466</ele>
        <time>2026-07-26T11:01:44Z</time>
      </trkpt>
      <trkpt lat="34.829239479177495" lon="113.65868384659917">
        <ele>88.07266810536385</ele>
        <time>2026-07-26T11:02:02Z</time>
      </trkpt>
      <trkpt lat="34.82922870038785" lon="113.65877356625015">
        <ele>87.72477929573506</ele>
        <time>2026-07-26T11:02:08Z</time>
      </trkpt>
      <trkpt lat="34.8291976673792" lon="113.6588462803358">
        <ele>89.17585311643779</ele>
        <time>2026-07-26T11:02:14Z</time>
      </trkpt>
      <trkpt lat="34.829142651251544" lon="113.65887188409384">
        <ele>88.15688992943615</ele>
        <time>2026-07-26T11:02:20Z</time>
      </trkpt>
      <trkpt lat="34.8290436268195" lon="113.65881645727555">
        <ele>88.87589908670634</ele>
        <time>2026-07-26T11:02:34Z</time>
      </trkpt>
      <trkpt lat="34.82910120779051" lon="113.65880328314513">
        <ele>93.14665874370048</ele>
        <time>2026-07-26T11:02:42Z</time>
      </trkpt>
      <trkpt lat="34.829122609829454" lon="113.65883521482549">
        <ele>93.44660751620906</ele>
        <time>2026-07-26T11:02:54Z</time>
      </trkpt>
      <trkpt lat="34.82907486916754" lon="113.65873781241903">
        <ele>93.64</ele>
        <time>2026-07-26T11:03:39Z</time>
      </trkpt>
      <trkpt lat="34.82892269218165" lon="113.6587679011848">
        <ele>93.85395779159651</ele>
        <time>2026-07-26T11:03:45Z</time>
      </trkpt>
      <trkpt lat="34.828901375106454" lon="113.65868839604862">
        <ele>93.79946218829109</ele>
        <time>2026-07-26T11:03:51Z</time>
      </trkpt>
      <trkpt lat="34.82885664530725" lon="113.65870401808318">
        <ele>148.82326496506838</ele>
        <time>2026-07-26T11:03:57Z</time>
      </trkpt>
      <trkpt lat="34.828845279811034" lon="113.65876195219326">
        <ele>149.04871836087096</ele>
        <time>2026-07-26T11:04:03Z</time>
      </trkpt>
      <trkpt lat="34.82893972836197" lon="113.6587204193553">
        <ele>93.92418649937272</ele>
        <time>2026-07-26T11:04:15Z</time>
      </trkpt>
      <trkpt lat="34.82881603702889" lon="113.6586337418664">
        <ele>149.41451793216297</ele>
        <time>2026-07-26T11:04:27Z</time>
      </trkpt>
      <trkpt lat="34.82885937184467" lon="113.65868164307822">
        <ele>141.47</ele>
        <time>2026-07-26T11:05:31Z</time>
      </trkpt>
    </trkseg>
  </trk>
</gpx>