<?xml version="1.0" encoding="UTF-8"?>
<gpx xmlns="http://www.topografix.com/GPX/1/1" xmlns:gpxtpx="http://www.garmin.com/xmlschemas/TrackPointExtension/v1" xmlns:xsi="http://www.w3.org/2001/XMLSchema-instance" xsi:schemaLocation="http://www.topografix.com/GPX/1/1 http://www.topografix.com/GPX/1/1/gpx.xsd" version="1.1" creator="gpx.py -- https://github.com/tkrajina/gpxpy">
  <trk>
    <name>gpx from keep</name>
    <type>Run</type>
    <trkseg>
      <trkpt lat="34.83917711316675" lon="113.65042372978458">
        <ele>83.4512939453125</ele>
        <time>2026-09-04T23:30:34Z</time>
      </trkpt>
      <trkpt lat="34.83920988918412" lon="113.65039347413672">
        <ele>85.20574951171875</ele>
        <time>2026-09-04T23:30:38Z</time>
      </trkpt>
      <trkpt lat="34.84010455482854" lon="113.65042820663137">
        <ele>85.54625620134175</ele>
        <time>2026-09-04T23:32:20Z</time>
      </trkpt>
      <trkpt lat="34.84015952471367" lon="113.65030220401002">
        <ele>77.84460355527699</ele>
        <time>2026-09-04T23:32:35Z</time>
      </trkpt>
      <trkpt lat="34.84020312713245" lon="113.65004425491144">
        <ele>62.42721770238131</ele>
        <time>2026-09-04T23:32:45Z</time>
      </trkpt>
      <trkpt lat="34.84056025051215" lon="113.6500886018129">
        <ele>83.12873350363225</ele>
        <time>2026-09-04T23:32:48Z</time>
      </trkpt>
      <trkpt lat="34.84070533544945" lon="113.65006125736463">
        <ele>83.32529080472887</ele>
        <time>2026-09-04T23:32:57Z</time>
      </trkpt>
      <trkpt lat="34.84073931503007" lon="113.65000324161805">
        <ele>83.23693543300033</ele>
        <time>2026-09-04T23:33:00Z</time>
      </trkpt>
      <trkpt lat="34.84099835913743" lon="113.64990271288539">
        <ele>83.2537932349369</ele>
        <time>2026-09-04T23:33:15Z</time>
      </trkpt>
      <trkpt lat="34.84128501254035" lon="113.64979267348464">
        <ele>84.47706451639533</ele>
        <time>2026-09-04T23:33:33Z</time>
      </trkpt>
      <trkpt lat="34.84145108749638" lon="113.64972967116266">
        <ele>83.8972624707967</ele>
        <time>2026-09-04T23:33:45Z</time>
      </trkpt>
      <trkpt lat="34.841663034429835" lon="113.64965841193789">
        <ele>83.21229358110577</ele>
        <time>2026-09-04T23:33:57Z</time>
      </trkpt>
      <trkpt lat="34.8417816862242" lon="113.64958313002832">
        <ele>83.00748222507536</ele>
        <time>2026-09-04T23:34:06Z</time>
      </trkpt>
      <trkpt lat="34.84183857427214" lon="113.64959911066573">
        <ele>83.19018670730293</ele>
        <time>2026-09-04T23:34:12Z</time>
      </trkpt>
      <trkpt lat="34.84212539259164" lon="113.64942174061673">
        <ele>82.92926646862179</ele>
        <time>2026-09-04T23:34:33Z</time>
      </trkpt>
      <trkpt lat="34.84237960184086" lon="113.64930765436695">
        <ele>78.0601355144754</ele>
        <time>2026-09-04T23:34:52Z</time>
      </trkpt>
      <trkpt lat="34.8425319997977" lon="113.6492157484237">
        <ele>77.31718177348375</ele>
        <time>2026-09-04T23:35:04Z</time>
      </trkpt>
      <trkpt lat="34.842679274011466" lon="113.64907697873636">
        <ele>76.15413349773735</ele>
        <time>2026-09-04T23:35:16Z</time>
      </trkpt>
      <trkpt lat="34.842806589094856" lon="113.6490412105316">
        <ele>72.71121362876147</ele>
        <time>2026-09-04T23:35:22Z</time>
      </trkpt>
      <trkpt lat="34.84301752767797" lon="113.64903270332239">
        <ele>73.14008670207113</ele>
        <time>2026-09-04T23:35:31Z</time>
      </trkpt>
      <trkpt lat="34.84310364620812" lon="113.64881421506747">
        <ele>79.1130882082507</ele>
        <time>2026-09-04T23:35:46Z</time>
      </trkpt>
      <trkpt lat="34.84325004774015" lon="113.64872616673176">
        <ele>81.05346009414643</ele>
        <time>2026-09-04T23:35:55Z</time>
      </trkpt>
      <trkpt lat="34.84334343757415" lon="113.64869881065908">
        <ele>85.2916871253401</ele>
        <time>2026-09-04T23:36:06Z</time>
      </trkpt>
      <trkpt lat="34.84339589152187" lon="113.6486040420648">
        <ele>86.7965431259945</ele>
        <time>2026-09-04T23:36:08Z</time>
      </trkpt>
      <trkpt lat="34.84347621798298" lon="113.64854904450043">
        <ele>86.41742519661784</ele>
        <time>2026-09-04T23:36:15Z</time>
      </trkpt>
      <trkpt lat="34.8437090721538" lon="113.6485820609354">
        <ele>86.47513456549495</ele>
        <time>2026-09-04T23:36:27Z</time>
      </trkpt>
      <trkpt lat="34.84374289555884" lon="113.6487388786181">
        <ele>85.73009902983904</ele>
        <time>2026-09-04T23:36:39Z</time>
      </trkpt>
      <trkpt lat="34.844014933206424" lon="113.6486355670434">
        <ele>86.10433634743094</ele>
        <time>2026-09-04T23:37:05Z</time>
      </trkpt>
      <trkpt lat="34.844222665994344" lon="113.6485094981615">
        <ele>86.9437145087868</ele>
        <time>2026-09-04T23:37:21Z</time>
      </trkpt>
      <trkpt lat="34.844281674373775" lon="113.64843994586695">
        <ele>85.74410313274711</ele>
        <time>2026-09-04T23:37:27Z</time>
      </trkpt>
      <trkpt lat="34.84461646641985" lon="113.6483532315153">
        <ele>87.03433267772198</ele>
        <time>2026-09-04T23:37:45Z</time>
      </trkpt>
      <trkpt lat="34.84479670954524" lon="113.64831675216183">
        <ele>87.75754645001143</ele>
        <time>2026-09-04T23:37:54Z</time>
      </trkpt>
      <trkpt lat="34.8450450405094" lon="113.6481512954524">
        <ele>86.86093218810856</ele>
        <time>2026-09-04T23:38:09Z</time>
      </trkpt>
      <trkpt lat="34.845365680962175" lon="113.64801453681585">
        <ele>86.24791748076677</ele>
        <time>2026-09-04T23:38:27Z</time>
      </trkpt>
      <trkpt lat="34.84567332579431" lon="113.64792343145544">
        <ele>89.13955612201244</ele>
        <time>2026-09-04T23:38:45Z</time>
      </trkpt>
      <trkpt lat="34.84590411141877" lon="113.64784862611741">
        <ele>88.76509321387857</ele>
        <time>2026-09-04T23:38:57Z</time>
      </trkpt>
      <trkpt lat="34.84600996328684" lon="113.64776304371019">
        <ele>88.96593381371349</ele>
        <time>2026-09-04T23:39:04Z</time>
      </trkpt>
      <trkpt lat="34.84607965314922" lon="113.64765055264527">
        <ele>89.15969947725534</ele>
        <time>2026-09-04T23:39:13Z</time>
      </trkpt>
      <trkpt lat="34.846284620624644" lon="113.64760694830703">
        <ele>88.86436103004962</ele>
        <time>2026-09-04T23:39:25Z</time>
      </trkpt>
      <trkpt lat="34.84636771192099" lon="113.64762644608766">
        <ele>88.06575235445052</ele>
        <time>2026-09-04T23:39:28Z</time>
      </trkpt>
      <trkpt lat="34.846390762988264" lon="113.64768899919103">
        <ele>86.63432115130126</ele>
        <time>2026-09-04T23:39:34Z</time>
      </trkpt>
      <trkpt lat="34.84666179105353" lon="113.64761789955438">
        <ele>86.88117645774037</ele>
        <time>2026-09-04T23:39:50Z</time>
      </trkpt>
      <trkpt lat="34.84675380452465" lon="113.64760519228265">
        <ele>86.63424455653876</ele>
        <time>2026-09-04T23:39:53Z</time>
      </trkpt>
      <trkpt lat="34.846918998980584" lon="113.64752399711514">
        <ele>87.44887975882739</ele>
        <time>2026-09-04T23:39:56Z</time>
      </trkpt>
      <trkpt lat="34.84696691702009" lon="113.64734441314559">
        <ele>90.72284717299044</ele>
        <time>2026-09-04T23:40:11Z</time>
      </trkpt>
      <trkpt lat="34.84702909409362" lon="113.64728869727288">
        <ele>90.68111766222864</ele>
        <time>2026-09-04T23:40:17Z</time>
      </trkpt>
      <trkpt lat="34.84706483388668" lon="113.64740098418753">
        <ele>89.08764292858541</ele>
        <time>2026-09-04T23:40:23Z</time>
      </trkpt>
      <trkpt lat="34.84709643597307" lon="113.6477730464647">
        <ele>89.14833552297205</ele>
        <time>2026-09-04T23:40:38Z</time>
      </trkpt>
      <trkpt lat="34.84711479642589" lon="113.6480619421998">
        <ele>88.13084060885012</ele>
        <time>2026-09-04T23:40:50Z</time>
      </trkpt>
      <trkpt lat="34.84710452180511" lon="113.64812001597852">
        <ele>88.07673747371882</ele>
        <time>2026-09-04T23:40:53Z</time>
      </trkpt>
      <trkpt lat="34.84692953664691" lon="113.6481113107155">
        <ele>86.36938726343215</ele>
        <time>2026-09-04T23:41:02Z</time>
      </trkpt>
      <trkpt lat="34.846807495212225" lon="113.64814054626017">
        <ele>85.93576428666711</ele>
        <time>2026-09-04T23:41:08Z</time>
      </trkpt>
      <trkpt lat="34.8466854147568" lon="113.64824318357077">
        <ele>85.8724348442629</ele>
        <time>2026-09-04T23:41:16Z</time>
      </trkpt>
      <trkpt lat="34.84661113884537" lon="113.64827302513389">
        <ele>85.66929522529244</ele>
        <time>2026-09-04T23:41:20Z</time>
      </trkpt>
      <trkpt lat="34.84659715387261" lon="113.64834430678386">
        <ele>86.75840987730771</ele>
        <time>2026-09-04T23:41:24Z</time>
      </trkpt>
      <trkpt lat="34.846556562179686" lon="113.64827795993345">
        <ele>86.12132665049285</ele>
        <time>2026-09-04T23:41:28Z</time>
      </trkpt>
      <trkpt lat="34.846265921539626" lon="113.64835176942407">
        <ele>85.51322488300502</ele>
        <time>2026-09-04T23:41:40Z</time>
      </trkpt>
      <trkpt lat="34.84611790584192" lon="113.6484047893016">
        <ele>84.7703071879223</ele>
        <time>2026-09-04T23:41:49Z</time>
      </trkpt>
      <trkpt lat="34.84604084434698" lon="113.64841022865683">
        <ele>84.88653269503266</ele>
        <time>2026-09-04T23:41:52Z</time>
      </trkpt>
      <trkpt lat="34.845980248312344" lon="113.64847935832151">
        <ele>84.33340250048786</ele>
        <time>2026-09-04T23:41:58Z</time>
      </trkpt>
      <trkpt lat="34.845714261940586" lon="113.64854356424648">
        <ele>84.3297518696636</ele>
        <time>2026-09-04T23:42:13Z</time>
      </trkpt>
      <trkpt lat="34.845566871715015" lon="113.64865198515163">
        <ele>84.53667720034719</ele>
        <time>2026-09-04T23:42:28Z</time>
      </trkpt>
      <trkpt lat="34.84544469019439" lon="113.64866586585684">
        <ele>82.97694076877087</ele>
        <time>2026-09-04T23:42:37Z</time>
      </trkpt>
      <trkpt lat="34.845182351814266" lon="113.64879345214985">
        <ele>82.50795988086611</ele>
        <time>2026-09-04T23:42:46Z</time>
      </trkpt>
      <trkpt lat="34.84510001813994" lon="113.64885542272688">
        <ele>84.86478219553828</ele>
        <time>2026-09-04T23:42:49Z</time>
      </trkpt>
      <trkpt lat="34.844786585993795" lon="113.64894552051571">
        <ele>84.63128075003624</ele>
        <time>2026-09-04T23:43:04Z</time>
      </trkpt>
      <trkpt lat="34.844460044604006" lon="113.64908876094779">
        <ele>84.71660132147372</ele>
        <time>2026-09-04T23:43:21Z</time>
      </trkpt>
      <trkpt lat="34.844359955769036" lon="113.64910274813265">
        <ele>84.26535647641867</ele>
        <time>2026-09-04T23:43:25Z</time>
      </trkpt>
      <trkpt lat="34.84409163461985" lon="113.6490430381664">
        <ele>83.18376570660621</ele>
        <time>2026-09-04T23:43:35Z</time>
      </trkpt>
      <trkpt lat="34.84399108640736" lon="113.64899937789788">
        <ele>82.82679157331586</ele>
        <time>2026-09-04T23:43:38Z</time>
      </trkpt>
      <trkpt lat="34.84393868116495" lon="113.64900850658036">
        <ele>83.5895322477445</ele>
        <time>2026-09-04T23:43:41Z</time>
      </trkpt>
      <trkpt lat="34.84392663627225" lon="113.64908010299607">
        <ele>83.01490144152194</ele>
        <time>2026-09-04T23:43:44Z</time>
      </trkpt>
      <trkpt lat="34.84384810902896" lon="113.64912844292338">
        <ele>82.63153376523405</ele>
        <time>2026-09-04T23:43:50Z</time>
      </trkpt>
      <trkpt lat="34.843847503660115" lon="113.64919464454091">
        <ele>83.18412204552442</ele>
        <time>2026-09-04T23:43:53Z</time>
      </trkpt>
      <trkpt lat="34.84379040401958" lon="113.64923942889047">
        <ele>83.0958960056305</ele>
        <time>2026-09-04T23:43:59Z</time>
      </trkpt>
      <trkpt lat="34.84375181125683" lon="113.64929948026402">
        <ele>82.91822305880487</ele>
        <time>2026-09-04T23:44:05Z</time>
      </trkpt>
      <trkpt lat="34.84373306020899" lon="113.64936416324295">
        <ele>83.4493908630684</ele>
        <time>2026-09-04T23:44:08Z</time>
      </trkpt>
      <trkpt lat="34.84354976190612" lon="113.64941241673651">
        <ele>84.8227496612817</ele>
        <time>2026-09-04T23:44:23Z</time>
      </trkpt>
      <trkpt lat="34.84346081959399" lon="113.64945804765478">
        <ele>83.7845552470535</ele>
        <time>2026-09-04T23:44:29Z</time>
      </trkpt>
      <trkpt lat="34.84341024799018" lon="113.6496545056212">
        <ele>84.27414080966264</ele>
        <time>2026-09-04T23:44:35Z</time>
      </trkpt>
      <trkpt lat="34.84311063314307" lon="113.64977497311236">
        <ele>82.699070205912</ele>
        <time>2026-09-04T23:44:56Z</time>
      </trkpt>
      <trkpt lat="34.84295118785483" lon="113.64988426158119">
        <ele>82.9833569927141</ele>
        <time>2026-09-04T23:45:05Z</time>
      </trkpt>
      <trkpt lat="34.84279064305508" lon="113.64995726414985">
        <ele>83.0281676845625</ele>
        <time>2026-09-04T23:45:14Z</time>
      </trkpt>
      <trkpt lat="34.842734953034864" lon="113.65000067729505">
        <ele>81.61035368591547</ele>
        <time>2026-09-04T23:45:20Z</time>
      </trkpt>
      <trkpt lat="34.842449261355895" lon="113.64994234809859">
        <ele>81.31238241121173</ele>
        <time>2026-09-04T23:45:36Z</time>
      </trkpt>
      <trkpt lat="34.842367961606676" lon="113.64997113003332">
        <ele>81.88607114367187</ele>
        <time>2026-09-04T23:45:42Z</time>
      </trkpt>
      <trkpt lat="34.84226939098072" lon="113.64995511916783">
        <ele>80.89201765600592</ele>
        <time>2026-09-04T23:45:45Z</time>
      </trkpt>
      <trkpt lat="34.84221799799873" lon="113.6499855274947">
        <ele>80.93004873301834</ele>
        <time>2026-09-04T23:45:48Z</time>
      </trkpt>
      <trkpt lat="34.84203302772217" lon="113.6499738104098">
        <ele>80.16623578034341</ele>
        <time>2026-09-04T23:45:51Z</time>
      </trkpt>
      <trkpt lat="34.8418395854843" lon="113.65012151690772">
        <ele>80.40202148165554</ele>
        <time>2026-09-04T23:45:57Z</time>
      </trkpt>
      <trkpt lat="34.841925280029244" lon="113.65017599717439">
        <ele>80.75456609018147</ele>
        <time>2026-09-04T23:46:00Z</time>
      </trkpt>
      <trkpt lat="34.841821398180535" lon="113.65018593204474">
        <ele>80.4366320380941</ele>
        <time>2026-09-04T23:46:09Z</time>
      </trkpt>
      <trkpt lat="34.841345458587085" lon="113.65033142613754">
        <ele>77.53593745920807</ele>
        <time>2026-09-04T23:46:21Z</time>
      </trkpt>
      <trkpt lat="34.84148538699025" lon="113.6502970343462">
        <ele>76.61399270221591</ele>
        <time>2026-09-04T23:46:24Z</time>
      </trkpt>
      <trkpt lat="34.84130723455975" lon="113.65037247866151">
        <ele>75.55135038495064</ele>
        <time>2026-09-04T23:46:30Z</time>
      </trkpt>
      <trkpt lat="34.841154368142774" lon="113.65042673217853">
        <ele>74.7019113600254</ele>
        <time>2026-09-04T23:46:36Z</time>
      </trkpt>
      <trkpt lat="34.841213019280595" lon="113.6504413449304">
        <ele>74.47270308993757</ele>
        <time>2026-09-04T23:46:45Z</time>
      </trkpt>
      <trkpt lat="34.840942779173886" lon="113.65054067966608">
        <ele>74.0439618639648</ele>
        <time>2026-09-04T23:46:54Z</time>
      </trkpt>
      <trkpt lat="34.840633983048846" lon="113.65058522645428">
        <ele>73.91181752178818</ele>
        <time>2026-09-04T23:47:03Z</time>
      </trkpt>
      <trkpt lat="34.840692954542405" lon="113.65056636337293">
        <ele>74.53689980506897</ele>
        <time>2026-09-04T23:47:15Z</time>
      </trkpt>
      <trkpt lat="34.840590558774345" lon="113.65055595733384">
        <ele>74.39954476989806</ele>
        <time>2026-09-04T23:47:21Z</time>
      </trkpt>
      <trkpt lat="34.84044284247762" lon="113.6506044321162">
        <ele>74.01108791772276</ele>
        <time>2026-09-04T23:47:28Z</time>
      </trkpt>
      <trkpt lat="34.84013659272585" lon="113.65061338658519">
        <ele>87.55000000000001</ele>
        <time>2026-09-04T23:47:47Z</time>
      </trkpt>
      <trkpt lat="34.840211424950915" lon="113.6507840679063">
        <ele>75.76007071416825</ele>
        <time>2026-09-04T23:47:54Z</time>
      </trkpt>
      <trkpt lat="34.8400315337108" lon="113.65086599886389">
        <ele>78.68057300336659</ele>
        <time>2026-09-04T23:48:03Z</time>
      </trkpt>
      <trkpt lat="34.83984748581303" lon="113.65099777109127">
        <ele>79.98988167662174</ele>
        <time>2026-09-04T23:48:12Z</time>
      </trkpt>
      <trkpt lat="34.839748854129255" lon="113.65109236343316">
        <ele>79.62394274305552</ele>
        <time>2026-09-04T23:48:18Z</time>
      </trkpt>
      <trkpt lat="34.83971369568883" lon="113.65116714105915">
        <ele>79.84065855201334</ele>
        <time>2026-09-04T23:48:21Z</time>
      </trkpt>
      <trkpt lat="34.83961247016606" lon="113.6512603424376">
        <ele>79.90096409246325</ele>
        <time>2026-09-04T23:48:27Z</time>
      </trkpt>
      <trkpt lat="34.83937047420627" lon="113.65141584526829">
        <ele>80.34712216816843</ele>
        <time>2026-09-04T23:48:39Z</time>
      </trkpt>
      <trkpt lat="34.83930368593124" lon="113.65142093175227">
        <ele>80.35536179784685</ele>
        <time>2026-09-04T23:48:42Z</time>
      </trkpt>
      <trkpt lat="34.839244904403955" lon="113.65146045534263">
        <ele>79.53667607251555</ele>
        <time>2026-09-04T23:48:45Z</time>
      </trkpt>
      <trkpt lat="34.83896320468867" lon="113.65148843795927">
        <ele>79.06237407028675</ele>
        <time>2026-09-04T23:48:51Z</time>
      </trkpt>
      <trkpt lat="34.838882501003894" lon="113.65149081603049">
        <ele>78.50001615006477</ele>
        <time>2026-09-04T23:48:54Z</time>
      </trkpt>
      <trkpt lat="34.83879031956911" lon="113.65154621797453">
        <ele>79.00366373825818</ele>
        <time>2026-09-04T23:49:00Z</time>
      </trkpt>
      <trkpt lat="34.83850223532296" lon="113.65147302521112">
        <ele>77.07093909103423</ele>
        <time>2026-09-04T23:49:06Z</time>
      </trkpt>
      <trkpt lat="34.83844013726939" lon="113.65149042949054">
        <ele>77.03975576628</ele>
        <time>2026-09-04T23:49:09Z</time>
      </trkpt>
      <trkpt lat="34.83880341484996" lon="113.65144582950698">
        <ele>77.7836641697213</ele>
        <time>2026-09-04T23:49:12Z</time>
      </trkpt>
      <trkpt lat="34.8387826068686" lon="113.6515619095606">
        <ele>80.47384712658823</ele>
        <time>2026-09-04T23:49:15Z</time>
      </trkpt>
      <trkpt lat="34.83868529666858" lon="113.65157606312498">
        <ele>82.49185503926128</ele>
        <time>2026-09-04T23:49:21Z</time>
      </trkpt>
      <trkpt lat="34.83841324354147" lon="113.65175468802532">
        <ele>83.65603526961058</ele>
        <time>2026-09-04T23:49:34Z</time>
      </trkpt>
      <trkpt lat="34.838133949839914" lon="113.65192781783072">
        <ele>87.2114392882213</ele>
        <time>2026-09-04T23:49:49Z</time>
      </trkpt>
      <trkpt lat="34.83809073767395" lon="113.65195028378449">
        <ele>87.6414024149999</ele>
        <time>2026-09-04T23:49:52Z</time>
      </trkpt>
      <trkpt lat="34.83805311527688" lon="113.65200528239872">
        <ele>87.35226934961975</ele>
        <time>2026-09-04T23:49:55Z</time>
      </trkpt>
      <trkpt lat="34.8379973219251" lon="113.65204692648271">
        <ele>87.7050344441086</ele>
        <time>2026-09-04T23:49:58Z</time>
      </trkpt>
      <trkpt lat="34.83769108026538" lon="113.65218258062079">
        <ele>88.62646755948663</ele>
        <time>2026-09-04T23:50:13Z</time>
      </trkpt>
      <trkpt lat="34.83739173659127" lon="113.65229485479057">
        <ele>90.56187421269715</ele>
        <time>2026-09-04T23:50:28Z</time>
      </trkpt>
      <trkpt lat="34.83716529056664" lon="113.65239822287408">
        <ele>90.2542430665344</ele>
        <time>2026-09-04T23:50:40Z</time>
      </trkpt>
      <trkpt lat="34.836893437024244" lon="113.65260118068596">
        <ele>90.56585848238319</ele>
        <time>2026-09-04T23:50:55Z</time>
      </trkpt>
      <trkpt lat="34.83663534667604" lon="113.65278260823162">
        <ele>89.59555303119123</ele>
        <time>2026-09-04T23:51:10Z</time>
      </trkpt>
      <trkpt lat="34.83637540239184" lon="113.65296084017236">
        <ele>88.67182499263436</ele>
        <time>2026-09-04T23:51:25Z</time>
      </trkpt>
      <trkpt lat="34.83621073519188" lon="113.65307018324955">
        <ele>88.60381708946079</ele>
        <time>2026-09-04T23:51:34Z</time>
      </trkpt>
      <trkpt lat="34.836127348820625" lon="113.65317065760422">
        <ele>88.74776548147202</ele>
        <time>2026-09-04T23:51:41Z</time>
      </trkpt>
      <trkpt lat="34.835836586908854" lon="113.65330475766828">
        <ele>89.02021234389395</ele>
        <time>2026-09-04T23:51:56Z</time>
      </trkpt>
      <trkpt lat="34.83553839033857" lon="113.6534195772172">
        <ele>89.16422565188259</ele>
        <time>2026-09-04T23:52:11Z</time>
      </trkpt>
      <trkpt lat="34.83524595953561" lon="113.65355774624113">
        <ele>88.3084253622219</ele>
        <time>2026-09-04T23:52:26Z</time>
      </trkpt>
      <trkpt lat="34.835071194395454" lon="113.65360972757492">
        <ele>88.51309207919985</ele>
        <time>2026-09-04T23:52:35Z</time>
      </trkpt>
      <trkpt lat="34.83478242318548" lon="113.65376368663169">
        <ele>88.99630232900381</ele>
        <time>2026-09-04T23:52:50Z</time>
      </trkpt>
      <trkpt lat="34.83455471206337" lon="113.65386361243281">
        <ele>88.65107361506671</ele>
        <time>2026-09-04T23:53:02Z</time>
      </trkpt>
      <trkpt lat="34.83451772039872" lon="113.65382070840536">
        <ele>88.068181052804</ele>
        <time>2026-09-04T23:53:05Z</time>
      </trkpt>
      <trkpt lat="34.83421927453981" lon="113.65392286523706">
        <ele>89.05975444894284</ele>
        <time>2026-09-04T23:53:20Z</time>
      </trkpt>
      <trkpt lat="34.83403677801946" lon="113.65399092056296">
        <ele>88.47496698983014</ele>
        <time>2026-09-04T23:53:29Z</time>
      </trkpt>
      <trkpt lat="34.83396609955475" lon="113.65399318116991">
        <ele>86.65533143654466</ele>
        <time>2026-09-04T23:53:35Z</time>
      </trkpt>
      <trkpt lat="34.833897846320255" lon="113.65402784347567">
        <ele>88.13347854092717</ele>
        <time>2026-09-04T23:53:41Z</time>
      </trkpt>
      <trkpt lat="34.83378239381891" lon="113.65403380443257">
        <ele>89.30984325800091</ele>
        <time>2026-09-04T23:53:48Z</time>
      </trkpt>
      <trkpt lat="34.833486435155834" lon="113.65413920243483">
        <ele>90.82921191677451</ele>
        <time>2026-09-04T23:54:08Z</time>
      </trkpt>
      <trkpt lat="34.833398916492484" lon="113.65412606684322">
        <ele>89.55274844169617</ele>
        <time>2026-09-04T23:54:14Z</time>
      </trkpt>
      <trkpt lat="34.83338438422082" lon="113.6540690353119">
        <ele>89.69159663747996</ele>
        <time>2026-09-04T23:54:17Z</time>
      </trkpt>
      <trkpt lat="34.83332454707157" lon="113.6540187322582">
        <ele>89.15093256533146</ele>
        <time>2026-09-04T23:54:23Z</time>
      </trkpt>
      <trkpt lat="34.83330521039145" lon="113.65407377221264">
        <ele>88.56284680124372</ele>
        <time>2026-09-04T23:54:29Z</time>
      </trkpt>
      <trkpt lat="34.83337308066568" lon="113.65430788376018">
        <ele>90.27983041014522</ele>
        <time>2026-09-04T23:54:41Z</time>
      </trkpt>
      <trkpt lat="34.83328359793774" lon="113.65426560372556">
        <ele>80.8980712890625</ele>
        <time>2026-09-04T23:55:00Z</time>
      </trkpt>
      <trkpt lat="34.83328359793774" lon="113.65426560372556">
        <ele>80.8980712890625</ele>
        <time>2026-09-04T23:55:12Z</time>
      </trkpt>
    </trkseg>
  </trk>
</gpx>