<?xml version="1.0" encoding="UTF-8"?>
<gpx xmlns="http://www.topografix.com/GPX/1/1" xmlns:gpxtpx="http://www.garmin.com/xmlschemas/TrackPointExtension/v1" xmlns:xsi="http://www.w3.org/2001/XMLSchema-instance" xsi:schemaLocation="http://www.topografix.com/GPX/1/1 http://www.topografix.com/GPX/1/1/gpx.xsd" version="1.1" creator="gpx.py -- https://github.com/tkrajina/gpxpy">
  <trk>
    <name>gpx from keep</name>
    <type>Run</type>
    <trkseg>
      <trkpt lat="34.83026297264558" lon="113.65897572451605">
        <ele>94.21478271484375</ele>
        <time>2026-08-10T01:08:36Z</time>
      </trkpt>
      <trkpt lat="34.83026221188507" lon="113.65907122634498">
        <ele>95.56677202600986</ele>
        <time>2026-08-10T01:08:39Z</time>
      </trkpt>
      <trkpt lat="34.83022426074468" lon="113.65906843244012">
        <ele>95.56677202600986</ele>
        <time>2026-08-10T01:08:47Z</time>
      </trkpt>
      <trkpt lat="34.83019807836557" lon="113.6597033184053">
        <ele>95.56677202600986</ele>
        <time>2026-08-10T01:10:36Z</time>
      </trkpt>
      <trkpt lat="34.830202896133585" lon="113.6597961544393">
        <ele>95.56677202600986</ele>
        <time>2026-08-10T01:10:52Z</time>
      </trkpt>
      <trkpt lat="34.83021875168826" lon="113.6598630349856">
        <ele>95.56677202600986</ele>
        <time>2026-08-10T01:11:04Z</time>
      </trkpt>
      <trkpt lat="34.83022969055334" lon="113.65988898812112">
        <ele>95.56677202600986</ele>
        <time>2026-08-10T01:11:09Z</time>
      </trkpt>
      <trkpt lat="34.830250607400814" lon="113.65992092965266">
        <ele>95.56677202600986</ele>
        <time>2026-08-10T01:11:16Z</time>
      </trkpt>
      <trkpt lat="34.8302785263443" lon="113.65994787923458">
        <ele>95.56677202600986</ele>
        <time>2026-08-10T01:11:23Z</time>
      </trkpt>
      <trkpt lat="34.830306466222986" lon="113.65996384815527">
        <ele>95.56677202600986</ele>
        <time>2026-08-10T01:11:30Z</time>
      </trkpt>
      <trkpt lat="34.8303523889323" lon="113.65997881693902">
        <ele>95.56677202600986</ele>
        <time>2026-08-10T01:11:40Z</time>
      </trkpt>
      <trkpt lat="34.83048824483127" lon="113.6599788026267">
        <ele>95.56677202600986</ele>
        <time>2026-08-10T01:12:08Z</time>
      </trkpt>
      <trkpt lat="34.83105966146878" lon="113.65996676353042">
        <ele>95.56677202600986</ele>
        <time>2026-08-10T01:14:07Z</time>
      </trkpt>
      <trkpt lat="34.83104313383224" lon="113.66025226216034">
        <ele>95.56677202600986</ele>
        <time>2026-08-10T01:14:56Z</time>
      </trkpt>
      <trkpt lat="34.83100817093104" lon="113.66025226584398">
        <ele>95.56677202600986</ele>
        <time>2026-08-10T01:15:04Z</time>
      </trkpt>
      <trkpt lat="34.83083037864041" lon="113.66024230217243">
        <ele>95.56677202600986</ele>
        <time>2026-08-10T01:15:41Z</time>
      </trkpt>
      <trkpt lat="34.83056965523549" lon="113.66024232964133">
        <ele>95.56677202600986</ele>
        <time>2026-08-10T01:16:35Z</time>
      </trkpt>
      <trkpt lat="34.83004619517133" lon="113.66025037071313">
        <ele>95.56677202600986</ele>
        <time>2026-08-10T01:18:24Z</time>
      </trkpt>
      <trkpt lat="34.82992207123921" lon="113.66038414796145">
        <ele>95.56677202600986</ele>
        <time>2026-08-10T01:18:59Z</time>
      </trkpt>
      <trkpt lat="34.82993344629144" lon="113.66018150399897">
        <ele>95.56677202600986</ele>
        <time>2026-08-10T01:19:34Z</time>
      </trkpt>
      <trkpt lat="34.82994482116216" lon="113.65997885987551">
        <ele>95.56677202600986</ele>
        <time>2026-08-10T01:20:09Z</time>
      </trkpt>
      <trkpt lat="34.82996037614254" lon="113.65967938562187">
        <ele>95.56677202600986</ele>
        <time>2026-08-10T01:21:00Z</time>
      </trkpt>
      <trkpt lat="34.82996373999694" lon="113.65948672434467">
        <ele>95.56677202600986</ele>
        <time>2026-08-10T01:21:33Z</time>
      </trkpt>
      <trkpt lat="34.82998334666606" lon="113.65948763966665">
        <ele>88.90890792810515</ele>
        <time>2026-08-10T01:21:37Z</time>
      </trkpt>
      <trkpt lat="34.83037943077822" lon="113.65997689382696">
        <ele>88.43414306640625</ele>
        <time>2026-08-10T01:21:49Z</time>
      </trkpt>
      <trkpt lat="34.83043681691533" lon="113.6599897252907">
        <ele>91.05223198886961</ele>
        <time>2026-08-10T01:21:53Z</time>
      </trkpt>
      <trkpt lat="34.83070826919242" lon="113.65995763022065">
        <ele>94.09036113135517</ele>
        <time>2026-08-10T01:22:05Z</time>
      </trkpt>
      <trkpt lat="34.83092524962176" lon="113.65994132597307">
        <ele>89.78929964732379</ele>
        <time>2026-08-10T01:22:13Z</time>
      </trkpt>
      <trkpt lat="34.831079233830806" lon="113.65997400691249">
        <ele>91.60066590551287</ele>
        <time>2026-08-10T01:22:21Z</time>
      </trkpt>
      <trkpt lat="34.83127425640532" lon="113.6599886209642">
        <ele>89.94675749819726</ele>
        <time>2026-08-10T01:22:29Z</time>
      </trkpt>
      <trkpt lat="34.831557120924145" lon="113.65995933103288">
        <ele>91.34690236207098</ele>
        <time>2026-08-10T01:22:41Z</time>
      </trkpt>
      <trkpt lat="34.83165454357436" lon="113.6599456800634">
        <ele>92.8638427266851</ele>
        <time>2026-08-10T01:22:45Z</time>
      </trkpt>
      <trkpt lat="34.8317327755024" lon="113.65996369806543">
        <ele>93.04921288136393</ele>
        <time>2026-08-10T01:22:49Z</time>
      </trkpt>
      <trkpt lat="34.8318319121801" lon="113.65991447737115">
        <ele>93.84493592940271</ele>
        <time>2026-08-10T01:22:55Z</time>
      </trkpt>
      <trkpt lat="34.831996644757126" lon="113.65992397103322">
        <ele>94.61822809744626</ele>
        <time>2026-08-10T01:23:01Z</time>
      </trkpt>
      <trkpt lat="34.83205811734415" lon="113.65988735344574">
        <ele>94.56690475810319</ele>
        <time>2026-08-10T01:23:04Z</time>
      </trkpt>
      <trkpt lat="34.832100258582024" lon="113.65983053086573">
        <ele>94.13662522379309</ele>
        <time>2026-08-10T01:23:07Z</time>
      </trkpt>
      <trkpt lat="34.832109953122355" lon="113.65962281374115">
        <ele>94.10988417174667</ele>
        <time>2026-08-10T01:23:16Z</time>
      </trkpt>
      <trkpt lat="34.8320704655011" lon="113.65947813423813">
        <ele>92.94818305037916</ele>
        <time>2026-08-10T01:23:23Z</time>
      </trkpt>
      <trkpt lat="34.83202877172942" lon="113.65940935934675">
        <ele>91.9341987138614</ele>
        <time>2026-08-10T01:23:26Z</time>
      </trkpt>
      <trkpt lat="34.831983009744164" lon="113.65937538625529">
        <ele>91.29572814144194</ele>
        <time>2026-08-10T01:23:29Z</time>
      </trkpt>
      <trkpt lat="34.83193278852286" lon="113.65930536174648">
        <ele>91.03239349089563</ele>
        <time>2026-08-10T01:23:32Z</time>
      </trkpt>
      <trkpt lat="34.83180341846397" lon="113.65922681136533">
        <ele>90.33267321623862</ele>
        <time>2026-08-10T01:23:38Z</time>
      </trkpt>
      <trkpt lat="34.83173503954468" lon="113.65921126609318">
        <ele>89.1481670178473</ele>
        <time>2026-08-10T01:23:42Z</time>
      </trkpt>
      <trkpt lat="34.8316066653531" lon="113.65915158459593">
        <ele>89.40815566293895</ele>
        <time>2026-08-10T01:23:47Z</time>
      </trkpt>
      <trkpt lat="34.8315747277095" lon="113.65904302005961">
        <ele>89.54061795212328</ele>
        <time>2026-08-10T01:23:51Z</time>
      </trkpt>
      <trkpt lat="34.83158285138898" lon="113.6589448424734">
        <ele>89.68268964532763</ele>
        <time>2026-08-10T01:23:54Z</time>
      </trkpt>
      <trkpt lat="34.831650472536275" lon="113.65875663371891">
        <ele>88.91289956215769</ele>
        <time>2026-08-10T01:24:00Z</time>
      </trkpt>
      <trkpt lat="34.83161373232381" lon="113.65868908896516">
        <ele>89.03477357327938</ele>
        <time>2026-08-10T01:24:03Z</time>
      </trkpt>
      <trkpt lat="34.83144116560994" lon="113.65852257847959">
        <ele>88.51864325162023</ele>
        <time>2026-08-10T01:24:12Z</time>
      </trkpt>
      <trkpt lat="34.83131122248291" lon="113.6583026288052">
        <ele>87.18798726052046</ele>
        <time>2026-08-10T01:24:21Z</time>
      </trkpt>
      <trkpt lat="34.831161174734994" lon="113.65820543110783">
        <ele>88.23248340934515</ele>
        <time>2026-08-10T01:24:30Z</time>
      </trkpt>
      <trkpt lat="34.83092381337564" lon="113.6581972631082">
        <ele>88.94756534323096</ele>
        <time>2026-08-10T01:24:42Z</time>
      </trkpt>
      <trkpt lat="34.830882021448595" lon="113.65823314183903">
        <ele>90.74836963880807</ele>
        <time>2026-08-10T01:24:48Z</time>
      </trkpt>
      <trkpt lat="34.830832326428954" lon="113.65824486810503">
        <ele>90.9411900471896</ele>
        <time>2026-08-10T01:24:51Z</time>
      </trkpt>
    </trkseg>
  </trk>
</gpx>