<?xml version="1.0" encoding="UTF-8"?>
<gpx xmlns="http://www.topografix.com/GPX/1/1" xmlns:gpxtpx="http://www.garmin.com/xmlschemas/TrackPointExtension/v1" xmlns:xsi="http://www.w3.org/2001/XMLSchema-instance" xsi:schemaLocation="http://www.topografix.com/GPX/1/1 http://www.topografix.com/GPX/1/1/gpx.xsd" version="1.1" creator="gpx.py -- https://github.com/tkrajina/gpxpy">
  <trk>
    <name>gpx from keep</name>
    <type>Run</type>
    <trkseg>
      <trkpt lat="34.83940797857005" lon="113.65049117140461">
        <ele>89.55309228692204</ele>
        <time>2026-08-12T23:37:27Z</time>
      </trkpt>
      <trkpt lat="34.83949958300174" lon="113.65059895827474">
        <ele>89.73827499244362</ele>
        <time>2026-08-12T23:37:33Z</time>
      </trkpt>
      <trkpt lat="34.83960810406779" lon="113.65062450573508">
        <ele>87.64765004813671</ele>
        <time>2026-08-12T23:37:39Z</time>
      </trkpt>
      <trkpt lat="34.83966748518917" lon="113.65060461704134">
        <ele>89.0728934686631</ele>
        <time>2026-08-12T23:37:42Z</time>
      </trkpt>
      <trkpt lat="34.839710582577396" lon="113.65053985525009">
        <ele>91.58376899547875</ele>
        <time>2026-08-12T23:37:45Z</time>
      </trkpt>
      <trkpt lat="34.83978215211942" lon="113.65054487987949">
        <ele>90.50888453796506</ele>
        <time>2026-08-12T23:38:03Z</time>
      </trkpt>
      <trkpt lat="34.839881907538945" lon="113.65066813838469">
        <ele>89.44124667625874</ele>
        <time>2026-08-12T23:38:15Z</time>
      </trkpt>
      <trkpt lat="34.83995088338021" lon="113.65067373698012">
        <ele>89.17217042762786</ele>
        <time>2026-08-12T23:38:18Z</time>
      </trkpt>
      <trkpt lat="34.84000565881753" lon="113.65065279948807">
        <ele>88.74078924488276</ele>
        <time>2026-08-12T23:38:21Z</time>
      </trkpt>
      <trkpt lat="34.84009909188482" lon="113.65044656948463">
        <ele>87.71730629727244</ele>
        <time>2026-08-12T23:38:30Z</time>
      </trkpt>
      <trkpt lat="34.840140252761415" lon="113.65027195050689">
        <ele>87.717794271186</ele>
        <time>2026-08-12T23:38:42Z</time>
      </trkpt>
      <trkpt lat="34.84054490678033" lon="113.65011842851757">
        <ele>86.13390175346285</ele>
        <time>2026-08-12T23:38:54Z</time>
      </trkpt>
      <trkpt lat="34.84067020694906" lon="113.65006933335368">
        <ele>88.00852941628546</ele>
        <time>2026-08-12T23:39:03Z</time>
      </trkpt>
      <trkpt lat="34.84070538889168" lon="113.65000565846202">
        <ele>90.49888941645622</ele>
        <time>2026-08-12T23:39:06Z</time>
      </trkpt>
      <trkpt lat="34.840978930498316" lon="113.64990288512693">
        <ele>90.97343772184104</ele>
        <time>2026-08-12T23:39:21Z</time>
      </trkpt>
      <trkpt lat="34.8413190391348" lon="113.64976968259073">
        <ele>92.68631545547396</ele>
        <time>2026-08-12T23:39:40Z</time>
      </trkpt>
      <trkpt lat="34.84140121031701" lon="113.6497385798728">
        <ele>91.0088558383286</ele>
        <time>2026-08-12T23:39:46Z</time>
      </trkpt>
      <trkpt lat="34.841466062886646" lon="113.64973648516839">
        <ele>89.45109156053513</ele>
        <time>2026-08-12T23:39:49Z</time>
      </trkpt>
      <trkpt lat="34.84176036975045" lon="113.64960017033756">
        <ele>89.16686320398003</ele>
        <time>2026-08-12T23:40:04Z</time>
      </trkpt>
      <trkpt lat="34.8419738932892" lon="113.64956836367497">
        <ele>88.48190939240158</ele>
        <time>2026-08-12T23:40:13Z</time>
      </trkpt>
      <trkpt lat="34.84227745121536" lon="113.64942054239819">
        <ele>85.44722819607705</ele>
        <time>2026-08-12T23:40:32Z</time>
      </trkpt>
      <trkpt lat="34.84250520930863" lon="113.64931732917566">
        <ele>87.58565664105117</ele>
        <time>2026-08-12T23:40:44Z</time>
      </trkpt>
      <trkpt lat="34.842554694460866" lon="113.64927735131307">
        <ele>88.14279042836279</ele>
        <time>2026-08-12T23:40:47Z</time>
      </trkpt>
      <trkpt lat="34.84265090239553" lon="113.64924313710556">
        <ele>87.24258022848517</ele>
        <time>2026-08-12T23:40:50Z</time>
      </trkpt>
      <trkpt lat="34.84274056339426" lon="113.6491753951857">
        <ele>87.29420021362603</ele>
        <time>2026-08-12T23:40:56Z</time>
      </trkpt>
      <trkpt lat="34.84288491151013" lon="113.64913656203274">
        <ele>87.45413446240127</ele>
        <time>2026-08-12T23:41:02Z</time>
      </trkpt>
      <trkpt lat="34.842944303674216" lon="113.6490989131379">
        <ele>87.26440800447017</ele>
        <time>2026-08-12T23:41:05Z</time>
      </trkpt>
      <trkpt lat="34.842979405783154" lon="113.6490478973445">
        <ele>88.91889387834817</ele>
        <time>2026-08-12T23:41:11Z</time>
      </trkpt>
      <trkpt lat="34.84296801821114" lon="113.64896775555239">
        <ele>89.98253552708775</ele>
        <time>2026-08-12T23:41:17Z</time>
      </trkpt>
      <trkpt lat="34.84320258539303" lon="113.64890048708766">
        <ele>89.94336739648134</ele>
        <time>2026-08-12T23:41:30Z</time>
      </trkpt>
      <trkpt lat="34.84326058322593" lon="113.64886018231843">
        <ele>90.48157672770321</ele>
        <time>2026-08-12T23:41:33Z</time>
      </trkpt>
      <trkpt lat="34.84331451305272" lon="113.64877458507803">
        <ele>87.95432664174587</ele>
        <time>2026-08-12T23:41:36Z</time>
      </trkpt>
      <trkpt lat="34.84338376747642" lon="113.64877327371897">
        <ele>89.48352948203683</ele>
        <time>2026-08-12T23:41:39Z</time>
      </trkpt>
      <trkpt lat="34.84340210084822" lon="113.64885943393479">
        <ele>90.46207430679351</ele>
        <time>2026-08-12T23:41:51Z</time>
      </trkpt>
      <trkpt lat="34.84336676726281" lon="113.64899057600226">
        <ele>90.16882479004562</ele>
        <time>2026-08-12T23:41:54Z</time>
      </trkpt>
      <trkpt lat="34.843391206473896" lon="113.64923392515949">
        <ele>89.29553216975182</ele>
        <time>2026-08-12T23:42:03Z</time>
      </trkpt>
      <trkpt lat="34.843366160230566" lon="113.64937327174147">
        <ele>90.24774294998497</ele>
        <time>2026-08-12T23:42:09Z</time>
      </trkpt>
      <trkpt lat="34.84339201544653" lon="113.64945712742535">
        <ele>89.83719778899103</ele>
        <time>2026-08-12T23:42:12Z</time>
      </trkpt>
      <trkpt lat="34.84336484913848" lon="113.64962375734606">
        <ele>89.86008208617568</ele>
        <time>2026-08-12T23:42:18Z</time>
      </trkpt>
      <trkpt lat="34.843314872439386" lon="113.64971398409672">
        <ele>89.67990474868566</ele>
        <time>2026-08-12T23:42:24Z</time>
      </trkpt>
      <trkpt lat="34.84326620615696" lon="113.64975980861581">
        <ele>90.58080898877233</ele>
        <time>2026-08-12T23:42:27Z</time>
      </trkpt>
      <trkpt lat="34.84317602434734" lon="113.64980679516553">
        <ele>89.41926324833184</ele>
        <time>2026-08-12T23:42:30Z</time>
      </trkpt>
      <trkpt lat="34.842880763921215" lon="113.64988168323062">
        <ele>88.42334773670882</ele>
        <time>2026-08-12T23:42:42Z</time>
      </trkpt>
      <trkpt lat="34.84274650529751" lon="113.64998907643754">
        <ele>89.49221450649202</ele>
        <time>2026-08-12T23:42:51Z</time>
      </trkpt>
      <trkpt lat="34.84263190165628" lon="113.64999993906147">
        <ele>89.47673885524273</ele>
        <time>2026-08-12T23:42:57Z</time>
      </trkpt>
      <trkpt lat="34.84250704098117" lon="113.6500900913047">
        <ele>90.57618739455938</ele>
        <time>2026-08-12T23:43:06Z</time>
      </trkpt>
      <trkpt lat="34.84228111479949" lon="113.65014415593981">
        <ele>88.60392629913986</ele>
        <time>2026-08-12T23:43:15Z</time>
      </trkpt>
      <trkpt lat="34.84211269784063" lon="113.65022042068371">
        <ele>87.99746120534837</ele>
        <time>2026-08-12T23:43:24Z</time>
      </trkpt>
      <trkpt lat="34.84207555622028" lon="113.65026210104571">
        <ele>88.54200806561857</ele>
        <time>2026-08-12T23:43:27Z</time>
      </trkpt>
      <trkpt lat="34.84197070951432" lon="113.65027648390225">
        <ele>87.56997836474329</ele>
        <time>2026-08-12T23:43:33Z</time>
      </trkpt>
      <trkpt lat="34.84180326028045" lon="113.65034659479294">
        <ele>88.07814308907837</ele>
        <time>2026-08-12T23:43:41Z</time>
      </trkpt>
      <trkpt lat="34.84152117660537" lon="113.65039156246863">
        <ele>90.52721004281193</ele>
        <time>2026-08-12T23:43:55Z</time>
      </trkpt>
      <trkpt lat="34.841319950929346" lon="113.65046408328234">
        <ele>91.4934500772506</ele>
        <time>2026-08-12T23:44:04Z</time>
      </trkpt>
      <trkpt lat="34.841033278164446" lon="113.6506324238597">
        <ele>90.98147483263165</ele>
        <time>2026-08-12T23:44:16Z</time>
      </trkpt>
      <trkpt lat="34.84096019917005" lon="113.65067099984809">
        <ele>91.38031910080463</ele>
        <time>2026-08-12T23:44:19Z</time>
      </trkpt>
      <trkpt lat="34.84083759313675" lon="113.65061626108893">
        <ele>90.6727469805628</ele>
        <time>2026-08-12T23:44:31Z</time>
      </trkpt>
      <trkpt lat="34.840636198505166" lon="113.65054927467895">
        <ele>91.78977313358337</ele>
        <time>2026-08-12T23:44:40Z</time>
      </trkpt>
      <trkpt lat="34.840514699362885" lon="113.65061147344846">
        <ele>92.14690480474383</ele>
        <time>2026-08-12T23:44:46Z</time>
      </trkpt>
      <trkpt lat="34.840429033297355" lon="113.6506339804098">
        <ele>92.52979322243482</ele>
        <time>2026-08-12T23:44:52Z</time>
      </trkpt>
      <trkpt lat="34.840219211801035" lon="113.65083995349303">
        <ele>89.82746634446084</ele>
        <time>2026-08-12T23:44:58Z</time>
      </trkpt>
      <trkpt lat="34.84018856635287" lon="113.65093692539277">
        <ele>90.78130721952766</ele>
        <time>2026-08-12T23:45:01Z</time>
      </trkpt>
      <trkpt lat="34.84018403095002" lon="113.65103125148286">
        <ele>89.77165293041617</ele>
        <time>2026-08-12T23:45:04Z</time>
      </trkpt>
      <trkpt lat="34.84015096117468" lon="113.65076976298405">
        <ele>92.19117780402303</ele>
        <time>2026-08-12T23:45:10Z</time>
      </trkpt>
      <trkpt lat="34.8400288051894" lon="113.65086522236999">
        <ele>92.88194728456438</ele>
        <time>2026-08-12T23:45:16Z</time>
      </trkpt>
      <trkpt lat="34.839982785366026" lon="113.65094016688064">
        <ele>93.1204512566328</ele>
        <time>2026-08-12T23:45:19Z</time>
      </trkpt>
      <trkpt lat="34.839883072290775" lon="113.65100749489336">
        <ele>94.4993951106444</ele>
        <time>2026-08-12T23:45:25Z</time>
      </trkpt>
      <trkpt lat="34.8396522348835" lon="113.65125346224292">
        <ele>95.50036065187305</ele>
        <time>2026-08-12T23:45:40Z</time>
      </trkpt>
      <trkpt lat="34.83931830523573" lon="113.6513349149548">
        <ele>94.97122112102807</ele>
        <time>2026-08-12T23:45:56Z</time>
      </trkpt>
      <trkpt lat="34.83910088110479" lon="113.651442166095">
        <ele>94.4057091306895</ele>
        <time>2026-08-12T23:46:08Z</time>
      </trkpt>
      <trkpt lat="34.83898275100844" lon="113.65145469568799">
        <ele>94.16418160684407</ele>
        <time>2026-08-12T23:46:14Z</time>
      </trkpt>
      <trkpt lat="34.83877121161119" lon="113.6515993418458">
        <ele>94.0676208268851</ele>
        <time>2026-08-12T23:46:26Z</time>
      </trkpt>
      <trkpt lat="34.83872258808202" lon="113.65158596901344">
        <ele>93.8915923750028</ele>
        <time>2026-08-12T23:46:29Z</time>
      </trkpt>
      <trkpt lat="34.838519182076986" lon="113.65166959161395">
        <ele>94.56095917150378</ele>
        <time>2026-08-12T23:46:41Z</time>
      </trkpt>
      <trkpt lat="34.838473873949994" lon="113.65174048081722">
        <ele>95.0013095671311</ele>
        <time>2026-08-12T23:46:44Z</time>
      </trkpt>
      <trkpt lat="34.83819367004752" lon="113.65196766550051">
        <ele>94.2148444307968</ele>
        <time>2026-08-12T23:47:02Z</time>
      </trkpt>
      <trkpt lat="34.83789764970455" lon="113.65215851688286">
        <ele>94.57368420436978</ele>
        <time>2026-08-12T23:47:17Z</time>
      </trkpt>
      <trkpt lat="34.83780087039436" lon="113.65216697232378">
        <ele>94.37469255086035</ele>
        <time>2026-08-12T23:47:20Z</time>
      </trkpt>
      <trkpt lat="34.83773880877488" lon="113.65219791765013">
        <ele>93.81516102142632</ele>
        <time>2026-08-12T23:47:23Z</time>
      </trkpt>
      <trkpt lat="34.837652878410005" lon="113.65221083541135">
        <ele>93.17724002618343</ele>
        <time>2026-08-12T23:47:26Z</time>
      </trkpt>
      <trkpt lat="34.83760173113274" lon="113.65223864242725">
        <ele>93.70881469640881</ele>
        <time>2026-08-12T23:47:29Z</time>
      </trkpt>
      <trkpt lat="34.83752849476346" lon="113.65225029861664">
        <ele>93.78623889386654</ele>
        <time>2026-08-12T23:47:32Z</time>
      </trkpt>
      <trkpt lat="34.8374614150482" lon="113.65228747981837">
        <ele>93.21086513157934</ele>
        <time>2026-08-12T23:47:35Z</time>
      </trkpt>
      <trkpt lat="34.83731837570921" lon="113.65232647508635">
        <ele>92.64812834188342</ele>
        <time>2026-08-12T23:47:41Z</time>
      </trkpt>
      <trkpt lat="34.83723194308676" lon="113.65237598446673">
        <ele>92.68907067645341</ele>
        <time>2026-08-12T23:47:44Z</time>
      </trkpt>
      <trkpt lat="34.83706447608605" lon="113.65243159454397">
        <ele>90.53655454330146</ele>
        <time>2026-08-12T23:47:52Z</time>
      </trkpt>
      <trkpt lat="34.8369843185887" lon="113.65255861010625">
        <ele>91.2254723124206</ele>
        <time>2026-08-12T23:48:00Z</time>
      </trkpt>
      <trkpt lat="34.836797532895915" lon="113.65270114223075">
        <ele>91.66523851919919</ele>
        <time>2026-08-12T23:48:12Z</time>
      </trkpt>
      <trkpt lat="34.83673479822425" lon="113.65271142821172">
        <ele>91.2569799022749</ele>
        <time>2026-08-12T23:48:16Z</time>
      </trkpt>
      <trkpt lat="34.83665663136867" lon="113.65275471229863">
        <ele>90.73513384629041</ele>
        <time>2026-08-12T23:48:20Z</time>
      </trkpt>
      <trkpt lat="34.83662160791344" lon="113.65279614720802">
        <ele>91.52785760350525</ele>
        <time>2026-08-12T23:48:23Z</time>
      </trkpt>
      <trkpt lat="34.83639764616154" lon="113.65292327731221">
        <ele>91.18331833276898</ele>
        <time>2026-08-12T23:48:33Z</time>
      </trkpt>
      <trkpt lat="34.83636748851448" lon="113.65298610945935">
        <ele>90.49441778566688</ele>
        <time>2026-08-12T23:48:36Z</time>
      </trkpt>
      <trkpt lat="34.83630224731738" lon="113.65302820572221">
        <ele>89.96735385246575</ele>
        <time>2026-08-12T23:48:39Z</time>
      </trkpt>
      <trkpt lat="34.83628981241606" lon="113.6531080318033">
        <ele>88.91852329485118</ele>
        <time>2026-08-12T23:48:42Z</time>
      </trkpt>
      <trkpt lat="34.83622978328451" lon="113.65315975432583">
        <ele>91.2288222676143</ele>
        <time>2026-08-12T23:48:45Z</time>
      </trkpt>
      <trkpt lat="34.83615030611068" lon="113.65315953310653">
        <ele>91.24402165412903</ele>
        <time>2026-08-12T23:48:48Z</time>
      </trkpt>
      <trkpt lat="34.836107340317454" lon="113.65318995991456">
        <ele>92.31906536500901</ele>
        <time>2026-08-12T23:48:51Z</time>
      </trkpt>
      <trkpt lat="34.83592610238351" lon="113.65326297661841">
        <ele>92.71533671300858</ele>
        <time>2026-08-12T23:49:00Z</time>
      </trkpt>
      <trkpt lat="34.835636042742536" lon="113.65337901645695">
        <ele>92.53656477108598</ele>
        <time>2026-08-12T23:49:15Z</time>
      </trkpt>
      <trkpt lat="34.83558640780561" lon="113.65341581801484">
        <ele>93.05411526374519</ele>
        <time>2026-08-12T23:49:18Z</time>
      </trkpt>
      <trkpt lat="34.835310221300205" lon="113.65349436342352">
        <ele>92.69891650229692</ele>
        <time>2026-08-12T23:49:30Z</time>
      </trkpt>
      <trkpt lat="34.83500360535813" lon="113.65364332425672">
        <ele>93.69636271428317</ele>
        <time>2026-08-12T23:49:45Z</time>
      </trkpt>
      <trkpt lat="34.834721284129735" lon="113.65380704270868">
        <ele>93.72957762982696</ele>
        <time>2026-08-12T23:49:59Z</time>
      </trkpt>
      <trkpt lat="34.8344146596692" lon="113.65391716734415">
        <ele>94.64882658142596</ele>
        <time>2026-08-12T23:50:15Z</time>
      </trkpt>
      <trkpt lat="34.8342602864527" lon="113.65401396318384">
        <ele>94.77190877404064</ele>
        <time>2026-08-12T23:50:25Z</time>
      </trkpt>
      <trkpt lat="34.83411330250361" lon="113.65401121572914">
        <ele>94.43977032322437</ele>
        <time>2026-08-12T23:50:31Z</time>
      </trkpt>
      <trkpt lat="34.83406566224551" lon="113.65404263436544">
        <ele>94.6338173346594</ele>
        <time>2026-08-12T23:50:34Z</time>
      </trkpt>
      <trkpt lat="34.834061450937874" lon="113.65414206255322">
        <ele>93.96034580375999</ele>
        <time>2026-08-12T23:50:40Z</time>
      </trkpt>
      <trkpt lat="34.83400440787615" lon="113.65428057875222">
        <ele>94.64493770245463</ele>
        <time>2026-08-12T23:50:46Z</time>
      </trkpt>
      <trkpt lat="34.833889766568454" lon="113.65439558523155">
        <ele>95.13811775762588</ele>
        <time>2026-08-12T23:50:52Z</time>
      </trkpt>
      <trkpt lat="34.83364949869007" lon="113.65444615720727">
        <ele>93.68174465931952</ele>
        <time>2026-08-12T23:51:01Z</time>
      </trkpt>
      <trkpt lat="34.83360842523054" lon="113.65448717058626">
        <ele>95.22863866388798</ele>
        <time>2026-08-12T23:51:04Z</time>
      </trkpt>
      <trkpt lat="34.83334816881024" lon="113.65458040981792">
        <ele>95.5598153648898</ele>
        <time>2026-08-12T23:51:16Z</time>
      </trkpt>
      <trkpt lat="34.83309991218905" lon="113.65466716870215">
        <ele>95.34099320601672</ele>
        <time>2026-08-12T23:51:28Z</time>
      </trkpt>
      <trkpt lat="34.83306733369192" lon="113.65470667692824">
        <ele>94.63478315901011</ele>
        <time>2026-08-12T23:51:31Z</time>
      </trkpt>
      <trkpt lat="34.83299704115587" lon="113.65473670776402">
        <ele>95.3905689259991</ele>
        <time>2026-08-12T23:51:34Z</time>
      </trkpt>
      <trkpt lat="34.832939606826756" lon="113.65479718821103">
        <ele>95.1176341548562</ele>
        <time>2026-08-12T23:51:37Z</time>
      </trkpt>
      <trkpt lat="34.83286197922983" lon="113.6548393460829">
        <ele>94.8675117334351</ele>
        <time>2026-08-12T23:51:40Z</time>
      </trkpt>
      <trkpt lat="34.832817398591466" lon="113.65489153388133">
        <ele>95.61094792280346</ele>
        <time>2026-08-12T23:51:43Z</time>
      </trkpt>
      <trkpt lat="34.832771686917546" lon="113.6549151470288">
        <ele>95.1613539494574</ele>
        <time>2026-08-12T23:51:46Z</time>
      </trkpt>
      <trkpt lat="34.83275023886918" lon="113.65496674925465">
        <ele>95.41173717472702</ele>
        <time>2026-08-12T23:51:49Z</time>
      </trkpt>
      <trkpt lat="34.832921807586075" lon="113.65503484359951">
        <ele>96.91343213804066</ele>
        <time>2026-08-12T23:51:52Z</time>
      </trkpt>
      <trkpt lat="34.832892459847606" lon="113.65510416582151">
        <ele>96.69239615276456</ele>
        <time>2026-08-12T23:51:55Z</time>
      </trkpt>
      <trkpt lat="34.832788903482864" lon="113.65521781028912">
        <ele>96.51125241722912</ele>
        <time>2026-08-12T23:51:59Z</time>
      </trkpt>
      <trkpt lat="34.83276908528384" lon="113.65527760739259">
        <ele>96.69339145813137</ele>
        <time>2026-08-12T23:52:02Z</time>
      </trkpt>
      <trkpt lat="34.83285236899234" lon="113.65532245711164">
        <ele>97.77976727485657</ele>
        <time>2026-08-12T23:52:05Z</time>
      </trkpt>
      <trkpt lat="34.83287654530306" lon="113.65537446606669">
        <ele>97.56728354655206</ele>
        <time>2026-08-12T23:52:09Z</time>
      </trkpt>
      <trkpt lat="34.83286190383494" lon="113.65531189111515">
        <ele>97.25144263915718</ele>
        <time>2026-08-12T23:52:19Z</time>
      </trkpt>
      <trkpt lat="34.83295910340883" lon="113.6552429616564">
        <ele>96.44568467047065</ele>
        <time>2026-08-12T23:52:22Z</time>
      </trkpt>
      <trkpt lat="34.833125991899195" lon="113.65527110586089">
        <ele>94.81258545350283</ele>
        <time>2026-08-12T23:52:25Z</time>
      </trkpt>
      <trkpt lat="34.83326814011023" lon="113.65511073739282">
        <ele>93.57386978622526</ele>
        <time>2026-08-12T23:52:31Z</time>
      </trkpt>
      <trkpt lat="34.83327896487605" lon="113.65504984587828">
        <ele>93.25074177794158</ele>
        <time>2026-08-12T23:52:34Z</time>
      </trkpt>
      <trkpt lat="34.83340701468792" lon="113.6549256799727">
        <ele>94.34806180279702</ele>
        <time>2026-08-12T23:52:43Z</time>
      </trkpt>
      <trkpt lat="34.83348575971657" lon="113.65489002637811">
        <ele>93.81686205882579</ele>
        <time>2026-08-12T23:52:46Z</time>
      </trkpt>
      <trkpt lat="34.83379698901463" lon="113.65488601508198">
        <ele>95.27593343611807</ele>
        <time>2026-08-12T23:52:55Z</time>
      </trkpt>
      <trkpt lat="34.83385119289212" lon="113.65490979301926">
        <ele>95.82035159971565</ele>
        <time>2026-08-12T23:52:58Z</time>
      </trkpt>
      <trkpt lat="34.833923054796834" lon="113.65491439531544">
        <ele>92.9160865964368</ele>
        <time>2026-08-12T23:53:01Z</time>
      </trkpt>
      <trkpt lat="34.834036279443225" lon="113.65497973806247">
        <ele>93.38993997033685</ele>
        <time>2026-08-12T23:53:07Z</time>
      </trkpt>
      <trkpt lat="34.83408255734762" lon="113.6550532892265">
        <ele>93.22572025284171</ele>
        <time>2026-08-12T23:53:11Z</time>
      </trkpt>
      <trkpt lat="34.834182238909634" lon="113.65509275655643">
        <ele>93.29300327133387</ele>
        <time>2026-08-12T23:53:17Z</time>
      </trkpt>
      <trkpt lat="34.83418521704411" lon="113.65516731714956">
        <ele>92.45914443582296</ele>
        <time>2026-08-12T23:53:20Z</time>
      </trkpt>
      <trkpt lat="34.834279036483316" lon="113.65547335186334">
        <ele>91.55845538433641</ele>
        <time>2026-08-12T23:53:32Z</time>
      </trkpt>
      <trkpt lat="34.83421230176145" lon="113.65573708363225">
        <ele>91.93252600450069</ele>
        <time>2026-08-12T23:53:41Z</time>
      </trkpt>
      <trkpt lat="34.834198415427444" lon="113.65590679085176">
        <ele>92.33814819622785</ele>
        <time>2026-08-12T23:53:47Z</time>
      </trkpt>
      <trkpt lat="34.834120549077184" lon="113.65608940677241">
        <ele>92.68182757031173</ele>
        <time>2026-08-12T23:53:56Z</time>
      </trkpt>
      <trkpt lat="34.8340808629" lon="113.65614251323456">
        <ele>93.01544305123389</ele>
        <time>2026-08-12T23:53:59Z</time>
      </trkpt>
      <trkpt lat="34.83401149402679" lon="113.65618246537547">
        <ele>92.60452621616423</ele>
        <time>2026-08-12T23:54:02Z</time>
      </trkpt>
      <trkpt lat="34.83390847040333" lon="113.65620952722016">
        <ele>92.78543350566179</ele>
        <time>2026-08-12T23:54:06Z</time>
      </trkpt>
      <trkpt lat="34.83377250646582" lon="113.65627342452166">
        <ele>92.62583023775369</ele>
        <time>2026-08-12T23:54:13Z</time>
      </trkpt>
      <trkpt lat="34.83372772691117" lon="113.65638375829916">
        <ele>91.75004400778562</ele>
        <time>2026-08-12T23:54:17Z</time>
      </trkpt>
      <trkpt lat="34.833513570270206" lon="113.65642911312403">
        <ele>91.725515848957</ele>
        <time>2026-08-12T23:54:26Z</time>
      </trkpt>
      <trkpt lat="34.8333817993067" lon="113.65636205087627">
        <ele>91.32484215591103</ele>
        <time>2026-08-12T23:54:32Z</time>
      </trkpt>
      <trkpt lat="34.83332307934961" lon="113.65637244693941">
        <ele>92.14457594230771</ele>
        <time>2026-08-12T23:54:35Z</time>
      </trkpt>
      <trkpt lat="34.83325065767699" lon="113.65635070575742">
        <ele>91.52958436775953</ele>
        <time>2026-08-12T23:54:38Z</time>
      </trkpt>
      <trkpt lat="34.8331905021789" lon="113.65630201919727">
        <ele>91.39260970149189</ele>
        <time>2026-08-12T23:54:41Z</time>
      </trkpt>
      <trkpt lat="34.833111168319064" lon="113.65628845299072">
        <ele>91.7804147573188</ele>
        <time>2026-08-12T23:54:44Z</time>
      </trkpt>
      <trkpt lat="34.83301407084622" lon="113.65620187723019">
        <ele>91.93427900597453</ele>
        <time>2026-08-12T23:54:50Z</time>
      </trkpt>
      <trkpt lat="34.83282182864225" lon="113.65598206966152">
        <ele>92.32266626693308</ele>
        <time>2026-08-12T23:55:02Z</time>
      </trkpt>
      <trkpt lat="34.83279209786173" lon="113.65590884099862">
        <ele>92.2364143114537</ele>
        <time>2026-08-12T23:55:05Z</time>
      </trkpt>
      <trkpt lat="34.83274249092892" lon="113.65586064423292">
        <ele>91.56918591354042</ele>
        <time>2026-08-12T23:55:08Z</time>
      </trkpt>
      <trkpt lat="34.83268584452514" lon="113.65584517085443">
        <ele>91.68497018702328</ele>
        <time>2026-08-12T23:55:11Z</time>
      </trkpt>
      <trkpt lat="34.8325124383777" lon="113.65607010479569">
        <ele>91.26587225403637</ele>
        <time>2026-08-12T23:55:20Z</time>
      </trkpt>
      <trkpt lat="34.83235777615343" lon="113.65616986256232">
        <ele>91.11956555210054</ele>
        <time>2026-08-12T23:55:29Z</time>
      </trkpt>
      <trkpt lat="34.832201725534205" lon="113.65617681457528">
        <ele>91.14949389733374</ele>
        <time>2026-08-12T23:55:35Z</time>
      </trkpt>
      <trkpt lat="34.83213165291235" lon="113.65615590870611">
        <ele>90.56606378313154</ele>
        <time>2026-08-12T23:55:38Z</time>
      </trkpt>
      <trkpt lat="34.8319836515764" lon="113.65598830333795">
        <ele>91.4101725909859</ele>
        <time>2026-08-12T23:55:47Z</time>
      </trkpt>
      <trkpt lat="34.83193065279392" lon="113.65584634847943">
        <ele>90.35329648014158</ele>
        <time>2026-08-12T23:55:53Z</time>
      </trkpt>
      <trkpt lat="34.831928761171355" lon="113.65578507662893">
        <ele>90.7325004870072</ele>
        <time>2026-08-12T23:55:56Z</time>
      </trkpt>
      <trkpt lat="34.83196199843016" lon="113.65570659416154">
        <ele>90.6644480805844</ele>
        <time>2026-08-12T23:55:59Z</time>
      </trkpt>
      <trkpt lat="34.83212196017384" lon="113.65563379093321">
        <ele>91.94128910265863</ele>
        <time>2026-08-12T23:56:05Z</time>
      </trkpt>
      <trkpt lat="34.83223206098479" lon="113.6555634901659">
        <ele>92.62773780990392</ele>
        <time>2026-08-12T23:56:08Z</time>
      </trkpt>
      <trkpt lat="34.832293318234996" lon="113.65537490368641">
        <ele>91.86126626841724</ele>
        <time>2026-08-12T23:56:18Z</time>
      </trkpt>
      <trkpt lat="34.83232539898656" lon="113.65518534630014">
        <ele>91.85288140829653</ele>
        <time>2026-08-12T23:56:24Z</time>
      </trkpt>
      <trkpt lat="34.832406917892435" lon="113.65506495410592">
        <ele>91.02606828697026</ele>
        <time>2026-08-12T23:56:33Z</time>
      </trkpt>
      <trkpt lat="34.832597121230265" lon="113.65509849036978">
        <ele>91.97230882756412</ele>
        <time>2026-08-12T23:56:42Z</time>
      </trkpt>
      <trkpt lat="34.832745473397004" lon="113.65528303535244">
        <ele>92.15365778189152</ele>
        <time>2026-08-12T23:56:51Z</time>
      </trkpt>
      <trkpt lat="34.83288315564131" lon="113.655292660316">
        <ele>92.10574508458376</ele>
        <time>2026-08-12T23:56:57Z</time>
      </trkpt>
      <trkpt lat="34.832969855326986" lon="113.65532037235904">
        <ele>92.11121260281652</ele>
        <time>2026-08-12T23:57:00Z</time>
      </trkpt>
      <trkpt lat="34.83305272693926" lon="113.65532153927371">
        <ele>92.67126257531345</ele>
        <time>2026-08-12T23:57:06Z</time>
      </trkpt>
      <trkpt lat="34.83323989924839" lon="113.65510552787316">
        <ele>91.58674725983292</ele>
        <time>2026-08-12T23:57:18Z</time>
      </trkpt>
      <trkpt lat="34.83331107566183" lon="113.65494622776721">
        <ele>91.49811475910246</ele>
        <time>2026-08-12T23:57:24Z</time>
      </trkpt>
      <trkpt lat="34.833355997308765" lon="113.65489847895508">
        <ele>91.19241233728826</ele>
        <time>2026-08-12T23:57:27Z</time>
      </trkpt>
      <trkpt lat="34.833422188687095" lon="113.65487041054101">
        <ele>91.41453366074711</ele>
        <time>2026-08-12T23:57:30Z</time>
      </trkpt>
      <trkpt lat="34.83374193536031" lon="113.65483528831787">
        <ele>89.98974190186709</ele>
        <time>2026-08-12T23:57:48Z</time>
      </trkpt>
      <trkpt lat="34.83401590683493" lon="113.65497630688134">
        <ele>90.49887555558234</ele>
        <time>2026-08-12T23:58:03Z</time>
      </trkpt>
      <trkpt lat="34.83402201819262" lon="113.65504395264726">
        <ele>90.46836259122938</ele>
        <time>2026-08-12T23:58:06Z</time>
      </trkpt>
      <trkpt lat="34.833960960703294" lon="113.6551401175305">
        <ele>90.82065909542143</ele>
        <time>2026-08-12T23:58:09Z</time>
      </trkpt>
      <trkpt lat="34.8338935667977" lon="113.65517830926946">
        <ele>91.90153851918876</ele>
        <time>2026-08-12T23:58:12Z</time>
      </trkpt>
      <trkpt lat="34.8338435242811" lon="113.65523064994981">
        <ele>91.22679771669209</ele>
        <time>2026-08-12T23:58:15Z</time>
      </trkpt>
      <trkpt lat="34.83382855320806" lon="113.65533088947673">
        <ele>91.59149853885174</ele>
        <time>2026-08-12T23:58:19Z</time>
      </trkpt>
      <trkpt lat="34.833835001498706" lon="113.65545531895306">
        <ele>91.75215274002403</ele>
        <time>2026-08-12T23:58:23Z</time>
      </trkpt>
      <trkpt lat="34.833900839600595" lon="113.6555270151799">
        <ele>91.96472206711769</ele>
        <time>2026-08-12T23:58:27Z</time>
      </trkpt>
      <trkpt lat="34.83404820633345" lon="113.65555921092923">
        <ele>90.91699290461838</ele>
        <time>2026-08-12T23:58:34Z</time>
      </trkpt>
      <trkpt lat="34.83409028724373" lon="113.65562378885191">
        <ele>91.72050254140049</ele>
        <time>2026-08-12T23:58:37Z</time>
      </trkpt>
      <trkpt lat="34.83406666476336" lon="113.65570669878787">
        <ele>90.65313137695193</ele>
        <time>2026-08-12T23:58:40Z</time>
      </trkpt>
      <trkpt lat="34.834012461019206" lon="113.65573851969732">
        <ele>91.37912118900567</ele>
        <time>2026-08-12T23:58:43Z</time>
      </trkpt>
      <trkpt lat="34.83412158295325" lon="113.65581740895036">
        <ele>91.22548043262213</ele>
        <time>2026-08-12T23:58:49Z</time>
      </trkpt>
      <trkpt lat="34.83412319892152" lon="113.6558976815876">
        <ele>90.80207544378936</ele>
        <time>2026-08-12T23:58:52Z</time>
      </trkpt>
      <trkpt lat="34.8340610773125" lon="113.65601307031241">
        <ele>90.63923762459308</ele>
        <time>2026-08-12T23:58:58Z</time>
      </trkpt>
      <trkpt lat="34.83404674442612" lon="113.65607008639235">
        <ele>92.22008695174009</ele>
        <time>2026-08-12T23:59:01Z</time>
      </trkpt>
      <trkpt lat="34.834001581038976" lon="113.65612923561442">
        <ele>92.25994504056871</ele>
        <time>2026-08-12T23:59:04Z</time>
      </trkpt>
      <trkpt lat="34.83382261704977" lon="113.65619735200035">
        <ele>92.2758714640513</ele>
        <time>2026-08-12T23:59:13Z</time>
      </trkpt>
      <trkpt lat="34.833649301788874" lon="113.65608922077608">
        <ele>91.95993716921657</ele>
        <time>2026-08-12T23:59:22Z</time>
      </trkpt>
      <trkpt lat="34.83351834152021" lon="113.65605948304272">
        <ele>92.03570898342878</ele>
        <time>2026-08-12T23:59:28Z</time>
      </trkpt>
      <trkpt lat="34.83344837679327" lon="113.65606686511282">
        <ele>91.74457785952836</ele>
        <time>2026-08-12T23:59:31Z</time>
      </trkpt>
      <trkpt lat="34.833352276950464" lon="113.65613746468404">
        <ele>90.7598298639059</ele>
        <time>2026-08-12T23:59:37Z</time>
      </trkpt>
      <trkpt lat="34.833316500138" lon="113.65618582499964">
        <ele>90.61079869605601</ele>
        <time>2026-08-12T23:59:40Z</time>
      </trkpt>
      <trkpt lat="34.83313581228025" lon="113.65620857371474">
        <ele>89.77321632672101</ele>
        <time>2026-08-12T23:59:49Z</time>
      </trkpt>
      <trkpt lat="34.83306087220594" lon="113.6561814739969">
        <ele>89.79607257805765</ele>
        <time>2026-08-12T23:59:52Z</time>
      </trkpt>
      <trkpt lat="34.83300475427147" lon="113.65613763668539">
        <ele>91.28296299465</ele>
        <time>2026-08-12T23:59:55Z</time>
      </trkpt>
      <trkpt lat="34.832952718033624" lon="113.65606836651244">
        <ele>92.01850772928447</ele>
        <time>2026-08-12T23:59:58Z</time>
      </trkpt>
      <trkpt lat="34.83273914928444" lon="113.65590021780982">
        <ele>92.22189695388079</ele>
        <time>2026-08-13T00:00:10Z</time>
      </trkpt>
      <trkpt lat="34.83268470931443" lon="113.65589015118633">
        <ele>91.93177514523268</ele>
        <time>2026-08-13T00:00:13Z</time>
      </trkpt>
      <trkpt lat="34.832629442146455" lon="113.65593054361764">
        <ele>92.45544260833412</ele>
        <time>2026-08-13T00:00:16Z</time>
      </trkpt>
      <trkpt lat="34.8325876419424" lon="113.65599041932059">
        <ele>92.11292015574872</ele>
        <time>2026-08-13T00:00:19Z</time>
      </trkpt>
      <trkpt lat="34.83252370867659" lon="113.65602979566214">
        <ele>91.66694322321564</ele>
        <time>2026-08-13T00:00:23Z</time>
      </trkpt>
      <trkpt lat="34.83249686953874" lon="113.65610325921193">
        <ele>92.29774725623429</ele>
        <time>2026-08-13T00:00:26Z</time>
      </trkpt>
      <trkpt lat="34.832355859111125" lon="113.65615577240003">
        <ele>90.74794582184404</ele>
        <time>2026-08-13T00:00:33Z</time>
      </trkpt>
      <trkpt lat="34.832296393945505" lon="113.65614603233136">
        <ele>91.18447976652533</ele>
        <time>2026-08-13T00:00:36Z</time>
      </trkpt>
      <trkpt lat="34.83223582294182" lon="113.65617479286867">
        <ele>92.38160827197134</ele>
        <time>2026-08-13T00:00:39Z</time>
      </trkpt>
      <trkpt lat="34.83212251819679" lon="113.65611563199582">
        <ele>91.85498381126672</ele>
        <time>2026-08-13T00:00:45Z</time>
      </trkpt>
      <trkpt lat="34.832030307189704" lon="113.65602697888369">
        <ele>90.72689216583967</ele>
        <time>2026-08-13T00:00:51Z</time>
      </trkpt>
      <trkpt lat="34.831989524570965" lon="113.65596360015944">
        <ele>91.95566162467003</ele>
        <time>2026-08-13T00:00:54Z</time>
      </trkpt>
      <trkpt lat="34.831916555681836" lon="113.65593597009168">
        <ele>91.67055709660053</ele>
        <time>2026-08-13T00:00:57Z</time>
      </trkpt>
      <trkpt lat="34.831874153840026" lon="113.65599810702903">
        <ele>90.89466973021626</ele>
        <time>2026-08-13T00:01:00Z</time>
      </trkpt>
      <trkpt lat="34.83181078905788" lon="113.65601703796104">
        <ele>90.5385123649612</ele>
        <time>2026-08-13T00:01:03Z</time>
      </trkpt>
      <trkpt lat="34.83178960655606" lon="113.65610443559878">
        <ele>90.35137266013771</ele>
        <time>2026-08-13T00:01:06Z</time>
      </trkpt>
      <trkpt lat="34.831752431475245" lon="113.65616390025016">
        <ele>90.66523202881217</ele>
        <time>2026-08-13T00:01:09Z</time>
      </trkpt>
      <trkpt lat="34.83176099988315" lon="113.6562446719548">
        <ele>90.39117984753102</ele>
        <time>2026-08-13T00:01:12Z</time>
      </trkpt>
      <trkpt lat="34.83179274739545" lon="113.65620574131808">
        <ele>93.83442727848887</ele>
        <time>2026-08-13T00:01:27Z</time>
      </trkpt>
      <trkpt lat="34.831699614218564" lon="113.65613079862761">
        <ele>94.84708637930453</ele>
        <time>2026-08-13T00:01:33Z</time>
      </trkpt>
      <trkpt lat="34.83165606532169" lon="113.65617128183159">
        <ele>93.68156546261162</ele>
        <time>2026-08-13T00:01:36Z</time>
      </trkpt>
      <trkpt lat="34.8316251555715" lon="113.65624428726647">
        <ele>92.70483991131186</ele>
        <time>2026-08-13T00:01:39Z</time>
      </trkpt>
      <trkpt lat="34.8315407294261" lon="113.65632674878897">
        <ele>92.25491520762444</ele>
        <time>2026-08-13T00:01:45Z</time>
      </trkpt>
      <trkpt lat="34.83148097606985" lon="113.65636214815625">
        <ele>92.29151357337832</ele>
        <time>2026-08-13T00:01:48Z</time>
      </trkpt>
      <trkpt lat="34.83142302087211" lon="113.65635085409271">
        <ele>91.66541675850749</ele>
        <time>2026-08-13T00:01:51Z</time>
      </trkpt>
      <trkpt lat="34.831302855259594" lon="113.65642632806748">
        <ele>92.90588755253702</ele>
        <time>2026-08-13T00:01:57Z</time>
      </trkpt>
      <trkpt lat="34.831247140780725" lon="113.65643172320662">
        <ele>91.80079810228199</ele>
        <time>2026-08-13T00:02:00Z</time>
      </trkpt>
      <trkpt lat="34.83117785530553" lon="113.65640672393937">
        <ele>92.01395103521645</ele>
        <time>2026-08-13T00:02:03Z</time>
      </trkpt>
      <trkpt lat="34.83104900133216" lon="113.65643287915776">
        <ele>93.40797888953239</ele>
        <time>2026-08-13T00:02:09Z</time>
      </trkpt>
      <trkpt lat="34.83096425538019" lon="113.65654095231696">
        <ele>92.71798918396235</ele>
        <time>2026-08-13T00:02:15Z</time>
      </trkpt>
      <trkpt lat="34.83084741732796" lon="113.65651223974487">
        <ele>91.29955483134836</ele>
        <time>2026-08-13T00:02:21Z</time>
      </trkpt>
      <trkpt lat="34.83075193178724" lon="113.65638629590838">
        <ele>90.35944534651935</ele>
        <time>2026-08-13T00:02:27Z</time>
      </trkpt>
      <trkpt lat="34.830703391995186" lon="113.65628861322763">
        <ele>90.32601339370012</ele>
        <time>2026-08-13T00:02:31Z</time>
      </trkpt>
      <trkpt lat="34.83054630075428" lon="113.65626358413597">
        <ele>91.57519851159304</ele>
        <time>2026-08-13T00:02:39Z</time>
      </trkpt>
      <trkpt lat="34.830467767873984" lon="113.65622185996297">
        <ele>92.09993368200958</ele>
        <time>2026-08-13T00:02:43Z</time>
      </trkpt>
      <trkpt lat="34.83038736933849" lon="113.65600440091983">
        <ele>92.46050052624196</ele>
        <time>2026-08-13T00:02:53Z</time>
      </trkpt>
      <trkpt lat="34.830298126245474" lon="113.6558876720694">
        <ele>93.88314468692988</ele>
        <time>2026-08-13T00:02:59Z</time>
      </trkpt>
      <trkpt lat="34.83024315880741" lon="113.6559073347651">
        <ele>93.89831398613751</ele>
        <time>2026-08-13T00:03:02Z</time>
      </trkpt>
      <trkpt lat="34.83023580613114" lon="113.65601031590812">
        <ele>92.23394207376987</ele>
        <time>2026-08-13T00:03:05Z</time>
      </trkpt>
      <trkpt lat="34.830246957889976" lon="113.6561754808854">
        <ele>91.25395053159446</ele>
        <time>2026-08-13T00:03:11Z</time>
      </trkpt>
      <trkpt lat="34.83022774041255" lon="113.65632095366226">
        <ele>89.62490244582295</ele>
        <time>2026-08-13T00:03:17Z</time>
      </trkpt>
      <trkpt lat="34.83023797819591" lon="113.65649591387852">
        <ele>88.58571754954755</ele>
        <time>2026-08-13T00:03:23Z</time>
      </trkpt>
      <trkpt lat="34.83021569977617" lon="113.65657286895494">
        <ele>88.48132350947708</ele>
        <time>2026-08-13T00:03:26Z</time>
      </trkpt>
      <trkpt lat="34.83022854032922" lon="113.65665169673058">
        <ele>88.0683305254206</ele>
        <time>2026-08-13T00:03:29Z</time>
      </trkpt>
      <trkpt lat="34.83023142264771" lon="113.65698423321662">
        <ele>89.62141081038862</ele>
        <time>2026-08-13T00:03:44Z</time>
      </trkpt>
      <trkpt lat="34.83022689964382" lon="113.65712127538794">
        <ele>89.13975079916418</ele>
        <time>2026-08-13T00:03:50Z</time>
      </trkpt>
      <trkpt lat="34.830185356274555" lon="113.65724071675733">
        <ele>89.9389892918989</ele>
        <time>2026-08-13T00:03:56Z</time>
      </trkpt>
      <trkpt lat="34.83019407745219" lon="113.6573345118477">
        <ele>89.23190461471677</ele>
        <time>2026-08-13T00:03:59Z</time>
      </trkpt>
      <trkpt lat="34.83016053610417" lon="113.65746105364504">
        <ele>88.70229411683977</ele>
        <time>2026-08-13T00:04:05Z</time>
      </trkpt>
      <trkpt lat="34.83017809958834" lon="113.65761224729661">
        <ele>89.03384404350072</ele>
        <time>2026-08-13T00:04:14Z</time>
      </trkpt>
      <trkpt lat="34.83017442512593" lon="113.65773965562298">
        <ele>88.67060295399278</ele>
        <time>2026-08-13T00:04:20Z</time>
      </trkpt>
      <trkpt lat="34.830057374408916" lon="113.65811281531172">
        <ele>89.20362601708621</ele>
        <time>2026-08-13T00:04:36Z</time>
      </trkpt>
      <trkpt lat="34.83012455094166" lon="113.65836017413692">
        <ele>89.16304032038897</ele>
        <time>2026-08-13T00:04:50Z</time>
      </trkpt>
      <trkpt lat="34.830104752480366" lon="113.65846045250383">
        <ele>89.69589396193624</ele>
        <time>2026-08-13T00:04:56Z</time>
      </trkpt>
      <trkpt lat="34.83006436330958" lon="113.65851675624302">
        <ele>90.17456413339823</ele>
        <time>2026-08-13T00:04:59Z</time>
      </trkpt>
      <trkpt lat="34.82984318651476" lon="113.65850160899893">
        <ele>91.90213003475219</ele>
        <time>2026-08-13T00:05:14Z</time>
      </trkpt>
      <trkpt lat="34.829714805185006" lon="113.65845246111125">
        <ele>91.88576188776642</ele>
        <time>2026-08-13T00:05:23Z</time>
      </trkpt>
      <trkpt lat="34.82966442755586" lon="113.6583383084789">
        <ele>91.58402843028307</ele>
        <time>2026-08-13T00:05:29Z</time>
      </trkpt>
      <trkpt lat="34.82968224117832" lon="113.65827736674179">
        <ele>92.2247815746814</ele>
        <time>2026-08-13T00:05:32Z</time>
      </trkpt>
      <trkpt lat="34.82966917992044" lon="113.65821207909326">
        <ele>92.0692175803706</ele>
        <time>2026-08-13T00:05:35Z</time>
      </trkpt>
      <trkpt lat="34.82957920684003" lon="113.65815401241714">
        <ele>91.54088176228106</ele>
        <time>2026-08-13T00:05:41Z</time>
      </trkpt>
      <trkpt lat="34.82930700953356" lon="113.65808263737932">
        <ele>92.32112312596291</ele>
        <time>2026-08-13T00:05:56Z</time>
      </trkpt>
      <trkpt lat="34.82924125451043" lon="113.65804280776999">
        <ele>92.12187192309648</ele>
        <time>2026-08-13T00:05:59Z</time>
      </trkpt>
      <trkpt lat="34.829241198980924" lon="113.6579656654137">
        <ele>91.87210810184479</ele>
        <time>2026-08-13T00:06:02Z</time>
      </trkpt>
      <trkpt lat="34.829212683542636" lon="113.65789817393998">
        <ele>92.05105585139245</ele>
        <time>2026-08-13T00:06:05Z</time>
      </trkpt>
      <trkpt lat="34.829292237245774" lon="113.65780923922989">
        <ele>91.28500117082149</ele>
        <time>2026-08-13T00:06:08Z</time>
      </trkpt>
      <trkpt lat="34.82931040901382" lon="113.65771563912487">
        <ele>91.54021000489593</ele>
        <time>2026-08-13T00:06:11Z</time>
      </trkpt>
      <trkpt lat="34.82937877370271" lon="113.65755229546178">
        <ele>91.41479333397001</ele>
        <time>2026-08-13T00:06:17Z</time>
      </trkpt>
      <trkpt lat="34.82940351954223" lon="113.65732322359716">
        <ele>91.3043848183006</ele>
        <time>2026-08-13T00:06:29Z</time>
      </trkpt>
      <trkpt lat="34.829331349097046" lon="113.65725829606016">
        <ele>89.85871745832264</ele>
        <time>2026-08-13T00:06:32Z</time>
      </trkpt>
      <trkpt lat="34.82933359910317" lon="113.6571672833644">
        <ele>90.14480577223003</ele>
        <time>2026-08-13T00:06:35Z</time>
      </trkpt>
      <trkpt lat="34.82937275718916" lon="113.65704545083072">
        <ele>92.742108755745</ele>
        <time>2026-08-13T00:06:42Z</time>
      </trkpt>
      <trkpt lat="34.829242154088675" lon="113.65684066413053">
        <ele>95.25733559392393</ele>
        <time>2026-08-13T00:06:50Z</time>
      </trkpt>
      <trkpt lat="34.82920631987335" lon="113.65675420251004">
        <ele>93.98055142909288</ele>
        <time>2026-08-13T00:06:56Z</time>
      </trkpt>
      <trkpt lat="34.82911785427754" lon="113.65677008614355">
        <ele>94.84995068144053</ele>
        <time>2026-08-13T00:06:59Z</time>
      </trkpt>
      <trkpt lat="34.82905663707489" lon="113.65675595536624">
        <ele>95.19105176720768</ele>
        <time>2026-08-13T00:07:02Z</time>
      </trkpt>
      <trkpt lat="34.828968690777096" lon="113.65680595697222">
        <ele>94.48786881845444</ele>
        <time>2026-08-13T00:07:08Z</time>
      </trkpt>
      <trkpt lat="34.82885382801622" lon="113.65682960520317">
        <ele>94.48233232460916</ele>
        <time>2026-08-13T00:07:14Z</time>
      </trkpt>
      <trkpt lat="34.82857311179252" lon="113.65693434900965">
        <ele>95.68446749076247</ele>
        <time>2026-08-13T00:07:32Z</time>
      </trkpt>
      <trkpt lat="34.82852289036143" lon="113.65693816395128">
        <ele>95.31806939840317</ele>
        <time>2026-08-13T00:07:35Z</time>
      </trkpt>
    </trkseg>
  </trk>
</gpx>