<?xml version="1.0" encoding="UTF-8"?>
<gpx xmlns="http://www.topografix.com/GPX/1/1" xmlns:gpxtpx="http://www.garmin.com/xmlschemas/TrackPointExtension/v1" xmlns:xsi="http://www.w3.org/2001/XMLSchema-instance" xsi:schemaLocation="http://www.topografix.com/GPX/1/1 http://www.topografix.com/GPX/1/1/gpx.xsd" version="1.1" creator="gpx.py -- https://github.com/tkrajina/gpxpy">
  <trk>
    <name>gpx from keep</name>
    <type>Run</type>
    <trkseg>
      <trkpt lat="34.82995513694064" lon="113.65501043343775">
        <ele>92.02392578125</ele>
        <time>2026-08-28T01:15:55Z</time>
      </trkpt>
      <trkpt lat="34.82980883176548" lon="113.65492474464253">
        <ele>92.90972005948424</ele>
        <time>2026-08-28T01:16:04Z</time>
      </trkpt>
      <trkpt lat="34.8299231548524" lon="113.65449832596852">
        <ele>91.47797449771315</ele>
        <time>2026-08-28T01:16:10Z</time>
      </trkpt>
      <trkpt lat="34.829925390806004" lon="113.65434161327946">
        <ele>91.86049983650446</ele>
        <time>2026-08-28T01:16:16Z</time>
      </trkpt>
      <trkpt lat="34.82986109159781" lon="113.65430655149763">
        <ele>89.67432469315827</ele>
        <time>2026-08-28T01:16:19Z</time>
      </trkpt>
      <trkpt lat="34.82980412367807" lon="113.65432800239542">
        <ele>86.92375541012734</ele>
        <time>2026-08-28T01:16:25Z</time>
      </trkpt>
      <trkpt lat="34.82976398217999" lon="113.65436664694491">
        <ele>88.2929845713079</ele>
        <time>2026-08-28T01:16:28Z</time>
      </trkpt>
      <trkpt lat="34.8297359927252" lon="113.65447039991756">
        <ele>88.45199748780578</ele>
        <time>2026-08-28T01:16:34Z</time>
      </trkpt>
      <trkpt lat="34.829696693236514" lon="113.65454234152332">
        <ele>87.65199435595423</ele>
        <time>2026-08-28T01:16:40Z</time>
      </trkpt>
      <trkpt lat="34.82960722683412" lon="113.65460787183389">
        <ele>88.0391890220344</ele>
        <time>2026-08-28T01:16:43Z</time>
      </trkpt>
      <trkpt lat="34.82950992296576" lon="113.65460608191354">
        <ele>88.59789078589529</ele>
        <time>2026-08-28T01:16:49Z</time>
      </trkpt>
      <trkpt lat="34.829309650339965" lon="113.6546881042054">
        <ele>87.70225070323795</ele>
        <time>2026-08-28T01:17:04Z</time>
      </trkpt>
      <trkpt lat="34.82924556035975" lon="113.65468512027273">
        <ele>87.10292890481651</ele>
        <time>2026-08-28T01:17:07Z</time>
      </trkpt>
      <trkpt lat="34.829167880052346" lon="113.65472439694955">
        <ele>88.055525559932</ele>
        <time>2026-08-28T01:17:10Z</time>
      </trkpt>
      <trkpt lat="34.82895281808082" lon="113.6547394276325">
        <ele>87.33014192990959</ele>
        <time>2026-08-28T01:17:16Z</time>
      </trkpt>
      <trkpt lat="34.82871957179117" lon="113.65477165473183">
        <ele>86.8789504757151</ele>
        <time>2026-08-28T01:17:25Z</time>
      </trkpt>
      <trkpt lat="34.828652282756366" lon="113.65476414758885">
        <ele>88.34977847430855</ele>
        <time>2026-08-28T01:17:28Z</time>
      </trkpt>
      <trkpt lat="34.82858770715758" lon="113.65480707437563">
        <ele>88.39144731033593</ele>
        <time>2026-08-28T01:17:31Z</time>
      </trkpt>
      <trkpt lat="34.82850988482985" lon="113.65481166473488">
        <ele>87.76492313575</ele>
        <time>2026-08-28T01:17:34Z</time>
      </trkpt>
      <trkpt lat="34.82831366820451" lon="113.65490590579323">
        <ele>87.36717283912003</ele>
        <time>2026-08-28T01:17:43Z</time>
      </trkpt>
      <trkpt lat="34.828213870414736" lon="113.65497565423686">
        <ele>88.4451213106513</ele>
        <time>2026-08-28T01:17:49Z</time>
      </trkpt>
      <trkpt lat="34.82806480853116" lon="113.65504126613371">
        <ele>88.4045247817412</ele>
        <time>2026-08-28T01:17:59Z</time>
      </trkpt>
      <trkpt lat="34.828014069646336" lon="113.65508527777982">
        <ele>87.65682609844953</ele>
        <time>2026-08-28T01:18:02Z</time>
      </trkpt>
      <trkpt lat="34.827836540189196" lon="113.65513397969836">
        <ele>87.19628499262035</ele>
        <time>2026-08-28T01:18:11Z</time>
      </trkpt>
      <trkpt lat="34.827687775380745" lon="113.65520164359128">
        <ele>86.41982388403267</ele>
        <time>2026-08-28T01:18:17Z</time>
      </trkpt>
      <trkpt lat="34.827522982922446" lon="113.65531151939403">
        <ele>85.77617078833282</ele>
        <time>2026-08-28T01:18:26Z</time>
      </trkpt>
      <trkpt lat="34.82746019601041" lon="113.65531202397257">
        <ele>86.65950737707317</ele>
        <time>2026-08-28T01:18:29Z</time>
      </trkpt>
      <trkpt lat="34.82713981740647" lon="113.65542406116826">
        <ele>86.3810726897791</ele>
        <time>2026-08-28T01:18:48Z</time>
      </trkpt>
      <trkpt lat="34.82688810942307" lon="113.65554647599585">
        <ele>87.79587222449481</ele>
        <time>2026-08-28T01:18:56Z</time>
      </trkpt>
      <trkpt lat="34.82672219871707" lon="113.65561222451217">
        <ele>87.82343485206366</ele>
        <time>2026-08-28T01:19:05Z</time>
      </trkpt>
      <trkpt lat="34.82659226054482" lon="113.65568423943844">
        <ele>88.17673133686185</ele>
        <time>2026-08-28T01:19:57Z</time>
      </trkpt>
      <trkpt lat="34.8262860257497" lon="113.6557811485751">
        <ele>87.01505301799625</ele>
        <time>2026-08-28T01:19:57Z</time>
      </trkpt>
      <trkpt lat="34.82604316408046" lon="113.65590103484921">
        <ele>86.17523269727826</ele>
        <time>2026-08-28T01:19:57Z</time>
      </trkpt>
      <trkpt lat="34.82575548553672" lon="113.65602393350342">
        <ele>87.85558385588229</ele>
        <time>2026-08-28T01:19:57Z</time>
      </trkpt>
      <trkpt lat="34.82565894017949" lon="113.65607746567267">
        <ele>86.78756062500179</ele>
        <time>2026-08-28T01:19:59Z</time>
      </trkpt>
      <trkpt lat="34.82549912034814" lon="113.65612875363388">
        <ele>86.96440588496625</ele>
        <time>2026-08-28T01:20:07Z</time>
      </trkpt>
      <trkpt lat="34.82534513526756" lon="113.65624296163199">
        <ele>88.7985272500664</ele>
        <time>2026-08-28T01:20:15Z</time>
      </trkpt>
      <trkpt lat="34.825118886539805" lon="113.6562855186871">
        <ele>86.49833148624748</ele>
        <time>2026-08-28T01:20:25Z</time>
      </trkpt>
      <trkpt lat="34.82483418229949" lon="113.65643490544714">
        <ele>88.55916997138411</ele>
        <time>2026-08-28T01:20:40Z</time>
      </trkpt>
      <trkpt lat="34.82456648761416" lon="113.65653338076696">
        <ele>90.76514229737222</ele>
        <time>2026-08-28T01:20:55Z</time>
      </trkpt>
      <trkpt lat="34.82447572570901" lon="113.65659370227459">
        <ele>90.29177670646459</ele>
        <time>2026-08-28T01:21:01Z</time>
      </trkpt>
      <trkpt lat="34.82420604414957" lon="113.65666382984405">
        <ele>90.55837642401457</ele>
        <time>2026-08-28T01:21:16Z</time>
      </trkpt>
      <trkpt lat="34.82393400670527" lon="113.656786625486">
        <ele>90.77031540498137</ele>
        <time>2026-08-28T01:21:28Z</time>
      </trkpt>
      <trkpt lat="34.82380616299804" lon="113.65684715343838">
        <ele>90.42744371201843</ele>
        <time>2026-08-28T01:21:34Z</time>
      </trkpt>
      <trkpt lat="34.8237015257682" lon="113.65694996795796">
        <ele>90.06973822414875</ele>
        <time>2026-08-28T01:21:40Z</time>
      </trkpt>
      <trkpt lat="34.82362665633083" lon="113.6569716087812">
        <ele>90.26109919697046</ele>
        <time>2026-08-28T01:21:43Z</time>
      </trkpt>
      <trkpt lat="34.82349073697354" lon="113.65706697123481">
        <ele>89.06214411556721</ele>
        <time>2026-08-28T01:21:49Z</time>
      </trkpt>
      <trkpt lat="34.823339788624615" lon="113.6570959990763">
        <ele>89.7869679434225</ele>
        <time>2026-08-28T01:21:55Z</time>
      </trkpt>
      <trkpt lat="34.823261353337344" lon="113.65713118713634">
        <ele>89.08622646331787</ele>
        <time>2026-08-28T01:21:58Z</time>
      </trkpt>
      <trkpt lat="34.82319306252803" lon="113.65713330053143">
        <ele>90.14787217229605</ele>
        <time>2026-08-28T01:22:01Z</time>
      </trkpt>
      <trkpt lat="34.8229345846857" lon="113.65727958280738">
        <ele>89.96558863390237</ele>
        <time>2026-08-28T01:22:15Z</time>
      </trkpt>
      <trkpt lat="34.8228564990433" lon="113.65727919603702">
        <ele>89.21927950158715</ele>
        <time>2026-08-28T01:22:19Z</time>
      </trkpt>
      <trkpt lat="34.82277367304934" lon="113.65730615125108">
        <ele>88.93038399145007</ele>
        <time>2026-08-28T01:22:23Z</time>
      </trkpt>
      <trkpt lat="34.82268029496065" lon="113.6573965807806">
        <ele>88.73089475091547</ele>
        <time>2026-08-28T01:22:29Z</time>
      </trkpt>
      <trkpt lat="34.822508232489085" lon="113.6574892600221">
        <ele>88.52160543110222</ele>
        <time>2026-08-28T01:22:38Z</time>
      </trkpt>
      <trkpt lat="34.8224077164927" lon="113.65752110625837">
        <ele>87.75943451281637</ele>
        <time>2026-08-28T01:22:41Z</time>
      </trkpt>
      <trkpt lat="34.8223460903962" lon="113.6574999654069">
        <ele>87.56488739512861</ele>
        <time>2026-08-28T01:22:44Z</time>
      </trkpt>
      <trkpt lat="34.82212805254092" lon="113.6575253963296">
        <ele>88.88354665692896</ele>
        <time>2026-08-28T01:22:53Z</time>
      </trkpt>
      <trkpt lat="34.82185094089564" lon="113.65767033099546">
        <ele>89.43532391637564</ele>
        <time>2026-08-28T01:23:08Z</time>
      </trkpt>
      <trkpt lat="34.82168593413072" lon="113.65772445054544">
        <ele>89.42386695556343</ele>
        <time>2026-08-28T01:23:17Z</time>
      </trkpt>
      <trkpt lat="34.82154687126436" lon="113.65771449827561">
        <ele>89.30205238703638</ele>
        <time>2026-08-28T01:23:23Z</time>
      </trkpt>
      <trkpt lat="34.82145629660943" lon="113.65780091855821">
        <ele>89.85842599160969</ele>
        <time>2026-08-28T01:23:26Z</time>
      </trkpt>
      <trkpt lat="34.82119015479576" lon="113.65793093244234">
        <ele>90.23014201596379</ele>
        <time>2026-08-28T01:23:41Z</time>
      </trkpt>
      <trkpt lat="34.821151784115614" lon="113.6579751293501">
        <ele>90.14713830221444</ele>
        <time>2026-08-28T01:23:44Z</time>
      </trkpt>
      <trkpt lat="34.821038509544685" lon="113.65802961210137">
        <ele>90.31779064331204</ele>
        <time>2026-08-28T01:23:50Z</time>
      </trkpt>
      <trkpt lat="34.82099195809786" lon="113.65809398638685">
        <ele>91.38913022633642</ele>
        <time>2026-08-28T01:23:53Z</time>
      </trkpt>
      <trkpt lat="34.82094193123476" lon="113.65810900427427">
        <ele>90.87431325856596</ele>
        <time>2026-08-28T01:23:56Z</time>
      </trkpt>
      <trkpt lat="34.820811736052384" lon="113.65809204526164">
        <ele>90.45280904322863</ele>
        <time>2026-08-28T01:24:02Z</time>
      </trkpt>
      <trkpt lat="34.82071734204735" lon="113.65804582860191">
        <ele>90.9510054755956</ele>
        <time>2026-08-28T01:24:05Z</time>
      </trkpt>
      <trkpt lat="34.820657202144744" lon="113.65806087923987">
        <ele>91.21247803792357</ele>
        <time>2026-08-28T01:24:08Z</time>
      </trkpt>
      <trkpt lat="34.820593034528486" lon="113.65821357719503">
        <ele>86.74472335819155</ele>
        <time>2026-08-28T01:24:19Z</time>
      </trkpt>
      <trkpt lat="34.82048195497451" lon="113.65835066535575">
        <ele>85.78984648920596</ele>
        <time>2026-08-28T01:24:27Z</time>
      </trkpt>
      <trkpt lat="34.82041578890958" lon="113.65828258260947">
        <ele>88.1943359375</ele>
        <time>2026-08-28T01:24:31Z</time>
      </trkpt>
      <trkpt lat="34.820218164137465" lon="113.65837504220197">
        <ele>86.65997219830751</ele>
        <time>2026-08-28T01:24:35Z</time>
      </trkpt>
      <trkpt lat="34.82020751293724" lon="113.65829242445412">
        <ele>87.07203502766788</ele>
        <time>2026-08-28T01:24:39Z</time>
      </trkpt>
      <trkpt lat="34.82018763805739" lon="113.65835887627101">
        <ele>87.42694542463869</ele>
        <time>2026-08-28T01:24:43Z</time>
      </trkpt>
      <trkpt lat="34.82014853726938" lon="113.65838676110818">
        <ele>86.6533440258354</ele>
        <time>2026-08-28T01:24:46Z</time>
      </trkpt>
      <trkpt lat="34.8201171418326" lon="113.65845779607172">
        <ele>87.67586135584861</ele>
        <time>2026-08-28T01:24:49Z</time>
      </trkpt>
      <trkpt lat="34.81990506644906" lon="113.65852205429931">
        <ele>87.95024319086224</ele>
        <time>2026-08-28T01:24:58Z</time>
      </trkpt>
      <trkpt lat="34.81986506805573" lon="113.65856711503737">
        <ele>88.50098701287061</ele>
        <time>2026-08-28T01:25:01Z</time>
      </trkpt>
      <trkpt lat="34.81980863473331" lon="113.65859848210405">
        <ele>87.52212755288929</ele>
        <time>2026-08-28T01:25:04Z</time>
      </trkpt>
      <trkpt lat="34.81960532938631" lon="113.65865890414871">
        <ele>88.19118757359684</ele>
        <time>2026-08-28T01:25:13Z</time>
      </trkpt>
      <trkpt lat="34.81930519535868" lon="113.65881568036119">
        <ele>89.36659029964358</ele>
        <time>2026-08-28T01:25:28Z</time>
      </trkpt>
      <trkpt lat="34.819260889723985" lon="113.65884885692577">
        <ele>88.65057891514152</ele>
        <time>2026-08-28T01:25:31Z</time>
      </trkpt>
      <trkpt lat="34.818943914813865" lon="113.6589341739966">
        <ele>88.0561118973419</ele>
        <time>2026-08-28T01:25:46Z</time>
      </trkpt>
      <trkpt lat="34.81883596698783" lon="113.65898605499574">
        <ele>87.20219724718481</ele>
        <time>2026-08-28T01:25:52Z</time>
      </trkpt>
      <trkpt lat="34.818773546623476" lon="113.65899784888178">
        <ele>87.05030177067965</ele>
        <time>2026-08-28T01:25:55Z</time>
      </trkpt>
      <trkpt lat="34.818665719870474" lon="113.6590757047779">
        <ele>88.58177254069597</ele>
        <time>2026-08-28T01:26:01Z</time>
      </trkpt>
      <trkpt lat="34.81856162607373" lon="113.65909975287495">
        <ele>87.19537533540279</ele>
        <time>2026-08-28T01:26:07Z</time>
      </trkpt>
      <trkpt lat="34.81850457318418" lon="113.65914190380238">
        <ele>88.24389345105737</ele>
        <time>2026-08-28T01:26:10Z</time>
      </trkpt>
      <trkpt lat="34.81827009342225" lon="113.6592636535352">
        <ele>86.80441143270582</ele>
        <time>2026-08-28T01:26:23Z</time>
      </trkpt>
      <trkpt lat="34.81793746315297" lon="113.65935393359723">
        <ele>85.14685474522412</ele>
        <time>2026-08-28T01:26:39Z</time>
      </trkpt>
      <trkpt lat="34.81779012697897" lon="113.65943629617662">
        <ele>87.26683426834643</ele>
        <time>2026-08-28T01:26:47Z</time>
      </trkpt>
      <trkpt lat="34.81752251410294" lon="113.65952558395684">
        <ele>84.8935085311532</ele>
        <time>2026-08-28T01:27:00Z</time>
      </trkpt>
      <trkpt lat="34.81731511148613" lon="113.65963062999249">
        <ele>85.67406133655459</ele>
        <time>2026-08-28T01:27:09Z</time>
      </trkpt>
      <trkpt lat="34.81698872251951" lon="113.65971671662298">
        <ele>87.1034818701446</ele>
        <time>2026-08-28T01:27:21Z</time>
      </trkpt>
      <trkpt lat="34.81688689118025" lon="113.6597747992131">
        <ele>85.75834286399186</ele>
        <time>2026-08-28T01:27:27Z</time>
      </trkpt>
      <trkpt lat="34.81659357975908" lon="113.65989640944883">
        <ele>86.19488330930471</ele>
        <time>2026-08-28T01:27:45Z</time>
      </trkpt>
      <trkpt lat="34.81630119250321" lon="113.66002482033537">
        <ele>86.69038438610733</ele>
        <time>2026-08-28T01:28:00Z</time>
      </trkpt>
      <trkpt lat="34.81623268211346" lon="113.65997364878328">
        <ele>85.76736567448825</ele>
        <time>2026-08-28T01:28:06Z</time>
      </trkpt>
      <trkpt lat="34.81625030077391" lon="113.65990366753998">
        <ele>87.7798695685342</ele>
        <time>2026-08-28T01:28:12Z</time>
      </trkpt>
      <trkpt lat="34.81624434764591" lon="113.65982930679006">
        <ele>88.0334256934002</ele>
        <time>2026-08-28T01:28:15Z</time>
      </trkpt>
      <trkpt lat="34.81619474052176" lon="113.65979885204254">
        <ele>88.53275831788778</ele>
        <time>2026-08-28T01:28:18Z</time>
      </trkpt>
      <trkpt lat="34.81613818888392" lon="113.65983011551394">
        <ele>88.00232833437622</ele>
        <time>2026-08-28T01:28:28Z</time>
      </trkpt>
      <trkpt lat="34.81624270449613" lon="113.66021205289591">
        <ele>86.80168150831014</ele>
        <time>2026-08-28T01:28:44Z</time>
      </trkpt>
      <trkpt lat="34.81628343836413" lon="113.6604866361217">
        <ele>86.94101697579026</ele>
        <time>2026-08-28T01:28:56Z</time>
      </trkpt>
      <trkpt lat="34.816273688642276" lon="113.66058943623862">
        <ele>87.12057256139815</ele>
        <time>2026-08-28T01:29:00Z</time>
      </trkpt>
      <trkpt lat="34.81632695883824" lon="113.66072385641641">
        <ele>89.4899845039472</ele>
        <time>2026-08-28T01:29:06Z</time>
      </trkpt>
      <trkpt lat="34.81638353595724" lon="113.66076398459104">
        <ele>89.93394973687828</ele>
        <time>2026-08-28T01:29:09Z</time>
      </trkpt>
      <trkpt lat="34.81650766928998" lon="113.66072451026666">
        <ele>90.55496245063841</ele>
        <time>2026-08-28T01:29:15Z</time>
      </trkpt>
      <trkpt lat="34.81656310703945" lon="113.66067949799395">
        <ele>91.17863851971924</ele>
        <time>2026-08-28T01:29:18Z</time>
      </trkpt>
      <trkpt lat="34.81659964591326" lon="113.66062079545158">
        <ele>90.95954873599112</ele>
        <time>2026-08-28T01:29:21Z</time>
      </trkpt>
      <trkpt lat="34.81661789085359" lon="113.66052398426292">
        <ele>92.67391209304333</ele>
        <time>2026-08-28T01:29:27Z</time>
      </trkpt>
      <trkpt lat="34.81673148974396" lon="113.66045110260298">
        <ele>91.37797711417079</ele>
        <time>2026-08-28T01:29:33Z</time>
      </trkpt>
      <trkpt lat="34.81677851065371" lon="113.66043815851948">
        <ele>91.16544362250715</ele>
        <time>2026-08-28T01:29:36Z</time>
      </trkpt>
      <trkpt lat="34.81699550703665" lon="113.66030308096538">
        <ele>88.29124760627747</ele>
        <time>2026-08-28T01:29:51Z</time>
      </trkpt>
      <trkpt lat="34.81708413072256" lon="113.66027448933549">
        <ele>88.83012134209275</ele>
        <time>2026-08-28T01:29:57Z</time>
      </trkpt>
      <trkpt lat="34.81713017635258" lon="113.66027646962911">
        <ele>88.73275402467698</ele>
        <time>2026-08-28T01:30:00Z</time>
      </trkpt>
      <trkpt lat="34.817311649063654" lon="113.6601880361353">
        <ele>87.2598842708394</ele>
        <time>2026-08-28T01:30:12Z</time>
      </trkpt>
      <trkpt lat="34.81759696058886" lon="113.66014441095668">
        <ele>87.71685153339058</ele>
        <time>2026-08-28T01:30:30Z</time>
      </trkpt>
      <trkpt lat="34.81775417409976" lon="113.66010650845028">
        <ele>86.71687173098326</ele>
        <time>2026-08-28T01:30:38Z</time>
      </trkpt>
      <trkpt lat="34.817979856068185" lon="113.65990331245688">
        <ele>85.9677146570757</ele>
        <time>2026-08-28T01:30:52Z</time>
      </trkpt>
      <trkpt lat="34.81826499181871" lon="113.65971952789407">
        <ele>85.16836925130337</ele>
        <time>2026-08-28T01:31:07Z</time>
      </trkpt>
      <trkpt lat="34.818518593951055" lon="113.65959641183365">
        <ele>86.75231714453548</ele>
        <time>2026-08-28T01:31:19Z</time>
      </trkpt>
      <trkpt lat="34.81877850279613" lon="113.65949208176121">
        <ele>87.33044298738241</ele>
        <time>2026-08-28T01:31:31Z</time>
      </trkpt>
      <trkpt lat="34.81906414621261" lon="113.65935873550383">
        <ele>89.10802399460226</ele>
        <time>2026-08-28T01:31:44Z</time>
      </trkpt>
      <trkpt lat="34.819326230342504" lon="113.65926292324905">
        <ele>88.44612917862833</ele>
        <time>2026-08-28T01:31:56Z</time>
      </trkpt>
      <trkpt lat="34.81961668380793" lon="113.65914303520768">
        <ele>88.39466559421271</ele>
        <time>2026-08-28T01:32:11Z</time>
      </trkpt>
      <trkpt lat="34.81990207767257" lon="113.65901986553162">
        <ele>87.62397123593837</ele>
        <time>2026-08-28T01:32:26Z</time>
      </trkpt>
      <trkpt lat="34.8202125403026" lon="113.65888078542986">
        <ele>88.91372072324157</ele>
        <time>2026-08-28T01:32:43Z</time>
      </trkpt>
      <trkpt lat="34.820314599974985" lon="113.65890865548799">
        <ele>90.37310592830181</ele>
        <time>2026-08-28T01:32:55Z</time>
      </trkpt>
      <trkpt lat="34.82032051675307" lon="113.65902369397037">
        <ele>88.6394587289542</ele>
        <time>2026-08-28T01:33:01Z</time>
      </trkpt>
      <trkpt lat="34.820338418828335" lon="113.65864752791443">
        <ele>89.13099260162562</ele>
        <time>2026-08-28T01:33:19Z</time>
      </trkpt>
      <trkpt lat="34.82033594809155" lon="113.65828330766817">
        <ele>88.7241149796173</ele>
        <time>2026-08-28T01:33:37Z</time>
      </trkpt>
      <trkpt lat="34.82027481461889" lon="113.6582664251368">
        <ele>87.40268242359161</ele>
        <time>2026-08-28T01:33:40Z</time>
      </trkpt>
      <trkpt lat="34.820256905990384" lon="113.65834926573939">
        <ele>86.44310012925416</ele>
        <time>2026-08-28T01:33:46Z</time>
      </trkpt>
      <trkpt lat="34.82040474181291" lon="113.65824685147832">
        <ele>84.51605898048729</ele>
        <time>2026-08-28T01:34:01Z</time>
      </trkpt>
      <trkpt lat="34.82055096703258" lon="113.65821547101271">
        <ele>83.93916519638151</ele>
        <time>2026-08-28T01:34:10Z</time>
      </trkpt>
      <trkpt lat="34.82059041347496" lon="113.65814593002203">
        <ele>86.3939258530736</ele>
        <time>2026-08-28T01:34:16Z</time>
      </trkpt>
      <trkpt lat="34.8205740938922" lon="113.65823973586676">
        <ele>86.79550479259342</ele>
        <time>2026-08-28T01:34:25Z</time>
      </trkpt>
      <trkpt lat="34.82058544539178" lon="113.65862671114961">
        <ele>90.10319162346423</ele>
        <time>2026-08-28T01:34:40Z</time>
      </trkpt>
      <trkpt lat="34.82058494870007" lon="113.65878595972276">
        <ele>90.02440773136914</ele>
        <time>2026-08-28T01:34:47Z</time>
      </trkpt>
      <trkpt lat="34.820629707339606" lon="113.65881610695256">
        <ele>90.4009237587452</ele>
        <time>2026-08-28T01:34:53Z</time>
      </trkpt>
      <trkpt lat="34.820953602591395" lon="113.6586870293562">
        <ele>86.67750803939998</ele>
        <time>2026-08-28T01:35:14Z</time>
      </trkpt>
      <trkpt lat="34.82123268148857" lon="113.65857933406589">
        <ele>85.19519208744168</ele>
        <time>2026-08-28T01:35:29Z</time>
      </trkpt>
      <trkpt lat="34.82152789420413" lon="113.65843799204694">
        <ele>86.22129704989493</ele>
        <time>2026-08-28T01:35:44Z</time>
      </trkpt>
      <trkpt lat="34.82159307389952" lon="113.65842771228303">
        <ele>85.96504206210375</ele>
        <time>2026-08-28T01:35:47Z</time>
      </trkpt>
      <trkpt lat="34.82187404197621" lon="113.65828668134493">
        <ele>85.2456062277779</ele>
        <time>2026-08-28T01:36:02Z</time>
      </trkpt>
      <trkpt lat="34.82216947345472" lon="113.6581583249173">
        <ele>87.89779959525913</ele>
        <time>2026-08-28T01:36:17Z</time>
      </trkpt>
      <trkpt lat="34.82246265319085" lon="113.65805423001905">
        <ele>86.62983357161283</ele>
        <time>2026-08-28T01:36:32Z</time>
      </trkpt>
      <trkpt lat="34.82274746245754" lon="113.65792525497322">
        <ele>87.89996834564954</ele>
        <time>2026-08-28T01:36:47Z</time>
      </trkpt>
      <trkpt lat="34.82280797331293" lon="113.65788206879236">
        <ele>87.57186958752573</ele>
        <time>2026-08-28T01:36:51Z</time>
      </trkpt>
      <trkpt lat="34.82295875193217" lon="113.65786340532546">
        <ele>86.95355894323438</ele>
        <time>2026-08-28T01:36:59Z</time>
      </trkpt>
      <trkpt lat="34.823230355707466" lon="113.65775972413374">
        <ele>87.3339831167832</ele>
        <time>2026-08-28T01:37:12Z</time>
      </trkpt>
      <trkpt lat="34.823424221640806" lon="113.6576800911804">
        <ele>87.0244214516133</ele>
        <time>2026-08-28T01:37:21Z</time>
      </trkpt>
      <trkpt lat="34.82349857334112" lon="113.65767304292808">
        <ele>86.5270497361198</ele>
        <time>2026-08-28T01:37:24Z</time>
      </trkpt>
      <trkpt lat="34.82354358322228" lon="113.65763397602029">
        <ele>87.33223142381757</ele>
        <time>2026-08-28T01:37:27Z</time>
      </trkpt>
      <trkpt lat="34.82384238506072" lon="113.65752177366574">
        <ele>87.93637655302882</ele>
        <time>2026-08-28T01:37:39Z</time>
      </trkpt>
      <trkpt lat="34.824108458505656" lon="113.65739940044962">
        <ele>88.14510125666857</ele>
        <time>2026-08-28T01:37:51Z</time>
      </trkpt>
      <trkpt lat="34.82423623965332" lon="113.65734565115564">
        <ele>87.35807146597654</ele>
        <time>2026-08-28T01:37:57Z</time>
      </trkpt>
      <trkpt lat="34.82435413293361" lon="113.65733238957618">
        <ele>85.93702581711113</ele>
        <time>2026-08-28T01:38:03Z</time>
      </trkpt>
      <trkpt lat="34.82440631458736" lon="113.6572885903533">
        <ele>86.09441297128797</ele>
        <time>2026-08-28T01:38:06Z</time>
      </trkpt>
      <trkpt lat="34.82447774033192" lon="113.65728312840045">
        <ele>86.12413052655756</ele>
        <time>2026-08-28T01:38:09Z</time>
      </trkpt>
      <trkpt lat="34.8247697965711" lon="113.65713699043911">
        <ele>87.26555973012</ele>
        <time>2026-08-28T01:38:24Z</time>
      </trkpt>
      <trkpt lat="34.824870410552904" lon="113.65707229744771">
        <ele>86.73276882153004</ele>
        <time>2026-08-28T01:38:30Z</time>
      </trkpt>
      <trkpt lat="34.824870410552904" lon="113.65707229744771">
        <ele>86.73276882153004</ele>
        <time>2026-08-28T01:38:33Z</time>
      </trkpt>
    </trkseg>
  </trk>
</gpx>