<?xml version="1.0" encoding="UTF-8"?>
<gpx xmlns="http://www.topografix.com/GPX/1/1" xmlns:gpxtpx="http://www.garmin.com/xmlschemas/TrackPointExtension/v1" xmlns:xsi="http://www.w3.org/2001/XMLSchema-instance" xsi:schemaLocation="http://www.topografix.com/GPX/1/1 http://www.topografix.com/GPX/1/1/gpx.xsd" version="1.1" creator="gpx.py -- https://github.com/tkrajina/gpxpy">
  <trk>
    <name>gpx from keep</name>
    <type>Run</type>
    <trkseg>
      <trkpt lat="34.82969794029048" lon="113.65693543572621">
        <ele>84.65032958984375</ele>
        <time>2026-10-01T00:28:06Z</time>
      </trkpt>
      <trkpt lat="34.82975439928836" lon="113.65655578562807">
        <ele>87.9152920935303</ele>
        <time>2026-10-01T00:28:21Z</time>
      </trkpt>
      <trkpt lat="34.82978304520493" lon="113.65642948241994">
        <ele>88.3344977516681</ele>
        <time>2026-10-01T00:28:27Z</time>
      </trkpt>
      <trkpt lat="34.82978118759617" lon="113.65636396526345">
        <ele>92.57790634874254</ele>
        <time>2026-10-01T00:28:30Z</time>
      </trkpt>
      <trkpt lat="34.82981349751493" lon="113.65620843741395">
        <ele>90.1289112335071</ele>
        <time>2026-10-01T00:28:36Z</time>
      </trkpt>
      <trkpt lat="34.8298710062619" lon="113.65603153147491">
        <ele>88.80331579595804</ele>
        <time>2026-10-01T00:28:42Z</time>
      </trkpt>
      <trkpt lat="34.82990707249419" lon="113.65599492305897">
        <ele>89.25791999604553</ele>
        <time>2026-10-01T00:28:45Z</time>
      </trkpt>
      <trkpt lat="34.830210562232836" lon="113.655892499579">
        <ele>88.89766717422754</ele>
        <time>2026-10-01T00:29:00Z</time>
      </trkpt>
      <trkpt lat="34.83031614454932" lon="113.65587912107524">
        <ele>89.20655490737408</ele>
        <time>2026-10-01T00:29:06Z</time>
      </trkpt>
      <trkpt lat="34.83035994386621" lon="113.65592046499498">
        <ele>88.98364237416536</ele>
        <time>2026-10-01T00:29:09Z</time>
      </trkpt>
      <trkpt lat="34.83041038538443" lon="113.65612823796666">
        <ele>88.2367953164503</ele>
        <time>2026-10-01T00:29:18Z</time>
      </trkpt>
      <trkpt lat="34.83044647729932" lon="113.65618071186489">
        <ele>88.8676500339061</ele>
        <time>2026-10-01T00:29:21Z</time>
      </trkpt>
      <trkpt lat="34.830553505328254" lon="113.65625645502618">
        <ele>87.90613818075508</ele>
        <time>2026-10-01T00:29:27Z</time>
      </trkpt>
      <trkpt lat="34.830725520701904" lon="113.65624883509433">
        <ele>87.95722397882491</ele>
        <time>2026-10-01T00:29:36Z</time>
      </trkpt>
      <trkpt lat="34.83089400640365" lon="113.65616938669547">
        <ele>88.34482283424586</ele>
        <time>2026-10-01T00:29:45Z</time>
      </trkpt>
      <trkpt lat="34.83099513213064" lon="113.65617270581097">
        <ele>87.1141253951937</ele>
        <time>2026-10-01T00:29:51Z</time>
      </trkpt>
      <trkpt lat="34.83116126484167" lon="113.65621221995431">
        <ele>87.57704527117312</ele>
        <time>2026-10-01T00:30:00Z</time>
      </trkpt>
      <trkpt lat="34.83128791020172" lon="113.65621650239197">
        <ele>87.97534859832376</ele>
        <time>2026-10-01T00:30:06Z</time>
      </trkpt>
      <trkpt lat="34.83135144023895" lon="113.65628694533947">
        <ele>86.81668529380113</ele>
        <time>2026-10-01T00:30:10Z</time>
      </trkpt>
      <trkpt lat="34.83160480295023" lon="113.65615954069985">
        <ele>87.98984132986516</ele>
        <time>2026-10-01T00:30:25Z</time>
      </trkpt>
      <trkpt lat="34.83172586689373" lon="113.65607817762994">
        <ele>87.65280641894788</ele>
        <time>2026-10-01T00:30:34Z</time>
      </trkpt>
      <trkpt lat="34.83177309747165" lon="113.65601648122788">
        <ele>88.01473118271679</ele>
        <time>2026-10-01T00:30:37Z</time>
      </trkpt>
      <trkpt lat="34.831883893138965" lon="113.6559596545099">
        <ele>88.6228209072724</ele>
        <time>2026-10-01T00:30:43Z</time>
      </trkpt>
      <trkpt lat="34.83195352174132" lon="113.65603243189068">
        <ele>88.37833139207214</ele>
        <time>2026-10-01T00:30:49Z</time>
      </trkpt>
      <trkpt lat="34.83212484349001" lon="113.65611795852745">
        <ele>90.238395428285</ele>
        <time>2026-10-01T00:30:58Z</time>
      </trkpt>
      <trkpt lat="34.832340885567774" lon="113.65613052031402">
        <ele>89.98063281644136</ele>
        <time>2026-10-01T00:31:07Z</time>
      </trkpt>
      <trkpt lat="34.832441416378344" lon="113.65607259895182">
        <ele>90.6232849098742</ele>
        <time>2026-10-01T00:31:13Z</time>
      </trkpt>
      <trkpt lat="34.83262839462992" lon="113.6558860787379">
        <ele>91.44748264551163</ele>
        <time>2026-10-01T00:31:25Z</time>
      </trkpt>
      <trkpt lat="34.832696247727704" lon="113.655858992837">
        <ele>91.99453717656434</ele>
        <time>2026-10-01T00:31:28Z</time>
      </trkpt>
      <trkpt lat="34.83281410583518" lon="113.65590003311785">
        <ele>92.12340084277093</ele>
        <time>2026-10-01T00:31:34Z</time>
      </trkpt>
      <trkpt lat="34.832927418626504" lon="113.65600075509391">
        <ele>93.29528077412397</ele>
        <time>2026-10-01T00:31:43Z</time>
      </trkpt>
      <trkpt lat="34.83297880315615" lon="113.65612383789268">
        <ele>92.82934841513634</ele>
        <time>2026-10-01T00:31:46Z</time>
      </trkpt>
      <trkpt lat="34.83302560208704" lon="113.65615848262958">
        <ele>93.24445323925465</ele>
        <time>2026-10-01T00:31:49Z</time>
      </trkpt>
      <trkpt lat="34.83306514320849" lon="113.65621816048152">
        <ele>93.89601946342736</ele>
        <time>2026-10-01T00:31:52Z</time>
      </trkpt>
      <trkpt lat="34.83317340854247" lon="113.65629315175816">
        <ele>93.63067166414112</ele>
        <time>2026-10-01T00:31:58Z</time>
      </trkpt>
      <trkpt lat="34.83325367547693" lon="113.65631302150376">
        <ele>94.49528377782553</ele>
        <time>2026-10-01T00:32:01Z</time>
      </trkpt>
      <trkpt lat="34.83334139448238" lon="113.65637551458953">
        <ele>95.0895766261965</ele>
        <time>2026-10-01T00:32:07Z</time>
      </trkpt>
      <trkpt lat="34.833406594366835" lon="113.65639829198714">
        <ele>95.71634104847908</ele>
        <time>2026-10-01T00:32:10Z</time>
      </trkpt>
      <trkpt lat="34.83371106937337" lon="113.65631428540759">
        <ele>94.94921490456909</ele>
        <time>2026-10-01T00:32:25Z</time>
      </trkpt>
      <trkpt lat="34.8339478569741" lon="113.6561793195506">
        <ele>95.30483799893409</ele>
        <time>2026-10-01T00:32:37Z</time>
      </trkpt>
      <trkpt lat="34.83397932866652" lon="113.65612851240006">
        <ele>95.67457877565175</ele>
        <time>2026-10-01T00:32:41Z</time>
      </trkpt>
      <trkpt lat="34.834186799269276" lon="113.65592754663645">
        <ele>95.32436332199723</ele>
        <time>2026-10-01T00:32:53Z</time>
      </trkpt>
      <trkpt lat="34.834236557190934" lon="113.65582145057537">
        <ele>93.76255205180496</ele>
        <time>2026-10-01T00:32:57Z</time>
      </trkpt>
      <trkpt lat="34.834307536627534" lon="113.65549107994177">
        <ele>95.30050585512072</ele>
        <time>2026-10-01T00:33:10Z</time>
      </trkpt>
      <trkpt lat="34.83432025526676" lon="113.65541164804287">
        <ele>94.68655188009143</ele>
        <time>2026-10-01T00:33:13Z</time>
      </trkpt>
      <trkpt lat="34.83430525096745" lon="113.65533529997731">
        <ele>94.26244438905269</ele>
        <time>2026-10-01T00:33:16Z</time>
      </trkpt>
      <trkpt lat="34.83419142826605" lon="113.65510032189421">
        <ele>94.05138039961457</ele>
        <time>2026-10-01T00:33:25Z</time>
      </trkpt>
      <trkpt lat="34.83415372483984" lon="113.65505146536165">
        <ele>93.93116523139179</ele>
        <time>2026-10-01T00:33:28Z</time>
      </trkpt>
      <trkpt lat="34.83405368025983" lon="113.65504581545227">
        <ele>92.72683352790773</ele>
        <time>2026-10-01T00:33:31Z</time>
      </trkpt>
      <trkpt lat="34.83394311049489" lon="113.65487091931067">
        <ele>91.80629180651158</ele>
        <time>2026-10-01T00:33:40Z</time>
      </trkpt>
      <trkpt lat="34.83374868325456" lon="113.6548111118249">
        <ele>91.87592884618789</ele>
        <time>2026-10-01T00:33:49Z</time>
      </trkpt>
      <trkpt lat="34.833681012056914" lon="113.65482493896083">
        <ele>91.09719377290457</ele>
        <time>2026-10-01T00:33:52Z</time>
      </trkpt>
      <trkpt lat="34.833571904682536" lon="113.6548068871033">
        <ele>90.89338655304164</ele>
        <time>2026-10-01T00:33:58Z</time>
      </trkpt>
      <trkpt lat="34.83343535797922" lon="113.65482720197392">
        <ele>90.29935743380338</ele>
        <time>2026-10-01T00:34:04Z</time>
      </trkpt>
      <trkpt lat="34.83330254996401" lon="113.65491395587128">
        <ele>90.03124806378037</ele>
        <time>2026-10-01T00:34:10Z</time>
      </trkpt>
      <trkpt lat="34.83320627603528" lon="113.65511480877097">
        <ele>88.64721606858075</ele>
        <time>2026-10-01T00:34:19Z</time>
      </trkpt>
      <trkpt lat="34.83307164560837" lon="113.65523594989145">
        <ele>90.01658378820866</ele>
        <time>2026-10-01T00:34:27Z</time>
      </trkpt>
      <trkpt lat="34.83297300514037" lon="113.65523286877229">
        <ele>89.56961376592517</ele>
        <time>2026-10-01T00:34:31Z</time>
      </trkpt>
      <trkpt lat="34.83289740805409" lon="113.65525415966006">
        <ele>89.55585945304483</ele>
        <time>2026-10-01T00:34:35Z</time>
      </trkpt>
      <trkpt lat="34.832742447691764" lon="113.65522737018674">
        <ele>88.88990807626396</ele>
        <time>2026-10-01T00:34:43Z</time>
      </trkpt>
      <trkpt lat="34.83263312382788" lon="113.65511264926391">
        <ele>88.8739903755486</ele>
        <time>2026-10-01T00:34:49Z</time>
      </trkpt>
      <trkpt lat="34.83249109888814" lon="113.6550670835013">
        <ele>89.11059198807925</ele>
        <time>2026-10-01T00:34:55Z</time>
      </trkpt>
      <trkpt lat="34.832439688340294" lon="113.65511351278431">
        <ele>89.2078416403383</ele>
        <time>2026-10-01T00:34:58Z</time>
      </trkpt>
      <trkpt lat="34.8323122761952" lon="113.65519039817231">
        <ele>88.06539034750313</ele>
        <time>2026-10-01T00:35:04Z</time>
      </trkpt>
      <trkpt lat="34.83226777972837" lon="113.65525307698361">
        <ele>87.6410046890378</ele>
        <time>2026-10-01T00:35:07Z</time>
      </trkpt>
      <trkpt lat="34.8322179579184" lon="113.6553968405737">
        <ele>87.22041267249733</ele>
        <time>2026-10-01T00:35:13Z</time>
      </trkpt>
      <trkpt lat="34.832228248645066" lon="113.65547597090925">
        <ele>86.53741009533405</ele>
        <time>2026-10-01T00:35:16Z</time>
      </trkpt>
      <trkpt lat="34.83221187891957" lon="113.65552834465727">
        <ele>85.7349005099386</ele>
        <time>2026-10-01T00:35:19Z</time>
      </trkpt>
      <trkpt lat="34.832146066313484" lon="113.65562951960955">
        <ele>85.56006026919931</ele>
        <time>2026-10-01T00:35:25Z</time>
      </trkpt>
      <trkpt lat="34.832030426956" lon="113.65567573276893">
        <ele>86.32380024995655</ele>
        <time>2026-10-01T00:35:31Z</time>
      </trkpt>
      <trkpt lat="34.83194949426605" lon="113.65575913652444">
        <ele>86.37207982316613</ele>
        <time>2026-10-01T00:35:37Z</time>
      </trkpt>
      <trkpt lat="34.83191533970529" lon="113.65592414713932">
        <ele>87.68093114718795</ele>
        <time>2026-10-01T00:35:43Z</time>
      </trkpt>
      <trkpt lat="34.83205406904918" lon="113.65606382393203">
        <ele>88.30357616581023</ele>
        <time>2026-10-01T00:35:49Z</time>
      </trkpt>
      <trkpt lat="34.83219035283536" lon="113.65614326024615">
        <ele>88.70320588164032</ele>
        <time>2026-10-01T00:35:55Z</time>
      </trkpt>
      <trkpt lat="34.83233707102337" lon="113.65615050237605">
        <ele>88.69463606737554</ele>
        <time>2026-10-01T00:36:01Z</time>
      </trkpt>
      <trkpt lat="34.83249364608748" lon="113.65606906040257">
        <ele>88.2867563823238</ele>
        <time>2026-10-01T00:36:07Z</time>
      </trkpt>
      <trkpt lat="34.83257271389485" lon="113.6560043192392">
        <ele>90.33123633824289</ele>
        <time>2026-10-01T00:36:10Z</time>
      </trkpt>
      <trkpt lat="34.832658023461526" lon="113.65586027176126">
        <ele>88.88635476212949</ele>
        <time>2026-10-01T00:36:16Z</time>
      </trkpt>
      <trkpt lat="34.832711232121696" lon="113.6558256002462">
        <ele>88.19073389004916</ele>
        <time>2026-10-01T00:36:19Z</time>
      </trkpt>
      <trkpt lat="34.8328150175439" lon="113.65585218327843">
        <ele>88.7235771548003</ele>
        <time>2026-10-01T00:36:22Z</time>
      </trkpt>
      <trkpt lat="34.83287824201689" lon="113.65593393168143">
        <ele>89.16419100575149</ele>
        <time>2026-10-01T00:36:25Z</time>
      </trkpt>
      <trkpt lat="34.83292307588731" lon="113.65604734073976">
        <ele>90.07211741711944</ele>
        <time>2026-10-01T00:36:29Z</time>
      </trkpt>
      <trkpt lat="34.833067347483514" lon="113.65622788831786">
        <ele>90.16508022602648</ele>
        <time>2026-10-01T00:36:37Z</time>
      </trkpt>
      <trkpt lat="34.83315347053785" lon="113.65625619873006">
        <ele>91.3344167592004</ele>
        <time>2026-10-01T00:36:41Z</time>
      </trkpt>
      <trkpt lat="34.83331178699956" lon="113.65635096938861">
        <ele>90.52225535642356</ele>
        <time>2026-10-01T00:36:49Z</time>
      </trkpt>
      <trkpt lat="34.833530857287336" lon="113.65633428473154">
        <ele>90.27111002709717</ele>
        <time>2026-10-01T00:36:59Z</time>
      </trkpt>
      <trkpt lat="34.833602971211945" lon="113.65634907421796">
        <ele>89.51353448070586</ele>
        <time>2026-10-01T00:37:02Z</time>
      </trkpt>
      <trkpt lat="34.83379730796074" lon="113.65627384943139">
        <ele>87.82517904415727</ele>
        <time>2026-10-01T00:37:11Z</time>
      </trkpt>
      <trkpt lat="34.83408029242368" lon="113.65605164256475">
        <ele>89.39964882843196</ele>
        <time>2026-10-01T00:37:26Z</time>
      </trkpt>
      <trkpt lat="34.83423859091337" lon="113.65581271587519">
        <ele>88.53650747146457</ele>
        <time>2026-10-01T00:37:38Z</time>
      </trkpt>
      <trkpt lat="34.834299663037626" lon="113.65558140558076">
        <ele>88.84502323437482</ele>
        <time>2026-10-01T00:37:47Z</time>
      </trkpt>
      <trkpt lat="34.83433815883739" lon="113.65548833974168">
        <ele>88.5487992381677</ele>
        <time>2026-10-01T00:37:50Z</time>
      </trkpt>
      <trkpt lat="34.834347907422675" lon="113.65540877965037">
        <ele>89.22450499795377</ele>
        <time>2026-10-01T00:37:53Z</time>
      </trkpt>
      <trkpt lat="34.834314154732716" lon="113.65524750152659">
        <ele>89.69177231565118</ele>
        <time>2026-10-01T00:37:59Z</time>
      </trkpt>
      <trkpt lat="34.83419135969427" lon="113.65503123911049">
        <ele>89.09747849497944</ele>
        <time>2026-10-01T00:38:08Z</time>
      </trkpt>
      <trkpt lat="34.834041515751" lon="113.65495565860441">
        <ele>89.29200659971684</ele>
        <time>2026-10-01T00:38:14Z</time>
      </trkpt>
      <trkpt lat="34.83399935559537" lon="113.65490881873143">
        <ele>89.54532025195658</ele>
        <time>2026-10-01T00:38:17Z</time>
      </trkpt>
      <trkpt lat="34.83397408848375" lon="113.65484901351044">
        <ele>88.75967560801655</ele>
        <time>2026-10-01T00:38:20Z</time>
      </trkpt>
      <trkpt lat="34.833675226635314" lon="113.65475668961783">
        <ele>88.35341257136315</ele>
        <time>2026-10-01T00:38:32Z</time>
      </trkpt>
      <trkpt lat="34.83345262272667" lon="113.65474645767075">
        <ele>87.49080563057214</ele>
        <time>2026-10-01T00:38:40Z</time>
      </trkpt>
      <trkpt lat="34.8333609020581" lon="113.65477037457828">
        <ele>87.46300288382918</ele>
        <time>2026-10-01T00:38:44Z</time>
      </trkpt>
      <trkpt lat="34.833308744874586" lon="113.65480589328935">
        <ele>87.63780059386045</ele>
        <time>2026-10-01T00:38:48Z</time>
      </trkpt>
      <trkpt lat="34.833246093590674" lon="113.65489828900495">
        <ele>87.36673347000033</ele>
        <time>2026-10-01T00:38:52Z</time>
      </trkpt>
      <trkpt lat="34.83323314255571" lon="113.65502444284729">
        <ele>88.0256839459762</ele>
        <time>2026-10-01T00:38:56Z</time>
      </trkpt>
      <trkpt lat="34.83316833304771" lon="113.65510770647822">
        <ele>87.75550851970911</ele>
        <time>2026-10-01T00:39:00Z</time>
      </trkpt>
      <trkpt lat="34.83303591928039" lon="113.65518348205741">
        <ele>87.47541497182101</ele>
        <time>2026-10-01T00:39:06Z</time>
      </trkpt>
      <trkpt lat="34.83298088651055" lon="113.65523401685411">
        <ele>87.53698961157352</ele>
        <time>2026-10-01T00:39:09Z</time>
      </trkpt>
      <trkpt lat="34.832887879146895" lon="113.65528494217313">
        <ele>85.93283625040203</ele>
        <time>2026-10-01T00:39:15Z</time>
      </trkpt>
      <trkpt lat="34.832822917667194" lon="113.65528691028786">
        <ele>85.54820039123297</ele>
        <time>2026-10-01T00:39:18Z</time>
      </trkpt>
      <trkpt lat="34.83264471788142" lon="113.65512385527379">
        <ele>85.44434874784201</ele>
        <time>2026-10-01T00:39:30Z</time>
      </trkpt>
      <trkpt lat="34.83257116940479" lon="113.65509775179008">
        <ele>84.85401868540794</ele>
        <time>2026-10-01T00:39:33Z</time>
      </trkpt>
      <trkpt lat="34.832401328325126" lon="113.65511929635626">
        <ele>83.84218889288604</ele>
        <time>2026-10-01T00:39:39Z</time>
      </trkpt>
      <trkpt lat="34.832369570205955" lon="113.65520084076614">
        <ele>83.67279681377113</ele>
        <time>2026-10-01T00:39:42Z</time>
      </trkpt>
      <trkpt lat="34.83229595553094" lon="113.65524272951">
        <ele>83.79050583392382</ele>
        <time>2026-10-01T00:39:45Z</time>
      </trkpt>
      <trkpt lat="34.83225093177817" lon="113.65551362313587">
        <ele>84.46411668136716</ele>
        <time>2026-10-01T00:39:54Z</time>
      </trkpt>
      <trkpt lat="34.83214103828573" lon="113.65563939534509">
        <ele>84.1335517745465</ele>
        <time>2026-10-01T00:40:00Z</time>
      </trkpt>
      <trkpt lat="34.83200515190538" lon="113.65570868154522">
        <ele>87.44824033975601</ele>
        <time>2026-10-01T00:40:06Z</time>
      </trkpt>
      <trkpt lat="34.83195572468781" lon="113.65585151957498">
        <ele>88.49294856470078</ele>
        <time>2026-10-01T00:40:12Z</time>
      </trkpt>
      <trkpt lat="34.831973069058705" lon="113.65593597080286">
        <ele>89.51566685270518</ele>
        <time>2026-10-01T00:40:15Z</time>
      </trkpt>
      <trkpt lat="34.83201758970494" lon="113.65600960563272">
        <ele>88.79698210395873</ele>
        <time>2026-10-01T00:40:18Z</time>
      </trkpt>
      <trkpt lat="34.83214213732959" lon="113.65610856388831">
        <ele>88.81404632516205</ele>
        <time>2026-10-01T00:40:24Z</time>
      </trkpt>
      <trkpt lat="34.832272469525726" lon="113.65614787757146">
        <ele>89.92075416538864</ele>
        <time>2026-10-01T00:40:30Z</time>
      </trkpt>
      <trkpt lat="34.83240615365434" lon="113.6561081299526">
        <ele>89.02178964111954</ele>
        <time>2026-10-01T00:40:36Z</time>
      </trkpt>
      <trkpt lat="34.83247299274445" lon="113.65606636460384">
        <ele>89.03579883463681</ele>
        <time>2026-10-01T00:40:40Z</time>
      </trkpt>
      <trkpt lat="34.83255653017112" lon="113.6559711473806">
        <ele>89.58019533194602</ele>
        <time>2026-10-01T00:40:44Z</time>
      </trkpt>
      <trkpt lat="34.83258972196628" lon="113.65590556621757">
        <ele>90.28369540721178</ele>
        <time>2026-10-01T00:40:48Z</time>
      </trkpt>
      <trkpt lat="34.83270633879341" lon="113.65585757913215">
        <ele>89.32918721903116</ele>
        <time>2026-10-01T00:40:55Z</time>
      </trkpt>
      <trkpt lat="34.83285178794789" lon="113.65588624252469">
        <ele>88.9328916799277</ele>
        <time>2026-10-01T00:40:58Z</time>
      </trkpt>
      <trkpt lat="34.83288126032206" lon="113.65603284662743">
        <ele>88.89537298306823</ele>
        <time>2026-10-01T00:41:04Z</time>
      </trkpt>
      <trkpt lat="34.83292099818618" lon="113.65612975787523">
        <ele>89.96976749412715</ele>
        <time>2026-10-01T00:41:07Z</time>
      </trkpt>
      <trkpt lat="34.83309676859636" lon="113.65625127666239">
        <ele>89.10728396009654</ele>
        <time>2026-10-01T00:41:13Z</time>
      </trkpt>
      <trkpt lat="34.833258459216744" lon="113.65631903520486">
        <ele>89.99503133073449</ele>
        <time>2026-10-01T00:41:19Z</time>
      </trkpt>
      <trkpt lat="34.83353659698231" lon="113.65632489281612">
        <ele>91.61815877445042</ele>
        <time>2026-10-01T00:41:28Z</time>
      </trkpt>
      <trkpt lat="34.83366016183537" lon="113.65647337904959">
        <ele>92.14213988278061</ele>
        <time>2026-10-01T00:41:34Z</time>
      </trkpt>
      <trkpt lat="34.83373189105508" lon="113.65650572255778">
        <ele>90.80344248283654</ele>
        <time>2026-10-01T00:41:37Z</time>
      </trkpt>
      <trkpt lat="34.83379243324799" lon="113.65658203893892">
        <ele>91.78912821318954</ele>
        <time>2026-10-01T00:41:40Z</time>
      </trkpt>
      <trkpt lat="34.83381558755246" lon="113.65667269031259">
        <ele>92.47424908634275</ele>
        <time>2026-10-01T00:41:43Z</time>
      </trkpt>
      <trkpt lat="34.83377462866588" lon="113.65677187375795">
        <ele>90.43944258894771</ele>
        <time>2026-10-01T00:41:46Z</time>
      </trkpt>
      <trkpt lat="34.833579555928495" lon="113.6569185340989">
        <ele>89.74562645703554</ele>
        <time>2026-10-01T00:41:55Z</time>
      </trkpt>
      <trkpt lat="34.83343050547355" lon="113.65686216113671">
        <ele>90.14188705943525</ele>
        <time>2026-10-01T00:42:01Z</time>
      </trkpt>
      <trkpt lat="34.83329921950941" lon="113.65678446124086">
        <ele>90.69705281220376</ele>
        <time>2026-10-01T00:42:07Z</time>
      </trkpt>
      <trkpt lat="34.83323701495343" lon="113.65679770966454">
        <ele>90.70269715413451</ele>
        <time>2026-10-01T00:42:10Z</time>
      </trkpt>
      <trkpt lat="34.8331795982481" lon="113.65677570899537">
        <ele>89.45387190114707</ele>
        <time>2026-10-01T00:42:13Z</time>
      </trkpt>
      <trkpt lat="34.83293635018845" lon="113.65675364428593">
        <ele>88.18762670550495</ele>
        <time>2026-10-01T00:42:25Z</time>
      </trkpt>
      <trkpt lat="34.83278254157174" lon="113.65675779462735">
        <ele>87.80447918456048</ele>
        <time>2026-10-01T00:42:31Z</time>
      </trkpt>
      <trkpt lat="34.83263328492165" lon="113.65677414606294">
        <ele>87.65382088813931</ele>
        <time>2026-10-01T00:42:40Z</time>
      </trkpt>
      <trkpt lat="34.83255636566334" lon="113.65676287011551">
        <ele>87.36669350415468</ele>
        <time>2026-10-01T00:42:43Z</time>
      </trkpt>
      <trkpt lat="34.83249057247973" lon="113.65678758201499">
        <ele>88.14055259991437</ele>
        <time>2026-10-01T00:42:47Z</time>
      </trkpt>
      <trkpt lat="34.83244810014824" lon="113.65691801881009">
        <ele>87.90328189451247</ele>
        <time>2026-10-01T00:42:51Z</time>
      </trkpt>
      <trkpt lat="34.83243725332158" lon="113.65701403914261">
        <ele>88.90679075475782</ele>
        <time>2026-10-01T00:42:55Z</time>
      </trkpt>
      <trkpt lat="34.8324025029483" lon="113.65708809177293">
        <ele>88.03642740566283</ele>
        <time>2026-10-01T00:42:59Z</time>
      </trkpt>
      <trkpt lat="34.83234335802444" lon="113.65710773520236">
        <ele>89.14155726414174</ele>
        <time>2026-10-01T00:43:03Z</time>
      </trkpt>
      <trkpt lat="34.83229022090449" lon="113.65716648477236">
        <ele>89.03499924670905</ele>
        <time>2026-10-01T00:43:07Z</time>
      </trkpt>
      <trkpt lat="34.83226173297773" lon="113.65733809191346">
        <ele>89.35097071900964</ele>
        <time>2026-10-01T00:43:14Z</time>
      </trkpt>
      <trkpt lat="34.832245244169144" lon="113.65756094769633">
        <ele>87.33510157372802</ele>
        <time>2026-10-01T00:43:23Z</time>
      </trkpt>
      <trkpt lat="34.832262017998616" lon="113.65793617077534">
        <ele>87.25343314744532</ele>
        <time>2026-10-01T00:43:38Z</time>
      </trkpt>
      <trkpt lat="34.83227076160803" lon="113.65830524414947">
        <ele>89.3659832905978</ele>
        <time>2026-10-01T00:43:53Z</time>
      </trkpt>
      <trkpt lat="34.832290171564026" lon="113.65837777774894">
        <ele>90.61849716957659</ele>
        <time>2026-10-01T00:43:56Z</time>
      </trkpt>
      <trkpt lat="34.832243959372285" lon="113.65856352285503">
        <ele>90.36429429706186</ele>
        <time>2026-10-01T00:44:05Z</time>
      </trkpt>
      <trkpt lat="34.832123321435276" lon="113.65861936155929">
        <ele>91.11777325160801</ele>
        <time>2026-10-01T00:44:11Z</time>
      </trkpt>
      <trkpt lat="34.831936134484835" lon="113.65865454506942">
        <ele>90.96027943212539</ele>
        <time>2026-10-01T00:44:20Z</time>
      </trkpt>
      <trkpt lat="34.831716637272336" lon="113.65859840837796">
        <ele>90.90757400076836</ele>
        <time>2026-10-01T00:44:32Z</time>
      </trkpt>
      <trkpt lat="34.83154161800566" lon="113.6585022283185">
        <ele>90.6726017985493</ele>
        <time>2026-10-01T00:44:38Z</time>
      </trkpt>
      <trkpt lat="34.83131894850552" lon="113.65831283038881">
        <ele>90.88597524445504</ele>
        <time>2026-10-01T00:44:47Z</time>
      </trkpt>
      <trkpt lat="34.83125905695824" lon="113.65825647820056">
        <ele>90.07873796019703</ele>
        <time>2026-10-01T00:44:50Z</time>
      </trkpt>
      <trkpt lat="34.83116438606964" lon="113.65820034050783">
        <ele>89.79942064452916</ele>
        <time>2026-10-01T00:44:54Z</time>
      </trkpt>
      <trkpt lat="34.83104754786559" lon="113.65816372604525">
        <ele>90.2053800066933</ele>
        <time>2026-10-01T00:44:58Z</time>
      </trkpt>
      <trkpt lat="34.8309740189184" lon="113.65816844273455">
        <ele>89.49501550476998</ele>
        <time>2026-10-01T00:45:02Z</time>
      </trkpt>
      <trkpt lat="34.830844133156695" lon="113.65822783131212">
        <ele>90.71290781814605</ele>
        <time>2026-10-01T00:45:09Z</time>
      </trkpt>
    </trkseg>
  </trk>
</gpx>