<?xml version="1.0" encoding="UTF-8"?>
<gpx xmlns="http://www.topografix.com/GPX/1/1" xmlns:gpxtpx="http://www.garmin.com/xmlschemas/TrackPointExtension/v1" xmlns:xsi="http://www.w3.org/2001/XMLSchema-instance" xsi:schemaLocation="http://www.topografix.com/GPX/1/1 http://www.topografix.com/GPX/1/1/gpx.xsd" version="1.1" creator="gpx.py -- https://github.com/tkrajina/gpxpy">
  <trk>
    <name>gpx from keep</name>
    <type>Walk</type>
    <trkseg>
      <trkpt lat="34.838706842367664" lon="113.6485395805813">
        <ele>0.0</ele>
        <time>2026-10-07T10:14:11Z</time>
      </trkpt>
      <trkpt lat="34.834331262493166" lon="113.65249639682762">
        <ele>79.94587826783066</ele>
        <time>2026-10-07T10:25:15Z</time>
      </trkpt>
      <trkpt lat="34.83425222999886" lon="113.65255929794702">
        <ele>79.94025682697072</ele>
        <time>2026-10-07T10:25:21Z</time>
      </trkpt>
      <trkpt lat="34.83419625066421" lon="113.65258026809471">
        <ele>80.07564886686855</ele>
        <time>2026-10-07T10:25:27Z</time>
      </trkpt>
      <trkpt lat="34.83407540318888" lon="113.65256730293436">
        <ele>79.99416682983863</ele>
        <time>2026-10-07T10:25:42Z</time>
      </trkpt>
      <trkpt lat="34.834018517306426" lon="113.65253835827048">
        <ele>80.0665791263095</ele>
        <time>2026-10-07T10:25:45Z</time>
      </trkpt>
      <trkpt lat="34.83394848075694" lon="113.65259826352121">
        <ele>80.17048638676889</ele>
        <time>2026-10-07T10:25:51Z</time>
      </trkpt>
      <trkpt lat="34.833822531360646" lon="113.65264320015721">
        <ele>80.54264567843846</ele>
        <time>2026-10-07T10:26:03Z</time>
      </trkpt>
      <trkpt lat="34.83361171840334" lon="113.6526631882773">
        <ele>80.7591311183075</ele>
        <time>2026-10-07T10:26:24Z</time>
      </trkpt>
      <trkpt lat="34.833510714666964" lon="113.65272309670317">
        <ele>80.62849723112315</ele>
        <time>2026-10-07T10:26:33Z</time>
      </trkpt>
      <trkpt lat="34.83344167136757" lon="113.65278599661426">
        <ele>80.61565076356362</ele>
        <time>2026-10-07T10:26:42Z</time>
      </trkpt>
      <trkpt lat="34.83324167821817" lon="113.65289682840422">
        <ele>79.65705471360789</ele>
        <time>2026-10-07T10:27:06Z</time>
      </trkpt>
      <trkpt lat="34.83319372175902" lon="113.65290082662716">
        <ele>79.60784340820611</ele>
        <time>2026-10-07T10:27:09Z</time>
      </trkpt>
      <trkpt lat="34.833167649361926" lon="113.6529547372519">
        <ele>79.46288645086312</ele>
        <time>2026-10-07T10:27:15Z</time>
      </trkpt>
      <trkpt lat="34.833148389763004" lon="113.65310548152172">
        <ele>79.41317412043878</ele>
        <time>2026-10-07T10:27:27Z</time>
      </trkpt>
      <trkpt lat="34.832992156592184" lon="113.65332013053704">
        <ele>78.2476237369678</ele>
        <time>2026-10-07T10:27:45Z</time>
      </trkpt>
      <trkpt lat="34.83288918052716" lon="113.65336606269733">
        <ele>77.09208257530881</ele>
        <time>2026-10-07T10:27:57Z</time>
      </trkpt>
      <trkpt lat="34.83282311318659" lon="113.65343994303971">
        <ele>76.73043328398926</ele>
        <time>2026-10-07T10:28:06Z</time>
      </trkpt>
      <trkpt lat="34.83281288047396" lon="113.65357071984602">
        <ele>76.51024924188486</ele>
        <time>2026-10-07T10:28:18Z</time>
      </trkpt>
      <trkpt lat="34.83284163781926" lon="113.6536845215109">
        <ele>76.50251664950993</ele>
        <time>2026-10-07T10:28:21Z</time>
      </trkpt>
      <trkpt lat="34.832839502337876" lon="113.65375839488549">
        <ele>76.47667372207822</ele>
        <time>2026-10-07T10:28:24Z</time>
      </trkpt>
      <trkpt lat="34.83288835361568" lon="113.65381030057436">
        <ele>76.79752819439439</ele>
        <time>2026-10-07T10:28:36Z</time>
      </trkpt>
      <trkpt lat="34.832857096182735" lon="113.65396603618936">
        <ele>77.14091878836699</ele>
        <time>2026-10-07T10:28:45Z</time>
      </trkpt>
      <trkpt lat="34.83289440925489" lon="113.65431243600625">
        <ele>79.19365028049543</ele>
        <time>2026-10-07T10:29:15Z</time>
      </trkpt>
      <trkpt lat="34.83289125761291" lon="113.65439529354623">
        <ele>79.17650146916691</ele>
        <time>2026-10-07T10:29:24Z</time>
      </trkpt>
      <trkpt lat="34.83282920584515" lon="113.65445819164896">
        <ele>79.10582444695314</ele>
        <time>2026-10-07T10:29:30Z</time>
      </trkpt>
      <trkpt lat="34.83252226087574" lon="113.65460297425581">
        <ele>78.7106671995465</ele>
        <time>2026-10-07T10:30:03Z</time>
      </trkpt>
      <trkpt lat="34.83221239172084" lon="113.65470882420803">
        <ele>78.54147776916109</ele>
        <time>2026-10-07T10:30:24Z</time>
      </trkpt>
      <trkpt lat="34.83207252153154" lon="113.65471882169076">
        <ele>78.60932262976873</ele>
        <time>2026-10-07T10:30:39Z</time>
      </trkpt>
      <trkpt lat="34.83188162505404" lon="113.65477175040861">
        <ele>79.65628004226916</ele>
        <time>2026-10-07T10:30:57Z</time>
      </trkpt>
      <trkpt lat="34.83169649963177" lon="113.65494347318906">
        <ele>79.68604076565424</ele>
        <time>2026-10-07T10:31:15Z</time>
      </trkpt>
      <trkpt lat="34.83163154985028" lon="113.6549534627663">
        <ele>79.6039964121851</ele>
        <time>2026-10-07T10:31:21Z</time>
      </trkpt>
      <trkpt lat="34.83160050788891" lon="113.65499339699134">
        <ele>79.4621875278746</ele>
        <time>2026-10-07T10:31:30Z</time>
      </trkpt>
      <trkpt lat="34.831517528533894" lon="113.6550293435746">
        <ele>79.42178448551459</ele>
        <time>2026-10-07T10:31:36Z</time>
      </trkpt>
      <trkpt lat="34.83130371424852" lon="113.65505132809123">
        <ele>79.28303587568173</ele>
        <time>2026-10-07T10:31:54Z</time>
      </trkpt>
      <trkpt lat="34.83122668357436" lon="113.6551112325786">
        <ele>79.48602460810602</ele>
        <time>2026-10-07T10:32:03Z</time>
      </trkpt>
      <trkpt lat="34.83117871573774" lon="113.65512122035398">
        <ele>79.69991252520781</ele>
        <time>2026-10-07T10:32:06Z</time>
      </trkpt>
      <trkpt lat="34.8311316831813" lon="113.65516514929242">
        <ele>80.08975388842417</ele>
        <time>2026-10-07T10:32:12Z</time>
      </trkpt>
      <trkpt lat="34.83098971010045" lon="113.6552310501858">
        <ele>80.41398971709421</ele>
        <time>2026-10-07T10:32:27Z</time>
      </trkpt>
      <trkpt lat="34.83091880033752" lon="113.65522307147482">
        <ele>80.1532018754148</ele>
        <time>2026-10-07T10:32:39Z</time>
      </trkpt>
      <trkpt lat="34.83063098192771" lon="113.65528898768515">
        <ele>78.96896232657487</ele>
        <time>2026-10-07T10:33:06Z</time>
      </trkpt>
      <trkpt lat="34.83044894053589" lon="113.6554137906797">
        <ele>79.95045000044628</ele>
        <time>2026-10-07T10:33:24Z</time>
      </trkpt>
      <trkpt lat="34.83036858457374" lon="113.65564839239167">
        <ele>80.4280253952355</ele>
        <time>2026-10-07T10:33:39Z</time>
      </trkpt>
      <trkpt lat="34.8303972741791" lon="113.65579713124157">
        <ele>80.90162215640191</ele>
        <time>2026-10-07T10:33:54Z</time>
      </trkpt>
      <trkpt lat="34.830287037606155" lon="113.65598481689413">
        <ele>79.82573440783216</ele>
        <time>2026-10-07T10:34:06Z</time>
      </trkpt>
      <trkpt lat="34.830297866207324" lon="113.65606966829081">
        <ele>79.70512740457912</ele>
        <time>2026-10-07T10:34:09Z</time>
      </trkpt>
      <trkpt lat="34.830305983652444" lon="113.65600278367707">
        <ele>79.26536911462769</ele>
        <time>2026-10-07T10:34:15Z</time>
      </trkpt>
      <trkpt lat="34.83028217817297" lon="113.65591294227114">
        <ele>78.90232761844692</ele>
        <time>2026-10-07T10:34:24Z</time>
      </trkpt>
      <trkpt lat="34.830235182881864" lon="113.65593690560054">
        <ele>79.13234069457584</ele>
        <time>2026-10-07T10:34:45Z</time>
      </trkpt>
      <trkpt lat="34.83018831532774" lon="113.65589298682842">
        <ele>79.29703505245553</ele>
        <time>2026-10-07T10:34:48Z</time>
      </trkpt>
      <trkpt lat="34.83012722214499" lon="113.65597684759214">
        <ele>79.76956804072742</ele>
        <time>2026-10-07T10:34:54Z</time>
      </trkpt>
      <trkpt lat="34.830063229812374" lon="113.65600879882109">
        <ele>80.17953548250036</ele>
        <time>2026-10-07T10:35:00Z</time>
      </trkpt>
      <trkpt lat="34.8299802951829" lon="113.65602078673359">
        <ele>80.01759393373196</ele>
        <time>2026-10-07T10:35:06Z</time>
      </trkpt>
      <trkpt lat="34.829921303175695" lon="113.65604974263036">
        <ele>80.01305408561485</ele>
        <time>2026-10-07T10:35:12Z</time>
      </trkpt>
      <trkpt lat="34.82976898840888" lon="113.65630231945126">
        <ele>79.8348235981779</ele>
        <time>2026-10-07T10:35:30Z</time>
      </trkpt>
      <trkpt lat="34.82980080209571" lon="113.65638317538142">
        <ele>79.61245804212508</ele>
        <time>2026-10-07T10:35:36Z</time>
      </trkpt>
      <trkpt lat="34.82976672328839" lon="113.65644407296105">
        <ele>79.40103301579458</ele>
        <time>2026-10-07T10:35:42Z</time>
      </trkpt>
      <trkpt lat="34.82966766245148" lon="113.65653193041098">
        <ele>79.73020651289319</ele>
        <time>2026-10-07T10:35:45Z</time>
      </trkpt>
      <trkpt lat="34.82956951948387" lon="113.65666271290819">
        <ele>79.92509218130469</ele>
        <time>2026-10-07T10:35:48Z</time>
      </trkpt>
      <trkpt lat="34.829594349797965" lon="113.65673857805827">
        <ele>80.40554000743874</ele>
        <time>2026-10-07T10:35:51Z</time>
      </trkpt>
      <trkpt lat="34.829573468143636" lon="113.65668766899846">
        <ele>81.0320277813171</ele>
        <time>2026-10-07T10:35:54Z</time>
      </trkpt>
      <trkpt lat="34.82971841255343" lon="113.65663574420252">
        <ele>83.20428304431078</ele>
        <time>2026-10-07T10:36:03Z</time>
      </trkpt>
      <trkpt lat="34.82966036847102" lon="113.6566916528908">
        <ele>84.24065058041603</ele>
        <time>2026-10-07T10:36:09Z</time>
      </trkpt>
      <trkpt lat="34.829767234420444" lon="113.65670262250153">
        <ele>84.71799664635044</ele>
        <time>2026-10-07T10:36:15Z</time>
      </trkpt>
      <trkpt lat="34.829817995701866" lon="113.65680044660635">
        <ele>84.82335926179023</ele>
        <time>2026-10-07T10:36:21Z</time>
      </trkpt>
      <trkpt lat="34.829799786622395" lon="113.65692123785013">
        <ele>85.16588115328527</ele>
        <time>2026-10-07T10:36:27Z</time>
      </trkpt>
      <trkpt lat="34.829718595107046" lon="113.65706799031803">
        <ele>85.39901527852498</ele>
        <time>2026-10-07T10:36:33Z</time>
      </trkpt>
      <trkpt lat="34.82978124149019" lon="113.65721971877586">
        <ele>87.01908846796434</ele>
        <time>2026-10-07T10:36:48Z</time>
      </trkpt>
      <trkpt lat="34.82987917544937" lon="113.6571997433353">
        <ele>88.17408953339721</ele>
        <time>2026-10-07T10:36:51Z</time>
      </trkpt>
      <trkpt lat="34.82998299732233" lon="113.65723566963563">
        <ele>88.60957061669141</ele>
        <time>2026-10-07T10:36:54Z</time>
      </trkpt>
      <trkpt lat="34.829938960847926" lon="113.65727959754287">
        <ele>88.94444635168159</ele>
        <time>2026-10-07T10:36:57Z</time>
      </trkpt>
      <trkpt lat="34.829855699300786" lon="113.65746428355754">
        <ele>91.80414029267946</ele>
        <time>2026-10-07T10:37:06Z</time>
      </trkpt>
      <trkpt lat="34.829721642782744" lon="113.65756911438986">
        <ele>93.24017082924686</ele>
        <time>2026-10-07T10:37:12Z</time>
      </trkpt>
      <trkpt lat="34.82965829348844" lon="113.65778873681202">
        <ele>93.69152855385653</ele>
        <time>2026-10-07T10:37:27Z</time>
      </trkpt>
      <trkpt lat="34.82965516990884" lon="113.65785562005988">
        <ele>92.85997566783185</ele>
        <time>2026-10-07T10:37:33Z</time>
      </trkpt>
      <trkpt lat="34.829734001090415" lon="113.657900533107">
        <ele>91.80588062089383</ele>
        <time>2026-10-07T10:37:39Z</time>
      </trkpt>
    </trkseg>
  </trk>
</gpx>