<?xml version="1.0" encoding="UTF-8"?>
<gpx xmlns="http://www.topografix.com/GPX/1/1" xmlns:gpxtpx="http://www.garmin.com/xmlschemas/TrackPointExtension/v1" xmlns:xsi="http://www.w3.org/2001/XMLSchema-instance" xsi:schemaLocation="http://www.topografix.com/GPX/1/1 http://www.topografix.com/GPX/1/1/gpx.xsd" version="1.1" creator="gpx.py -- https://github.com/tkrajina/gpxpy">
  <trk>
    <name>gpx from keep</name>
    <type>Run</type>
    <trkseg>
      <trkpt lat="36.608249228087494" lon="114.47412456295562">
        <ele>62.70334155112505</ele>
        <time>2026-08-15T10:54:34Z</time>
      </trkpt>
      <trkpt lat="36.608290210013905" lon="114.47409345049213">
        <ele>61.38389466982335</ele>
        <time>2026-08-15T10:54:37Z</time>
      </trkpt>
      <trkpt lat="36.608338788113045" lon="114.47409674331782">
        <ele>61.99021634552628</ele>
        <time>2026-08-15T10:54:43Z</time>
      </trkpt>
      <trkpt lat="36.60866368414977" lon="114.47405147292375">
        <ele>61.94488409999758</ele>
        <time>2026-08-15T10:55:07Z</time>
      </trkpt>
      <trkpt lat="36.608753676435036" lon="114.4740319183431">
        <ele>61.07033515255898</ele>
        <time>2026-08-15T10:55:14Z</time>
      </trkpt>
      <trkpt lat="36.608950762500434" lon="114.47408931398371">
        <ele>62.23426025453955</ele>
        <time>2026-08-15T10:55:26Z</time>
      </trkpt>
      <trkpt lat="36.60901577621715" lon="114.47409085057348">
        <ele>61.70759956538677</ele>
        <time>2026-08-15T10:55:32Z</time>
      </trkpt>
      <trkpt lat="36.60916259315677" lon="114.47416294045449">
        <ele>61.83479764405638</ele>
        <time>2026-08-15T10:55:38Z</time>
      </trkpt>
      <trkpt lat="36.60921235502171" lon="114.47415332944814">
        <ele>61.72244689706713</ele>
        <time>2026-08-15T10:55:41Z</time>
      </trkpt>
      <trkpt lat="36.60934394809174" lon="114.47417560380465">
        <ele>61.4075731318444</ele>
        <time>2026-08-15T10:55:47Z</time>
      </trkpt>
      <trkpt lat="36.60940379042926" lon="114.47415923571944">
        <ele>61.831075391732156</ele>
        <time>2026-08-15T10:55:50Z</time>
      </trkpt>
      <trkpt lat="36.60953656113874" lon="114.47418456696074">
        <ele>61.14628943800926</ele>
        <time>2026-08-15T10:55:56Z</time>
      </trkpt>
      <trkpt lat="36.60964298120993" lon="114.47414633846294">
        <ele>61.33362276852131</ele>
        <time>2026-08-15T10:56:02Z</time>
      </trkpt>
      <trkpt lat="36.60983292886159" lon="114.4741610484631">
        <ele>61.59587153792381</ele>
        <time>2026-08-15T10:56:11Z</time>
      </trkpt>
      <trkpt lat="36.60987634636311" lon="114.47418429508946">
        <ele>61.57347203604877</ele>
        <time>2026-08-15T10:56:14Z</time>
      </trkpt>
      <trkpt lat="36.61000862222983" lon="114.47420808432143">
        <ele>62.51970862224698</ele>
        <time>2026-08-15T10:56:23Z</time>
      </trkpt>
      <trkpt lat="36.61012847955653" lon="114.47418400956755">
        <ele>61.2821255158633</ele>
        <time>2026-08-15T10:56:29Z</time>
      </trkpt>
      <trkpt lat="36.610196677809185" lon="114.4741999484613">
        <ele>61.523281740024686</ele>
        <time>2026-08-15T10:56:32Z</time>
      </trkpt>
      <trkpt lat="36.61021921170107" lon="114.47426435054379">
        <ele>61.442402749322355</ele>
        <time>2026-08-15T10:56:35Z</time>
      </trkpt>
      <trkpt lat="36.61026942953779" lon="114.47429366888227">
        <ele>61.31221508793533</ele>
        <time>2026-08-15T10:56:44Z</time>
      </trkpt>
      <trkpt lat="36.610220592007494" lon="114.47451822406396">
        <ele>61.87894778326154</ele>
        <time>2026-08-15T10:56:53Z</time>
      </trkpt>
      <trkpt lat="36.61015396172495" lon="114.47462103322454">
        <ele>61.611029628664255</ele>
        <time>2026-08-15T10:56:59Z</time>
      </trkpt>
      <trkpt lat="36.61010301785393" lon="114.47464857664684">
        <ele>61.83051216322929</ele>
        <time>2026-08-15T10:57:02Z</time>
      </trkpt>
      <trkpt lat="36.61004094198376" lon="114.47471672628862">
        <ele>60.917006105184555</ele>
        <time>2026-08-15T10:57:08Z</time>
      </trkpt>
      <trkpt lat="36.61003475804956" lon="114.4748846007016">
        <ele>61.53329465165734</ele>
        <time>2026-08-15T10:57:14Z</time>
      </trkpt>
      <trkpt lat="36.61007123061771" lon="114.47497172996687">
        <ele>60.57149249128997</ele>
        <time>2026-08-15T10:57:18Z</time>
      </trkpt>
      <trkpt lat="36.61003676576661" lon="114.47501724682984">
        <ele>60.83131247665733</ele>
        <time>2026-08-15T10:57:21Z</time>
      </trkpt>
      <trkpt lat="36.61006668509224" lon="114.47533355047385">
        <ele>61.623157639056444</ele>
        <time>2026-08-15T10:57:33Z</time>
      </trkpt>
      <trkpt lat="36.610117881524204" lon="114.47540370597315">
        <ele>61.64327485952526</ele>
        <time>2026-08-15T10:57:36Z</time>
      </trkpt>
      <trkpt lat="36.61009535752939" lon="114.47548067676172">
        <ele>61.745860658586025</ele>
        <time>2026-08-15T10:57:39Z</time>
      </trkpt>
      <trkpt lat="36.61012608656555" lon="114.47574915933315">
        <ele>62.913436443544924</ele>
        <time>2026-08-15T10:57:48Z</time>
      </trkpt>
      <trkpt lat="36.610124041137645" lon="114.47597930826505">
        <ele>62.331369443796575</ele>
        <time>2026-08-15T10:58:00Z</time>
      </trkpt>
      <trkpt lat="36.61013707422212" lon="114.47611081430362">
        <ele>63.088496576063335</ele>
        <time>2026-08-15T10:58:06Z</time>
      </trkpt>
      <trkpt lat="36.6101200593358" lon="114.4764025996517">
        <ele>62.650019438937306</ele>
        <time>2026-08-15T10:58:18Z</time>
      </trkpt>
      <trkpt lat="36.6101876890644" lon="114.47648756609658">
        <ele>61.07249159645289</ele>
        <time>2026-08-15T10:58:24Z</time>
      </trkpt>
      <trkpt lat="36.61042136365146" lon="114.47664487035291">
        <ele>61.44338994380087</ele>
        <time>2026-08-15T10:58:39Z</time>
      </trkpt>
      <trkpt lat="36.610444835565595" lon="114.47680052175431">
        <ele>62.29457391612232</ele>
        <time>2026-08-15T10:58:45Z</time>
      </trkpt>
      <trkpt lat="36.610437288450676" lon="114.47715517334733">
        <ele>62.34110390115529</ele>
        <time>2026-08-15T10:59:00Z</time>
      </trkpt>
      <trkpt lat="36.61044479816772" lon="114.4774203512024">
        <ele>63.00941682327539</ele>
        <time>2026-08-15T10:59:12Z</time>
      </trkpt>
      <trkpt lat="36.61039630772679" lon="114.47779273615063">
        <ele>61.93190607614815</ele>
        <time>2026-08-15T10:59:25Z</time>
      </trkpt>
      <trkpt lat="36.610324238089" lon="114.47806693950115">
        <ele>61.77654250431806</ele>
        <time>2026-08-15T10:59:37Z</time>
      </trkpt>
      <trkpt lat="36.610325260706745" lon="114.47815944069617">
        <ele>61.28512398339808</ele>
        <time>2026-08-15T10:59:40Z</time>
      </trkpt>
      <trkpt lat="36.61028544357791" lon="114.47838311656601">
        <ele>61.950880319811404</ele>
        <time>2026-08-15T10:59:49Z</time>
      </trkpt>
      <trkpt lat="36.61031498235176" lon="114.4787215258864">
        <ele>60.801305557601154</ele>
        <time>2026-08-15T11:00:04Z</time>
      </trkpt>
      <trkpt lat="36.61031942969256" lon="114.47907939088424">
        <ele>61.308385205455124</ele>
        <time>2026-08-15T11:00:19Z</time>
      </trkpt>
      <trkpt lat="36.61028345559217" lon="114.4792832206906">
        <ele>62.16066617704928</ele>
        <time>2026-08-15T11:00:43Z</time>
      </trkpt>
      <trkpt lat="36.61034565987281" lon="114.47931631418476">
        <ele>63.60085957869887</ele>
        <time>2026-08-15T11:00:49Z</time>
      </trkpt>
      <trkpt lat="36.610274300680395" lon="114.47952376700249">
        <ele>62.42189087159932</ele>
        <time>2026-08-15T11:00:58Z</time>
      </trkpt>
      <trkpt lat="36.610300749523766" lon="114.47970026304661">
        <ele>61.96120962128043</ele>
        <time>2026-08-15T11:01:04Z</time>
      </trkpt>
      <trkpt lat="36.610292072377064" lon="114.47978827618134">
        <ele>61.73216016590595</ele>
        <time>2026-08-15T11:01:07Z</time>
      </trkpt>
      <trkpt lat="36.610309436349496" lon="114.47987056047448">
        <ele>62.51397457625717</ele>
        <time>2026-08-15T11:01:10Z</time>
      </trkpt>
      <trkpt lat="36.61024122842042" lon="114.48000108370799">
        <ele>62.32826055213809</ele>
        <time>2026-08-15T11:01:16Z</time>
      </trkpt>
      <trkpt lat="36.61017162388718" lon="114.4802907886461">
        <ele>61.4177509425208</ele>
        <time>2026-08-15T11:01:42Z</time>
      </trkpt>
      <trkpt lat="36.61015849278534" lon="114.48045484716444">
        <ele>64.46025573834777</ele>
        <time>2026-08-15T11:01:51Z</time>
      </trkpt>
      <trkpt lat="36.6102014449526" lon="114.48043187931096">
        <ele>63.76845630630851</ele>
        <time>2026-08-15T11:02:00Z</time>
      </trkpt>
      <trkpt lat="36.61019730519055" lon="114.48036752160576">
        <ele>64.52641925960779</ele>
        <time>2026-08-15T11:02:15Z</time>
      </trkpt>
      <trkpt lat="36.61020080321719" lon="114.48022844939538">
        <ele>64.67488440312445</ele>
        <time>2026-08-15T11:02:36Z</time>
      </trkpt>
      <trkpt lat="36.61030289494694" lon="114.4801776025556">
        <ele>63.00392924249172</ele>
        <time>2026-08-15T11:02:54Z</time>
      </trkpt>
      <trkpt lat="36.610497066166026" lon="114.48022739406804">
        <ele>62.52629866357893</ele>
        <time>2026-08-15T11:03:03Z</time>
      </trkpt>
      <trkpt lat="36.61061414901421" lon="114.48015754415698">
        <ele>63.0531738018617</ele>
        <time>2026-08-15T11:03:15Z</time>
      </trkpt>
      <trkpt lat="36.61069315910693" lon="114.48017798302881">
        <ele>62.94909094553441</ele>
        <time>2026-08-15T11:03:18Z</time>
      </trkpt>
      <trkpt lat="36.61074104488596" lon="114.48015425858195">
        <ele>64.5044153816998</ele>
        <time>2026-08-15T11:03:40Z</time>
      </trkpt>
      <trkpt lat="36.61077391118796" lon="114.48006316879619">
        <ele>61.97971123084426</ele>
        <time>2026-08-15T11:04:01Z</time>
      </trkpt>
      <trkpt lat="36.610776761618226" lon="114.47999954114633">
        <ele>61.540638756006956</ele>
        <time>2026-08-15T11:04:10Z</time>
      </trkpt>
      <trkpt lat="36.61082210256852" lon="114.4800148356647">
        <ele>62.96931642666459</ele>
        <time>2026-08-15T11:04:16Z</time>
      </trkpt>
      <trkpt lat="36.61089173568707" lon="114.4801700438569">
        <ele>62.25874547474086</ele>
        <time>2026-08-15T11:04:25Z</time>
      </trkpt>
      <trkpt lat="36.611065951948575" lon="114.48025886694882">
        <ele>62.09146268200129</ele>
        <time>2026-08-15T11:04:34Z</time>
      </trkpt>
      <trkpt lat="36.61135903388573" lon="114.48027262736151">
        <ele>64.27980165183544</ele>
        <time>2026-08-15T11:04:46Z</time>
      </trkpt>
      <trkpt lat="36.61141289957955" lon="114.48030570300467">
        <ele>64.1196909127757</ele>
        <time>2026-08-15T11:04:49Z</time>
      </trkpt>
      <trkpt lat="36.61148408691665" lon="114.48031172304205">
        <ele>63.77392568811774</ele>
        <time>2026-08-15T11:04:55Z</time>
      </trkpt>
      <trkpt lat="36.611536902655075" lon="114.48034365648665">
        <ele>63.88960299734026</ele>
        <time>2026-08-15T11:05:01Z</time>
      </trkpt>
      <trkpt lat="36.61178872242362" lon="114.4803451626338">
        <ele>64.83848525770009</ele>
        <time>2026-08-15T11:05:19Z</time>
      </trkpt>
      <trkpt lat="36.611827142523644" lon="114.4802992936868">
        <ele>65.38159753195941</ele>
        <time>2026-08-15T11:05:25Z</time>
      </trkpt>
      <trkpt lat="36.61189157041265" lon="114.4802901566877">
        <ele>65.01840383280069</ele>
        <time>2026-08-15T11:05:28Z</time>
      </trkpt>
      <trkpt lat="36.61207698508359" lon="114.48034676371427">
        <ele>65.68626387324184</ele>
        <time>2026-08-15T11:05:37Z</time>
      </trkpt>
      <trkpt lat="36.61239141562822" lon="114.48039423184574">
        <ele>65.46747445128858</ele>
        <time>2026-08-15T11:05:56Z</time>
      </trkpt>
      <trkpt lat="36.61246166977197" lon="114.48041400590888">
        <ele>65.39744732249528</ele>
        <time>2026-08-15T11:06:05Z</time>
      </trkpt>
      <trkpt lat="36.612599809483434" lon="114.48039897315422">
        <ele>64.9706952124834</ele>
        <time>2026-08-15T11:06:11Z</time>
      </trkpt>
      <trkpt lat="36.61264535785668" lon="114.48044838643642">
        <ele>65.2807324193418</ele>
        <time>2026-08-15T11:06:20Z</time>
      </trkpt>
      <trkpt lat="36.61279311284679" lon="114.48050739015613">
        <ele>65.00308004580438</ele>
        <time>2026-08-15T11:06:26Z</time>
      </trkpt>
      <trkpt lat="36.61299650754262" lon="114.48051325588487">
        <ele>65.42688984423876</ele>
        <time>2026-08-15T11:06:35Z</time>
      </trkpt>
      <trkpt lat="36.61305120797103" lon="114.4805875440501">
        <ele>65.62779324315488</ele>
        <time>2026-08-15T11:06:44Z</time>
      </trkpt>
      <trkpt lat="36.613042160324405" lon="114.48067984442736">
        <ele>65.32961362414062</ele>
        <time>2026-08-15T11:06:47Z</time>
      </trkpt>
      <trkpt lat="36.61305805315513" lon="114.48088497555598">
        <ele>64.96482786536217</ele>
        <time>2026-08-15T11:06:53Z</time>
      </trkpt>
      <trkpt lat="36.61301634422756" lon="114.48102224655685">
        <ele>65.427874898538</ele>
        <time>2026-08-15T11:06:56Z</time>
      </trkpt>
      <trkpt lat="36.61306725461423" lon="114.4810741372866">
        <ele>64.66544539388269</ele>
        <time>2026-08-15T11:06:59Z</time>
      </trkpt>
      <trkpt lat="36.613094403063265" lon="114.48116726780793">
        <ele>64.23870329372585</ele>
        <time>2026-08-15T11:07:02Z</time>
      </trkpt>
      <trkpt lat="36.613245085468364" lon="114.48130148374823">
        <ele>62.40289303380996</ele>
        <time>2026-08-15T11:07:14Z</time>
      </trkpt>
      <trkpt lat="36.61348947541983" lon="114.48133016940756">
        <ele>62.62250379566103</ele>
        <time>2026-08-15T11:07:29Z</time>
      </trkpt>
      <trkpt lat="36.613691747588646" lon="114.48131596542738">
        <ele>62.198060443624854</ele>
        <time>2026-08-15T11:07:47Z</time>
      </trkpt>
      <trkpt lat="36.61403927993738" lon="114.48134676970567">
        <ele>63.040214981883764</ele>
        <time>2026-08-15T11:08:03Z</time>
      </trkpt>
      <trkpt lat="36.61415751964008" lon="114.48136149614204">
        <ele>62.93788671866059</ele>
        <time>2026-08-15T11:08:09Z</time>
      </trkpt>
      <trkpt lat="36.61428162878942" lon="114.48142651856509">
        <ele>61.881171436049044</ele>
        <time>2026-08-15T11:08:15Z</time>
      </trkpt>
      <trkpt lat="36.614303966437525" lon="114.48147845903715">
        <ele>63.281757306307554</ele>
        <time>2026-08-15T11:08:18Z</time>
      </trkpt>
      <trkpt lat="36.614303110322396" lon="114.48163540280476">
        <ele>63.31429705489427</ele>
        <time>2026-08-15T11:08:27Z</time>
      </trkpt>
      <trkpt lat="36.614265425629426" lon="114.48178243659548">
        <ele>62.63209944870323</ele>
        <time>2026-08-15T11:08:36Z</time>
      </trkpt>
      <trkpt lat="36.614222489322145" lon="114.48182410602708">
        <ele>63.80843424424529</ele>
        <time>2026-08-15T11:08:42Z</time>
      </trkpt>
      <trkpt lat="36.61421522194871" lon="114.48188251403752">
        <ele>63.309080174192786</ele>
        <time>2026-08-15T11:08:45Z</time>
      </trkpt>
      <trkpt lat="36.614255664568965" lon="114.4819400134319">
        <ele>63.288530820049345</ele>
        <time>2026-08-15T11:08:48Z</time>
      </trkpt>
      <trkpt lat="36.61427339434032" lon="114.48201729184167">
        <ele>63.17937393672764</ele>
        <time>2026-08-15T11:08:57Z</time>
      </trkpt>
      <trkpt lat="36.61433035432116" lon="114.48205902534251">
        <ele>62.22681070677936</ele>
        <time>2026-08-15T11:09:03Z</time>
      </trkpt>
      <trkpt lat="36.61433923339111" lon="114.48211574336398">
        <ele>62.24452954903245</ele>
        <time>2026-08-15T11:09:06Z</time>
      </trkpt>
      <trkpt lat="36.61444928430648" lon="114.4821317663105">
        <ele>62.20651517994702</ele>
        <time>2026-08-15T11:09:12Z</time>
      </trkpt>
      <trkpt lat="36.61450645908163" lon="114.48212178663502">
        <ele>61.79967855196446</ele>
        <time>2026-08-15T11:09:15Z</time>
      </trkpt>
      <trkpt lat="36.61463702859839" lon="114.48213694489651">
        <ele>61.527860721573234</ele>
        <time>2026-08-15T11:09:24Z</time>
      </trkpt>
      <trkpt lat="36.614608458322685" lon="114.48194887155779">
        <ele>62.54241014551371</ele>
        <time>2026-08-15T11:09:53Z</time>
      </trkpt>
      <trkpt lat="36.61462116581727" lon="114.48188021201447">
        <ele>63.015675847418606</ele>
        <time>2026-08-15T11:09:56Z</time>
      </trkpt>
      <trkpt lat="36.61471386058803" lon="114.48175512492242">
        <ele>63.13457833044231</ele>
        <time>2026-08-15T11:10:02Z</time>
      </trkpt>
      <trkpt lat="36.614813183286174" lon="114.4816812273088">
        <ele>62.915244531817734</ele>
        <time>2026-08-15T11:10:11Z</time>
      </trkpt>
      <trkpt lat="36.61507086269842" lon="114.48175070976279">
        <ele>62.91451704874635</ele>
        <time>2026-08-15T11:10:23Z</time>
      </trkpt>
      <trkpt lat="36.615433144181175" lon="114.48179885630093">
        <ele>62.2794050630182</ele>
        <time>2026-08-15T11:10:38Z</time>
      </trkpt>
      <trkpt lat="36.615503603077784" lon="114.48183187475598">
        <ele>62.25744919665158</ele>
        <time>2026-08-15T11:10:41Z</time>
      </trkpt>
      <trkpt lat="36.61556298847897" lon="114.48188529912888">
        <ele>61.41856770962477</ele>
        <time>2026-08-15T11:10:44Z</time>
      </trkpt>
      <trkpt lat="36.61556253165857" lon="114.48200599535194">
        <ele>61.74782339017838</ele>
        <time>2026-08-15T11:10:47Z</time>
      </trkpt>
      <trkpt lat="36.61553740562388" lon="114.48208318013984">
        <ele>61.480427474714816</ele>
        <time>2026-08-15T11:10:50Z</time>
      </trkpt>
      <trkpt lat="36.61552441769572" lon="114.48223729366927">
        <ele>61.033968358300626</ele>
        <time>2026-08-15T11:10:56Z</time>
      </trkpt>
      <trkpt lat="36.61553851738579" lon="114.48232104040937">
        <ele>60.89971215836704</ele>
        <time>2026-08-15T11:10:59Z</time>
      </trkpt>
      <trkpt lat="36.615585639209364" lon="114.48238177603429">
        <ele>61.21343771647662</ele>
        <time>2026-08-15T11:11:02Z</time>
      </trkpt>
      <trkpt lat="36.615599998785854" lon="114.4824848681234">
        <ele>60.987667847424746</ele>
        <time>2026-08-15T11:11:08Z</time>
      </trkpt>
      <trkpt lat="36.61552014960089" lon="114.48259861760056">
        <ele>60.41263136267662</ele>
        <time>2026-08-15T11:11:14Z</time>
      </trkpt>
      <trkpt lat="36.615510566091984" lon="114.48267435316195">
        <ele>60.247596537694335</ele>
        <time>2026-08-15T11:11:17Z</time>
      </trkpt>
      <trkpt lat="36.615487548561234" lon="114.48272727138983">
        <ele>60.07561015151441</ele>
        <time>2026-08-15T11:11:20Z</time>
      </trkpt>
      <trkpt lat="36.61553667201517" lon="114.48278655524577">
        <ele>60.24732624273747</ele>
        <time>2026-08-15T11:11:23Z</time>
      </trkpt>
      <trkpt lat="36.61548543713214" lon="114.48291257217724">
        <ele>60.067598917521536</ele>
        <time>2026-08-15T11:11:29Z</time>
      </trkpt>
      <trkpt lat="36.61543816284103" lon="114.48289639758362">
        <ele>59.64841904491186</ele>
        <time>2026-08-15T11:11:46Z</time>
      </trkpt>
      <trkpt lat="36.61547351499138" lon="114.48296624027404">
        <ele>58.49217598699033</ele>
        <time>2026-08-15T11:12:14Z</time>
      </trkpt>
      <trkpt lat="36.61548474826001" lon="114.48321071733355">
        <ele>58.78954309411347</ele>
        <time>2026-08-15T11:12:26Z</time>
      </trkpt>
      <trkpt lat="36.61550131509833" lon="114.48327665385966">
        <ele>59.38850443717092</ele>
        <time>2026-08-15T11:12:29Z</time>
      </trkpt>
      <trkpt lat="36.61565492281064" lon="114.48332341263935">
        <ele>58.54085765965283</ele>
        <time>2026-08-15T11:12:38Z</time>
      </trkpt>
      <trkpt lat="36.61582723969445" lon="114.48335255418411">
        <ele>58.88898219447583</ele>
        <time>2026-08-15T11:12:47Z</time>
      </trkpt>
      <trkpt lat="36.615889066922925" lon="114.48334730880144">
        <ele>59.82660914864391</ele>
        <time>2026-08-15T11:12:50Z</time>
      </trkpt>
      <trkpt lat="36.61600611279679" lon="114.48340323929318">
        <ele>60.25964741315693</ele>
        <time>2026-08-15T11:12:56Z</time>
      </trkpt>
      <trkpt lat="36.61618117369512" lon="114.48345026017273">
        <ele>60.635000012815</ele>
        <time>2026-08-15T11:13:05Z</time>
      </trkpt>
      <trkpt lat="36.616225236235664" lon="114.4835145919435">
        <ele>60.42685019876808</ele>
        <time>2026-08-15T11:13:08Z</time>
      </trkpt>
      <trkpt lat="36.61621292196665" lon="114.48357023441645">
        <ele>60.403677547350526</ele>
        <time>2026-08-15T11:13:18Z</time>
      </trkpt>
      <trkpt lat="36.616302750917825" lon="114.48359838330076">
        <ele>60.73099048808217</ele>
        <time>2026-08-15T11:13:21Z</time>
      </trkpt>
      <trkpt lat="36.6164689942133" lon="114.48373235738373">
        <ele>61.392759311944246</ele>
        <time>2026-08-15T11:13:30Z</time>
      </trkpt>
      <trkpt lat="36.616634463289216" lon="114.48376324376495">
        <ele>62.155628866516054</ele>
        <time>2026-08-15T11:13:39Z</time>
      </trkpt>
      <trkpt lat="36.61689643890355" lon="114.48384937866491">
        <ele>61.98413138370961</ele>
        <time>2026-08-15T11:13:51Z</time>
      </trkpt>
      <trkpt lat="36.6171730083385" lon="114.48391616363838">
        <ele>62.129319585859776</ele>
        <time>2026-08-15T11:14:04Z</time>
      </trkpt>
      <trkpt lat="36.61723494565792" lon="114.48392614032132">
        <ele>61.84837378654629</ele>
        <time>2026-08-15T11:14:07Z</time>
      </trkpt>
      <trkpt lat="36.617450499473634" lon="114.4838051239275">
        <ele>62.294236509129405</ele>
        <time>2026-08-15T11:14:19Z</time>
      </trkpt>
      <trkpt lat="36.617512221788864" lon="114.48380400656217">
        <ele>62.67755211982876</ele>
        <time>2026-08-15T11:14:22Z</time>
      </trkpt>
      <trkpt lat="36.61762798326593" lon="114.48387252608525">
        <ele>63.31912695709616</ele>
        <time>2026-08-15T11:14:28Z</time>
      </trkpt>
      <trkpt lat="36.61767697207021" lon="114.48401818014608">
        <ele>63.161165543831885</ele>
        <time>2026-08-15T11:14:34Z</time>
      </trkpt>
      <trkpt lat="36.61777366487655" lon="114.48411870570577">
        <ele>61.507428417913616</ele>
        <time>2026-08-15T11:14:40Z</time>
      </trkpt>
      <trkpt lat="36.61782854752549" lon="114.4840172382122">
        <ele>61.848537830635905</ele>
        <time>2026-08-15T11:14:52Z</time>
      </trkpt>
      <trkpt lat="36.617879346843814" lon="114.48397171607657">
        <ele>61.333686735481024</ele>
        <time>2026-08-15T11:14:55Z</time>
      </trkpt>
      <trkpt lat="36.617901272601586" lon="114.48391502677671">
        <ele>60.575429279357195</ele>
        <time>2026-08-15T11:14:58Z</time>
      </trkpt>
      <trkpt lat="36.6179116255172" lon="114.48375411327464">
        <ele>61.41287848632783</ele>
        <time>2026-08-15T11:15:04Z</time>
      </trkpt>
      <trkpt lat="36.61794303622982" lon="114.48369176178747">
        <ele>60.82050684187561</ele>
        <time>2026-08-15T11:15:07Z</time>
      </trkpt>
      <trkpt lat="36.61799415667952" lon="114.48365494511">
        <ele>59.8571298327297</ele>
        <time>2026-08-15T11:15:10Z</time>
      </trkpt>
      <trkpt lat="36.618046965572965" lon="114.48367691221296">
        <ele>60.476659471169114</ele>
        <time>2026-08-15T11:15:13Z</time>
      </trkpt>
      <trkpt lat="36.61813614988945" lon="114.48382344047018">
        <ele>59.67425416316837</ele>
        <time>2026-08-15T11:15:22Z</time>
      </trkpt>
      <trkpt lat="36.618139416762176" lon="114.48391687654224">
        <ele>60.14030255749822</ele>
        <time>2026-08-15T11:15:25Z</time>
      </trkpt>
      <trkpt lat="36.61808265235966" lon="114.4841503415846">
        <ele>60.43432401306927</ele>
        <time>2026-08-15T11:15:34Z</time>
      </trkpt>
      <trkpt lat="36.61811575843431" lon="114.48442960915233">
        <ele>60.022054680623114</ele>
        <time>2026-08-15T11:15:46Z</time>
      </trkpt>
      <trkpt lat="36.6180004409007" lon="114.48471567734452">
        <ele>60.437202914617956</ele>
        <time>2026-08-15T11:15:58Z</time>
      </trkpt>
      <trkpt lat="36.617911586555" lon="114.48479832115558">
        <ele>61.06036351248622</ele>
        <time>2026-08-15T11:16:04Z</time>
      </trkpt>
      <trkpt lat="36.61787907955306" lon="114.48485447142323">
        <ele>60.946833588182926</ele>
        <time>2026-08-15T11:16:07Z</time>
      </trkpt>
      <trkpt lat="36.61788142847607" lon="114.48495312224463">
        <ele>60.484066498465836</ele>
        <time>2026-08-15T11:16:11Z</time>
      </trkpt>
      <trkpt lat="36.61784565882569" lon="114.48514503601426">
        <ele>60.449128554202616</ele>
        <time>2026-08-15T11:16:19Z</time>
      </trkpt>
      <trkpt lat="36.61772658792257" lon="114.4853203928876">
        <ele>59.301810066215694</ele>
        <time>2026-08-15T11:16:29Z</time>
      </trkpt>
      <trkpt lat="36.61769470035696" lon="114.48546390429904">
        <ele>59.72402195446193</ele>
        <time>2026-08-15T11:16:35Z</time>
      </trkpt>
      <trkpt lat="36.61771910925438" lon="114.48566870538724">
        <ele>59.61222220119089</ele>
        <time>2026-08-15T11:16:44Z</time>
      </trkpt>
      <trkpt lat="36.617697844865" lon="114.48581329957933">
        <ele>60.32305989507586</ele>
        <time>2026-08-15T11:16:50Z</time>
      </trkpt>
      <trkpt lat="36.61756386474345" lon="114.48600265356886">
        <ele>60.48677561990917</ele>
        <time>2026-08-15T11:17:02Z</time>
      </trkpt>
      <trkpt lat="36.61754970789308" lon="114.48606046418666">
        <ele>60.95552506484091</ele>
        <time>2026-08-15T11:17:05Z</time>
      </trkpt>
      <trkpt lat="36.61755665295602" lon="114.48613119785188">
        <ele>60.28234213590622</ele>
        <time>2026-08-15T11:17:08Z</time>
      </trkpt>
      <trkpt lat="36.61751494493592" lon="114.48633375043583">
        <ele>61.38231300935149</ele>
        <time>2026-08-15T11:17:17Z</time>
      </trkpt>
      <trkpt lat="36.61745388023881" lon="114.48660310448851">
        <ele>61.107802585698664</ele>
        <time>2026-08-15T11:17:29Z</time>
      </trkpt>
      <trkpt lat="36.6174506413762" lon="114.4867421511998">
        <ele>60.76658604759723</ele>
        <time>2026-08-15T11:17:35Z</time>
      </trkpt>
      <trkpt lat="36.617477101980676" lon="114.48685610746926">
        <ele>60.882967261597514</ele>
        <time>2026-08-15T11:17:41Z</time>
      </trkpt>
      <trkpt lat="36.6175426757916" lon="114.4869198623296">
        <ele>59.581092429347336</ele>
        <time>2026-08-15T11:17:47Z</time>
      </trkpt>
      <trkpt lat="36.617472128062175" lon="114.48694446509593">
        <ele>59.806102071888745</ele>
        <time>2026-08-15T11:17:56Z</time>
      </trkpt>
      <trkpt lat="36.617459111141784" lon="114.48708057163991">
        <ele>57.60510908346623</ele>
        <time>2026-08-15T11:18:02Z</time>
      </trkpt>
      <trkpt lat="36.617408600975814" lon="114.48717609490345">
        <ele>58.44855705462396</ele>
        <time>2026-08-15T11:18:08Z</time>
      </trkpt>
      <trkpt lat="36.61744227611003" lon="114.48732136097574">
        <ele>58.952268371358514</ele>
        <time>2026-08-15T11:18:14Z</time>
      </trkpt>
      <trkpt lat="36.617360317491354" lon="114.4876520330286">
        <ele>59.69970498327166</ele>
        <time>2026-08-15T11:18:30Z</time>
      </trkpt>
      <trkpt lat="36.617335445153614" lon="114.48773462590049">
        <ele>60.17796609736979</ele>
        <time>2026-08-15T11:18:33Z</time>
      </trkpt>
      <trkpt lat="36.617206509293865" lon="114.4878840929549">
        <ele>59.95014263037592</ele>
        <time>2026-08-15T11:18:42Z</time>
      </trkpt>
      <trkpt lat="36.617100654175445" lon="114.48793662373014">
        <ele>60.31318581383675</ele>
        <time>2026-08-15T11:18:48Z</time>
      </trkpt>
      <trkpt lat="36.617038969895944" lon="114.48793158937563">
        <ele>60.86096761934459</ele>
        <time>2026-08-15T11:18:51Z</time>
      </trkpt>
      <trkpt lat="36.616915207073724" lon="114.48787253086674">
        <ele>61.172469241544604</ele>
        <time>2026-08-15T11:18:57Z</time>
      </trkpt>
      <trkpt lat="36.61681078325303" lon="114.48772112032175">
        <ele>62.02692318614572</ele>
        <time>2026-08-15T11:19:06Z</time>
      </trkpt>
      <trkpt lat="36.616511019667925" lon="114.48765706340582">
        <ele>62.383796378970146</ele>
        <time>2026-08-15T11:19:21Z</time>
      </trkpt>
      <trkpt lat="36.61622605334679" lon="114.48759537912066">
        <ele>62.59320777095854</ele>
        <time>2026-08-15T11:19:33Z</time>
      </trkpt>
      <trkpt lat="36.61603075498569" lon="114.48759621141416">
        <ele>62.277713847346604</ele>
        <time>2026-08-15T11:19:45Z</time>
      </trkpt>
      <trkpt lat="36.61596930736702" lon="114.48757261247744">
        <ele>61.528432842344046</ele>
        <time>2026-08-15T11:19:48Z</time>
      </trkpt>
      <trkpt lat="36.615689258767574" lon="114.48755877780026">
        <ele>63.158239104785025</ele>
        <time>2026-08-15T11:20:03Z</time>
      </trkpt>
      <trkpt lat="36.61563341470603" lon="114.48755892701475">
        <ele>63.31150203105062</ele>
        <time>2026-08-15T11:20:06Z</time>
      </trkpt>
      <trkpt lat="36.61554602918649" lon="114.48745996312499">
        <ele>61.89083200413734</ele>
        <time>2026-08-15T11:20:12Z</time>
      </trkpt>
      <trkpt lat="36.615514282989345" lon="114.48738009056427">
        <ele>62.07827817462385</ele>
        <time>2026-08-15T11:20:15Z</time>
      </trkpt>
      <trkpt lat="36.615521879606185" lon="114.48729885933624">
        <ele>62.25293835904449</ele>
        <time>2026-08-15T11:20:18Z</time>
      </trkpt>
      <trkpt lat="36.61549551500502" lon="114.48720707155718">
        <ele>62.35447658598423</ele>
        <time>2026-08-15T11:20:22Z</time>
      </trkpt>
      <trkpt lat="36.61541896661015" lon="114.48715428974982">
        <ele>61.85476269759238</ele>
        <time>2026-08-15T11:20:26Z</time>
      </trkpt>
      <trkpt lat="36.615333390527965" lon="114.48689715963934">
        <ele>62.084206661209464</ele>
        <time>2026-08-15T11:20:37Z</time>
      </trkpt>
      <trkpt lat="36.61526823004853" lon="114.48675378627843">
        <ele>63.95620859134942</ele>
        <time>2026-08-15T11:20:43Z</time>
      </trkpt>
      <trkpt lat="36.61525515359678" lon="114.48667958808451">
        <ele>63.01472555566579</ele>
        <time>2026-08-15T11:20:46Z</time>
      </trkpt>
      <trkpt lat="36.61532535023779" lon="114.48645440248463">
        <ele>62.26762300170958</ele>
        <time>2026-08-15T11:20:55Z</time>
      </trkpt>
      <trkpt lat="36.61530291006879" lon="114.48639007673881">
        <ele>61.13840131741017</ele>
        <time>2026-08-15T11:20:58Z</time>
      </trkpt>
      <trkpt lat="36.61509322816875" lon="114.4863627590114">
        <ele>62.00485072378069</ele>
        <time>2026-08-15T11:21:10Z</time>
      </trkpt>
      <trkpt lat="36.61502739500715" lon="114.48633474498591">
        <ele>62.143610619939864</ele>
        <time>2026-08-15T11:21:13Z</time>
      </trkpt>
      <trkpt lat="36.61498587509893" lon="114.48628050876995">
        <ele>62.00521554145962</ele>
        <time>2026-08-15T11:21:16Z</time>
      </trkpt>
      <trkpt lat="36.61496808053786" lon="114.48621701508617">
        <ele>61.49671402666718</ele>
        <time>2026-08-15T11:21:19Z</time>
      </trkpt>
      <trkpt lat="36.614916619468296" lon="114.48619807123185">
        <ele>62.06171106919646</ele>
        <time>2026-08-15T11:21:22Z</time>
      </trkpt>
      <trkpt lat="36.614796275157154" lon="114.48620449382348">
        <ele>62.13965308107436</ele>
        <time>2026-08-15T11:21:28Z</time>
      </trkpt>
      <trkpt lat="36.614536377641215" lon="114.48606590301725">
        <ele>62.49677334725857</ele>
        <time>2026-08-15T11:21:43Z</time>
      </trkpt>
      <trkpt lat="36.61428180794155" lon="114.48588123091571">
        <ele>60.876184741035104</ele>
        <time>2026-08-15T11:21:58Z</time>
      </trkpt>
      <trkpt lat="36.61424401639675" lon="114.48585040140692">
        <ele>60.8977239606902</ele>
        <time>2026-08-15T11:22:01Z</time>
      </trkpt>
      <trkpt lat="36.61395011495324" lon="114.48582581543124">
        <ele>60.568228133022785</ele>
        <time>2026-08-15T11:22:16Z</time>
      </trkpt>
      <trkpt lat="36.6136000208825" lon="114.48579369771922">
        <ele>61.077991540543735</ele>
        <time>2026-08-15T11:22:33Z</time>
      </trkpt>
      <trkpt lat="36.61341647220011" lon="114.4858105691497">
        <ele>60.735210600309074</ele>
        <time>2026-08-15T11:22:41Z</time>
      </trkpt>
      <trkpt lat="36.613332498106445" lon="114.48576425813708">
        <ele>60.45765418373048</ele>
        <time>2026-08-15T11:22:45Z</time>
      </trkpt>
      <trkpt lat="36.613232946792515" lon="114.48561361800209">
        <ele>60.46969988569617</ele>
        <time>2026-08-15T11:22:52Z</time>
      </trkpt>
      <trkpt lat="36.61324987019257" lon="114.48533039289272">
        <ele>60.98266121279448</ele>
        <time>2026-08-15T11:23:04Z</time>
      </trkpt>
      <trkpt lat="36.613267602766584" lon="114.48526628107932">
        <ele>61.279058115556836</ele>
        <time>2026-08-15T11:23:07Z</time>
      </trkpt>
      <trkpt lat="36.61323160959278" lon="114.48519692104189">
        <ele>60.048610099591315</ele>
        <time>2026-08-15T11:23:13Z</time>
      </trkpt>
      <trkpt lat="36.613274021116474" lon="114.48500619443801">
        <ele>61.221642561256886</ele>
        <time>2026-08-15T11:23:22Z</time>
      </trkpt>
      <trkpt lat="36.613252957387665" lon="114.48485229916189">
        <ele>61.40092224255204</ele>
        <time>2026-08-15T11:23:28Z</time>
      </trkpt>
      <trkpt lat="36.61328842542311" lon="114.48450659500566">
        <ele>62.69778141193092</ele>
        <time>2026-08-15T11:23:43Z</time>
      </trkpt>
      <trkpt lat="36.61327668925165" lon="114.48444532068959">
        <ele>62.452330260537565</ele>
        <time>2026-08-15T11:23:46Z</time>
      </trkpt>
      <trkpt lat="36.61321592225899" lon="114.48440394495562">
        <ele>62.907602918334305</ele>
        <time>2026-08-15T11:23:52Z</time>
      </trkpt>
      <trkpt lat="36.613515330721775" lon="114.484401654437">
        <ele>61.47542253974825</ele>
        <time>2026-08-15T11:24:13Z</time>
      </trkpt>
      <trkpt lat="36.61358586804805" lon="114.4844093408414">
        <ele>61.17481506150216</ele>
        <time>2026-08-15T11:24:16Z</time>
      </trkpt>
      <trkpt lat="36.61363810712328" lon="114.4843791575924">
        <ele>64.01399630587548</ele>
        <time>2026-08-15T11:24:19Z</time>
      </trkpt>
      <trkpt lat="36.61369953642794" lon="114.48437922319059">
        <ele>62.510195032693446</ele>
        <time>2026-08-15T11:24:25Z</time>
      </trkpt>
      <trkpt lat="36.6137720075916" lon="114.48435263121">
        <ele>61.20926454104483</ele>
        <time>2026-08-15T11:24:32Z</time>
      </trkpt>
      <trkpt lat="36.613820557787506" lon="114.48430318267815">
        <ele>60.434555481188</ele>
        <time>2026-08-15T11:24:36Z</time>
      </trkpt>
      <trkpt lat="36.613807054424946" lon="114.4841076677475">
        <ele>61.147109031677246</ele>
        <time>2026-08-15T11:24:44Z</time>
      </trkpt>
      <trkpt lat="36.61386518916338" lon="114.48369876622733">
        <ele>60.79978527966887</ele>
        <time>2026-08-15T11:25:00Z</time>
      </trkpt>
      <trkpt lat="36.613908362672014" lon="114.48333809781157">
        <ele>61.33941832743585</ele>
        <time>2026-08-15T11:25:15Z</time>
      </trkpt>
      <trkpt lat="36.61391477341831" lon="114.48304506541923">
        <ele>60.801584862172604</ele>
        <time>2026-08-15T11:25:27Z</time>
      </trkpt>
      <trkpt lat="36.61398698834077" lon="114.4828749638044">
        <ele>60.717069015838206</ele>
        <time>2026-08-15T11:25:36Z</time>
      </trkpt>
      <trkpt lat="36.61402649065983" lon="114.48269626644374">
        <ele>59.90066480636597</ele>
        <time>2026-08-15T11:25:45Z</time>
      </trkpt>
      <trkpt lat="36.614044576257356" lon="114.48242520386238">
        <ele>59.27396441344172</ele>
        <time>2026-08-15T11:25:57Z</time>
      </trkpt>
      <trkpt lat="36.61403182735803" lon="114.48231422494558">
        <ele>59.98657749593258</ele>
        <time>2026-08-15T11:26:03Z</time>
      </trkpt>
      <trkpt lat="36.614004919266655" lon="114.48226299767774">
        <ele>60.042728764005005</ele>
        <time>2026-08-15T11:26:06Z</time>
      </trkpt>
      <trkpt lat="36.614027143628064" lon="114.48219352704564">
        <ele>60.88893593009561</ele>
        <time>2026-08-15T11:26:09Z</time>
      </trkpt>
      <trkpt lat="36.61407503138017" lon="114.4821636210992">
        <ele>60.53084618411958</ele>
        <time>2026-08-15T11:26:12Z</time>
      </trkpt>
      <trkpt lat="36.614138497003154" lon="114.48215285788186">
        <ele>61.217339877039194</ele>
        <time>2026-08-15T11:26:18Z</time>
      </trkpt>
      <trkpt lat="36.61419133522113" lon="114.48219782362902">
        <ele>62.0468377424404</ele>
        <time>2026-08-15T11:26:21Z</time>
      </trkpt>
      <trkpt lat="36.61428909484558" lon="114.48219988582883">
        <ele>61.507204135879874</ele>
        <time>2026-08-15T11:26:27Z</time>
      </trkpt>
      <trkpt lat="36.614397202997246" lon="114.4821563170005">
        <ele>61.60505495592952</ele>
        <time>2026-08-15T11:26:33Z</time>
      </trkpt>
      <trkpt lat="36.61445571546923" lon="114.48215978037415">
        <ele>61.48443503677845</ele>
        <time>2026-08-15T11:26:36Z</time>
      </trkpt>
      <trkpt lat="36.6144874423746" lon="114.48209985514407">
        <ele>62.30153895448893</ele>
        <time>2026-08-15T11:26:43Z</time>
      </trkpt>
      <trkpt lat="36.614590025994815" lon="114.48213044007014">
        <ele>63.01115711592138</ele>
        <time>2026-08-15T11:26:49Z</time>
      </trkpt>
      <trkpt lat="36.614612648337356" lon="114.4820448403616">
        <ele>61.97899895813316</ele>
        <time>2026-08-15T11:26:55Z</time>
      </trkpt>
      <trkpt lat="36.61464781399743" lon="114.48205455034515">
        <ele>62.51144910696894</ele>
        <time>2026-08-15T11:27:07Z</time>
      </trkpt>
    </trkseg>
  </trk>
</gpx>