<?xml version="1.0" encoding="UTF-8"?>
<gpx xmlns="http://www.topografix.com/GPX/1/1" xmlns:gpxtpx="http://www.garmin.com/xmlschemas/TrackPointExtension/v1" xmlns:xsi="http://www.w3.org/2001/XMLSchema-instance" xsi:schemaLocation="http://www.topografix.com/GPX/1/1 http://www.topografix.com/GPX/1/1/gpx.xsd" version="1.1" creator="gpx.py -- https://github.com/tkrajina/gpxpy">
  <trk>
    <name>gpx from keep</name>
    <type>Run</type>
    <trkseg>
      <trkpt lat="34.82973353723536" lon="113.65736221563341">
        <ele>82.6773681640625</ele>
        <time>2026-08-31T00:09:12Z</time>
      </trkpt>
      <trkpt lat="34.82974804779736" lon="113.65702954086447">
        <ele>87.1086614523083</ele>
        <time>2026-08-31T00:09:21Z</time>
      </trkpt>
      <trkpt lat="34.82975611497332" lon="113.65678045483291">
        <ele>89.19723764248192</ele>
        <time>2026-08-31T00:09:27Z</time>
      </trkpt>
      <trkpt lat="34.829787645078945" lon="113.65668148455049">
        <ele>91.10131765436381</ele>
        <time>2026-08-31T00:09:30Z</time>
      </trkpt>
      <trkpt lat="34.829779519207825" lon="113.6564994176088">
        <ele>88.24941488169134</ele>
        <time>2026-08-31T00:09:36Z</time>
      </trkpt>
      <trkpt lat="34.829809359870104" lon="113.65641002550899">
        <ele>90.04106187354773</ele>
        <time>2026-08-31T00:09:39Z</time>
      </trkpt>
      <trkpt lat="34.82981152706769" lon="113.6561375357514">
        <ele>88.98491699248552</ele>
        <time>2026-08-31T00:09:48Z</time>
      </trkpt>
      <trkpt lat="34.82984536318735" lon="113.65598554810039">
        <ele>88.52663047332317</ele>
        <time>2026-08-31T00:09:54Z</time>
      </trkpt>
      <trkpt lat="34.83011165662518" lon="113.65596071750073">
        <ele>88.85916925873607</ele>
        <time>2026-08-31T00:10:36Z</time>
      </trkpt>
      <trkpt lat="34.83028101155871" lon="113.65587901420194">
        <ele>89.0659529780969</ele>
        <time>2026-08-31T00:10:45Z</time>
      </trkpt>
      <trkpt lat="34.83035152852231" lon="113.65592209838545">
        <ele>89.15799589920789</ele>
        <time>2026-08-31T00:10:48Z</time>
      </trkpt>
      <trkpt lat="34.830407148267284" lon="113.65609445859684">
        <ele>88.57596347481012</ele>
        <time>2026-08-31T00:10:54Z</time>
      </trkpt>
      <trkpt lat="34.830464038272325" lon="113.65618302179269">
        <ele>89.04031512141228</ele>
        <time>2026-08-31T00:10:57Z</time>
      </trkpt>
      <trkpt lat="34.83055539294139" lon="113.65623263294262">
        <ele>88.76096596382558</ele>
        <time>2026-08-31T00:11:00Z</time>
      </trkpt>
      <trkpt lat="34.830764026107374" lon="113.65622427086018">
        <ele>89.75095179956406</ele>
        <time>2026-08-31T00:11:07Z</time>
      </trkpt>
      <trkpt lat="34.83097212903182" lon="113.65613916132688">
        <ele>90.06050238572061</ele>
        <time>2026-08-31T00:11:16Z</time>
      </trkpt>
      <trkpt lat="34.831285692322915" lon="113.65619981121121">
        <ele>90.51183262001723</ele>
        <time>2026-08-31T00:11:28Z</time>
      </trkpt>
      <trkpt lat="34.83135225634431" lon="113.65624725059004">
        <ele>90.0064743058756</ele>
        <time>2026-08-31T00:11:31Z</time>
      </trkpt>
      <trkpt lat="34.83142506873906" lon="113.65625346752518">
        <ele>91.23201537504792</ele>
        <time>2026-08-31T00:11:34Z</time>
      </trkpt>
      <trkpt lat="34.831687121926926" lon="113.65610503786002">
        <ele>89.67394756991416</ele>
        <time>2026-08-31T00:11:46Z</time>
      </trkpt>
      <trkpt lat="34.831802893151206" lon="113.65603359447641">
        <ele>89.31762148160487</ele>
        <time>2026-08-31T00:11:52Z</time>
      </trkpt>
      <trkpt lat="34.83184554232661" lon="113.65597842178148">
        <ele>89.06647778954357</ele>
        <time>2026-08-31T00:11:55Z</time>
      </trkpt>
      <trkpt lat="34.83190103603203" lon="113.65594043082233">
        <ele>88.42900151014328</ele>
        <time>2026-08-31T00:11:58Z</time>
      </trkpt>
      <trkpt lat="34.83197596394841" lon="113.65594068877276">
        <ele>89.39337659347802</ele>
        <time>2026-08-31T00:12:01Z</time>
      </trkpt>
      <trkpt lat="34.83214288814271" lon="113.65609362249339">
        <ele>89.51437369640917</ele>
        <time>2026-08-31T00:12:10Z</time>
      </trkpt>
      <trkpt lat="34.83227859978711" lon="113.65613703083733">
        <ele>89.7531115328893</ele>
        <time>2026-08-31T00:12:16Z</time>
      </trkpt>
      <trkpt lat="34.83248059093989" lon="113.65608592972264">
        <ele>90.11721811629832</ele>
        <time>2026-08-31T00:12:25Z</time>
      </trkpt>
      <trkpt lat="34.832632768380144" lon="113.6559135152793">
        <ele>89.91342002619058</ele>
        <time>2026-08-31T00:12:34Z</time>
      </trkpt>
      <trkpt lat="34.83269460378561" lon="113.6558650289916">
        <ele>90.15835927799344</ele>
        <time>2026-08-31T00:12:37Z</time>
      </trkpt>
      <trkpt lat="34.83276063331813" lon="113.65586250006375">
        <ele>89.99710172694176</ele>
        <time>2026-08-31T00:12:40Z</time>
      </trkpt>
      <trkpt lat="34.83281735961937" lon="113.65590391732671">
        <ele>89.1170239308849</ele>
        <time>2026-08-31T00:12:43Z</time>
      </trkpt>
      <trkpt lat="34.832950584339095" lon="113.65610710770221">
        <ele>90.50262043531984</ele>
        <time>2026-08-31T00:12:52Z</time>
      </trkpt>
      <trkpt lat="34.833105114737656" lon="113.65624243465392">
        <ele>89.19906656537205</ele>
        <time>2026-08-31T00:13:01Z</time>
      </trkpt>
      <trkpt lat="34.83331008292767" lon="113.65633305665271">
        <ele>89.44217605423182</ele>
        <time>2026-08-31T00:13:11Z</time>
      </trkpt>
      <trkpt lat="34.833562953531704" lon="113.65635077046889">
        <ele>90.14211161155254</ele>
        <time>2026-08-31T00:13:22Z</time>
      </trkpt>
      <trkpt lat="34.833767444008366" lon="113.65627678248802">
        <ele>88.4513505846262</ele>
        <time>2026-08-31T00:13:32Z</time>
      </trkpt>
      <trkpt lat="34.83388624084109" lon="113.65621950264418">
        <ele>88.73531164973974</ele>
        <time>2026-08-31T00:13:38Z</time>
      </trkpt>
      <trkpt lat="34.83409854213211" lon="113.65602216682466">
        <ele>89.48262514453381</ele>
        <time>2026-08-31T00:13:50Z</time>
      </trkpt>
      <trkpt lat="34.83423537153069" lon="113.65575977805688">
        <ele>88.54279464390129</ele>
        <time>2026-08-31T00:14:02Z</time>
      </trkpt>
      <trkpt lat="34.8342740001041" lon="113.65550069769245">
        <ele>86.41010516323149</ele>
        <time>2026-08-31T00:14:11Z</time>
      </trkpt>
      <trkpt lat="34.83423678118186" lon="113.65525181026291">
        <ele>86.40113297663629</ele>
        <time>2026-08-31T00:14:20Z</time>
      </trkpt>
      <trkpt lat="34.83414308218012" lon="113.6550690543124">
        <ele>86.18751436285675</ele>
        <time>2026-08-31T00:14:29Z</time>
      </trkpt>
      <trkpt lat="34.83403629608241" lon="113.65503960709727">
        <ele>85.54873330425471</ele>
        <time>2026-08-31T00:14:35Z</time>
      </trkpt>
      <trkpt lat="34.833839975893746" lon="113.6548107184898">
        <ele>86.07253254950047</ele>
        <time>2026-08-31T00:14:47Z</time>
      </trkpt>
      <trkpt lat="34.833794336401134" lon="113.65475128173742">
        <ele>85.99829991348088</ele>
        <time>2026-08-31T00:14:50Z</time>
      </trkpt>
      <trkpt lat="34.83367192118616" lon="113.65469331712451">
        <ele>87.23143880814314</ele>
        <time>2026-08-31T00:14:56Z</time>
      </trkpt>
      <trkpt lat="34.8336442277696" lon="113.65464533043021">
        <ele>86.51005166675895</ele>
        <time>2026-08-31T00:14:59Z</time>
      </trkpt>
      <trkpt lat="34.833665611705456" lon="113.65448541152624">
        <ele>87.26045506261289</ele>
        <time>2026-08-31T00:15:05Z</time>
      </trkpt>
      <trkpt lat="34.833710998602236" lon="113.65444265233305">
        <ele>87.71020703483373</ele>
        <time>2026-08-31T00:15:08Z</time>
      </trkpt>
      <trkpt lat="34.8336329822139" lon="113.65417961929474">
        <ele>86.94572227448225</ele>
        <time>2026-08-31T00:15:22Z</time>
      </trkpt>
      <trkpt lat="34.83367568758355" lon="113.65409541657722">
        <ele>88.37414213363081</ele>
        <time>2026-08-31T00:15:26Z</time>
      </trkpt>
      <trkpt lat="34.833578016006136" lon="113.65411267923993">
        <ele>88.1360362060368</ele>
        <time>2026-08-31T00:15:30Z</time>
      </trkpt>
      <trkpt lat="34.83346920501475" lon="113.65417683203117">
        <ele>87.62525760754943</ele>
        <time>2026-08-31T00:15:34Z</time>
      </trkpt>
      <trkpt lat="34.83340023501471" lon="113.65415028555093">
        <ele>87.16163313854486</ele>
        <time>2026-08-31T00:15:38Z</time>
      </trkpt>
      <trkpt lat="34.83335599495471" lon="113.65404400609587">
        <ele>86.79682984016836</ele>
        <time>2026-08-31T00:15:42Z</time>
      </trkpt>
      <trkpt lat="34.833298915818055" lon="113.65400453160468">
        <ele>87.22282530739903</ele>
        <time>2026-08-31T00:15:45Z</time>
      </trkpt>
      <trkpt lat="34.83317951814145" lon="113.65400631288678">
        <ele>87.5220185155049</ele>
        <time>2026-08-31T00:15:54Z</time>
      </trkpt>
      <trkpt lat="34.83297776827041" lon="113.65409852633543">
        <ele>87.05144009087235</ele>
        <time>2026-08-31T00:16:06Z</time>
      </trkpt>
      <trkpt lat="34.83292065201615" lon="113.65415384149514">
        <ele>87.99191294517368</ele>
        <time>2026-08-31T00:16:09Z</time>
      </trkpt>
      <trkpt lat="34.83288553080938" lon="113.65421563120634">
        <ele>88.57763553410769</ele>
        <time>2026-08-31T00:16:12Z</time>
      </trkpt>
      <trkpt lat="34.83288368396705" lon="113.65429983308788">
        <ele>89.38597380556166</ele>
        <time>2026-08-31T00:16:15Z</time>
      </trkpt>
      <trkpt lat="34.832834773039" lon="113.65430064028865">
        <ele>88.63569075241685</ele>
        <time>2026-08-31T00:16:18Z</time>
      </trkpt>
      <trkpt lat="34.832853275923995" lon="113.65389101176486">
        <ele>88.54950972739607</ele>
        <time>2026-08-31T00:16:33Z</time>
      </trkpt>
      <trkpt lat="34.83280589684855" lon="113.65368478842744">
        <ele>89.89597902446985</ele>
        <time>2026-08-31T00:16:42Z</time>
      </trkpt>
      <trkpt lat="34.832749406531555" lon="113.65355614670258">
        <ele>88.3423463543877</ele>
        <time>2026-08-31T00:16:48Z</time>
      </trkpt>
      <trkpt lat="34.832764641454936" lon="113.65347674432927">
        <ele>88.14572137687355</ele>
        <time>2026-08-31T00:16:51Z</time>
      </trkpt>
      <trkpt lat="34.83299601601057" lon="113.65325213222575">
        <ele>90.02322412282228</ele>
        <time>2026-08-31T00:17:06Z</time>
      </trkpt>
      <trkpt lat="34.83308496791191" lon="113.65316148178484">
        <ele>89.51046783011407</ele>
        <time>2026-08-31T00:17:18Z</time>
      </trkpt>
      <trkpt lat="34.83310490646655" lon="113.65299086652647">
        <ele>89.77915337868035</ele>
        <time>2026-08-31T00:17:25Z</time>
      </trkpt>
      <trkpt lat="34.83314143546716" lon="113.6528753371117">
        <ele>90.17623523436487</ele>
        <time>2026-08-31T00:17:29Z</time>
      </trkpt>
      <trkpt lat="34.83346304396238" lon="113.65276428146176">
        <ele>87.75926457066089</ele>
        <time>2026-08-31T00:17:45Z</time>
      </trkpt>
      <trkpt lat="34.8336893212178" lon="113.6526209041766">
        <ele>89.47530907206237</ele>
        <time>2026-08-31T00:17:57Z</time>
      </trkpt>
      <trkpt lat="34.834013538723674" lon="113.65253534480532">
        <ele>90.04807252716273</ele>
        <time>2026-08-31T00:18:12Z</time>
      </trkpt>
      <trkpt lat="34.83430897577335" lon="113.65245162527896">
        <ele>89.90615103580058</ele>
        <time>2026-08-31T00:18:24Z</time>
      </trkpt>
      <trkpt lat="34.834577005954195" lon="113.65233720264825">
        <ele>90.02739597670734</ele>
        <time>2026-08-31T00:18:36Z</time>
      </trkpt>
      <trkpt lat="34.834770131315224" lon="113.65225875706089">
        <ele>90.42500818613917</ele>
        <time>2026-08-31T00:18:45Z</time>
      </trkpt>
      <trkpt lat="34.83504147256421" lon="113.65217382683036">
        <ele>90.05961434729397</ele>
        <time>2026-08-31T00:18:57Z</time>
      </trkpt>
      <trkpt lat="34.83509433326044" lon="113.65212440964633">
        <ele>88.87203022744507</ele>
        <time>2026-08-31T00:19:00Z</time>
      </trkpt>
      <trkpt lat="34.835405602735044" lon="113.65200340197742">
        <ele>90.21396511234343</ele>
        <time>2026-08-31T00:19:15Z</time>
      </trkpt>
      <trkpt lat="34.83569045987721" lon="113.65187918399181">
        <ele>90.84081251639873</ele>
        <time>2026-08-31T00:19:27Z</time>
      </trkpt>
      <trkpt lat="34.83571814412156" lon="113.65181131407573">
        <ele>91.09703287761658</ele>
        <time>2026-08-31T00:19:31Z</time>
      </trkpt>
      <trkpt lat="34.8355804712495" lon="113.65160984053466">
        <ele>89.68438766151667</ele>
        <time>2026-08-31T00:19:43Z</time>
      </trkpt>
      <trkpt lat="34.83558643804393" lon="113.65153304454695">
        <ele>89.37212732527405</ele>
        <time>2026-08-31T00:19:46Z</time>
      </trkpt>
      <trkpt lat="34.835566952938784" lon="113.65146155369814">
        <ele>87.29995910264552</ele>
        <time>2026-08-31T00:19:49Z</time>
      </trkpt>
      <trkpt lat="34.83559595502982" lon="113.65137146118784">
        <ele>86.03346755541861</ele>
        <time>2026-08-31T00:19:52Z</time>
      </trkpt>
      <trkpt lat="34.83559473409678" lon="113.65128591763754">
        <ele>86.95854749716818</ele>
        <time>2026-08-31T00:19:55Z</time>
      </trkpt>
      <trkpt lat="34.83571750821976" lon="113.6512234464069">
        <ele>87.87769877817482</ele>
        <time>2026-08-31T00:20:01Z</time>
      </trkpt>
      <trkpt lat="34.836026877385805" lon="113.65110558138358">
        <ele>89.28818509913981</ele>
        <time>2026-08-31T00:20:16Z</time>
      </trkpt>
      <trkpt lat="34.8361429186417" lon="113.65104292816613">
        <ele>87.93439780455083</ele>
        <time>2026-08-31T00:20:22Z</time>
      </trkpt>
      <trkpt lat="34.83639053886041" lon="113.6511447704774">
        <ele>86.40463816840202</ele>
        <time>2026-08-31T00:20:34Z</time>
      </trkpt>
      <trkpt lat="34.836456358189835" lon="113.6511524136014">
        <ele>87.16767554543912</ele>
        <time>2026-08-31T00:20:37Z</time>
      </trkpt>
      <trkpt lat="34.83674309121208" lon="113.65100978051571">
        <ele>88.97998476494104</ele>
        <time>2026-08-31T00:20:52Z</time>
      </trkpt>
      <trkpt lat="34.8368661639757" lon="113.65099793086019">
        <ele>88.19089630059898</ele>
        <time>2026-08-31T00:20:58Z</time>
      </trkpt>
      <trkpt lat="34.83699397457786" lon="113.65103561556143">
        <ele>87.84867777489126</ele>
        <time>2026-08-31T00:21:04Z</time>
      </trkpt>
      <trkpt lat="34.8371068282215" lon="113.65110376177309">
        <ele>87.80667575635016</ele>
        <time>2026-08-31T00:21:10Z</time>
      </trkpt>
      <trkpt lat="34.83741032694127" lon="113.65106346249668">
        <ele>89.6772770313546</ele>
        <time>2026-08-31T00:21:25Z</time>
      </trkpt>
      <trkpt lat="34.83753133998339" lon="113.65103816770774">
        <ele>88.95020208321512</ele>
        <time>2026-08-31T00:21:31Z</time>
      </trkpt>
      <trkpt lat="34.83768518399258" lon="113.65095457389097">
        <ele>89.26875610277057</ele>
        <time>2026-08-31T00:21:39Z</time>
      </trkpt>
      <trkpt lat="34.837851710331805" lon="113.65098781055615">
        <ele>89.54828641563654</ele>
        <time>2026-08-31T00:21:47Z</time>
      </trkpt>
      <trkpt lat="34.83814888712671" lon="113.6508671287505">
        <ele>88.20015977695584</ele>
        <time>2026-08-31T00:22:03Z</time>
      </trkpt>
      <trkpt lat="34.83845571826731" lon="113.65073119872187">
        <ele>86.69858691934496</ele>
        <time>2026-08-31T00:22:18Z</time>
      </trkpt>
      <trkpt lat="34.83875213377319" lon="113.65059019446822">
        <ele>87.96435164939612</ele>
        <time>2026-08-31T00:22:33Z</time>
      </trkpt>
      <trkpt lat="34.8389383414855" lon="113.65051021047132">
        <ele>87.93806424178183</ele>
        <time>2026-08-31T00:22:42Z</time>
      </trkpt>
      <trkpt lat="34.83903611668419" lon="113.6506291248483">
        <ele>84.9671642575413</ele>
        <time>2026-08-31T00:22:54Z</time>
      </trkpt>
      <trkpt lat="34.83930312298839" lon="113.65061325232995">
        <ele>84.35390158742666</ele>
        <time>2026-08-31T00:23:09Z</time>
      </trkpt>
      <trkpt lat="34.83960537247622" lon="113.65069821098831">
        <ele>86.204944181256</ele>
        <time>2026-08-31T00:23:24Z</time>
      </trkpt>
      <trkpt lat="34.839663494818225" lon="113.65058850323932">
        <ele>88.61620792094618</ele>
        <time>2026-08-31T00:23:33Z</time>
      </trkpt>
      <trkpt lat="34.839775915673556" lon="113.65055520487158">
        <ele>87.46908940281719</ele>
        <time>2026-08-31T00:23:39Z</time>
      </trkpt>
      <trkpt lat="34.8398250603519" lon="113.6505662677119">
        <ele>87.41437735781074</ele>
        <time>2026-08-31T00:23:43Z</time>
      </trkpt>
      <trkpt lat="34.83988716028792" lon="113.6506615295448">
        <ele>86.21490326337516</ele>
        <time>2026-08-31T00:23:51Z</time>
      </trkpt>
      <trkpt lat="34.83996263030173" lon="113.65064932991018">
        <ele>85.90537086408585</ele>
        <time>2026-08-31T00:23:55Z</time>
      </trkpt>
      <trkpt lat="34.84002392170057" lon="113.65058959491948">
        <ele>85.58690968062729</ele>
        <time>2026-08-31T00:23:59Z</time>
      </trkpt>
      <trkpt lat="34.840125802671565" lon="113.65040116540418">
        <ele>86.36983889061958</ele>
        <time>2026-08-31T00:24:08Z</time>
      </trkpt>
      <trkpt lat="34.8401259645362" lon="113.65023393354288">
        <ele>85.94352733716369</ele>
        <time>2026-08-31T00:24:17Z</time>
      </trkpt>
      <trkpt lat="34.840196971862085" lon="113.65022218959191">
        <ele>82.58552378602326</ele>
        <time>2026-08-31T00:24:20Z</time>
      </trkpt>
      <trkpt lat="34.84015864172004" lon="113.64998398885291">
        <ele>86.03340588510036</ele>
        <time>2026-08-31T00:24:29Z</time>
      </trkpt>
      <trkpt lat="34.8402588165126" lon="113.65012834125874">
        <ele>86.22377915494144</ele>
        <time>2026-08-31T00:24:32Z</time>
      </trkpt>
      <trkpt lat="34.840604887466355" lon="113.65011388500369">
        <ele>88.01222331542522</ele>
        <time>2026-08-31T00:24:35Z</time>
      </trkpt>
      <trkpt lat="34.84066519970179" lon="113.65008411394558">
        <ele>88.55182236991823</ele>
        <time>2026-08-31T00:24:38Z</time>
      </trkpt>
      <trkpt lat="34.840743839679774" lon="113.64999510933198">
        <ele>88.12637383770198</ele>
        <time>2026-08-31T00:24:44Z</time>
      </trkpt>
      <trkpt lat="34.84101767191016" lon="113.64990145534583">
        <ele>86.72552387882024</ele>
        <time>2026-08-31T00:24:59Z</time>
      </trkpt>
      <trkpt lat="34.84119180264127" lon="113.64983411809395">
        <ele>85.66313465498388</ele>
        <time>2026-08-31T00:25:08Z</time>
      </trkpt>
      <trkpt lat="34.84124795084785" lon="113.64982742166376">
        <ele>85.72716897446662</ele>
        <time>2026-08-31T00:25:11Z</time>
      </trkpt>
      <trkpt lat="34.84128974037036" lon="113.64979784106083">
        <ele>85.51081836409867</ele>
        <time>2026-08-31T00:25:14Z</time>
      </trkpt>
      <trkpt lat="34.84134505378411" lon="113.6497941282888">
        <ele>85.27446763776243</ele>
        <time>2026-08-31T00:25:17Z</time>
      </trkpt>
      <trkpt lat="34.84139615286602" lon="113.64974711106969">
        <ele>86.8697640998289</ele>
        <time>2026-08-31T00:25:23Z</time>
      </trkpt>
      <trkpt lat="34.84168820734468" lon="113.64961559373369">
        <ele>89.47842468321323</ele>
        <time>2026-08-31T00:25:35Z</time>
      </trkpt>
      <trkpt lat="34.84198394460133" lon="113.64950686298371">
        <ele>89.26408931799233</ele>
        <time>2026-08-31T00:25:48Z</time>
      </trkpt>
      <trkpt lat="34.84225599474571" lon="113.6493977317848">
        <ele>89.88284374587238</ele>
        <time>2026-08-31T00:26:00Z</time>
      </trkpt>
      <trkpt lat="34.842531607643444" lon="113.64930021597111">
        <ele>89.20338609535247</ele>
        <time>2026-08-31T00:26:14Z</time>
      </trkpt>
      <trkpt lat="34.842768720326" lon="113.64918811752538">
        <ele>87.6948411418125</ele>
        <time>2026-08-31T00:26:26Z</time>
      </trkpt>
      <trkpt lat="34.84292991240546" lon="113.64906541498122">
        <ele>85.90908983815461</ele>
        <time>2026-08-31T00:26:35Z</time>
      </trkpt>
      <trkpt lat="34.8429649715865" lon="113.6488856906913">
        <ele>85.75538452155888</ele>
        <time>2026-08-31T00:26:44Z</time>
      </trkpt>
      <trkpt lat="34.84303682141404" lon="113.64887495526766">
        <ele>86.44996590446681</ele>
        <time>2026-08-31T00:26:47Z</time>
      </trkpt>
      <trkpt lat="34.84308238710941" lon="113.64882622741884">
        <ele>85.95242882426828</ele>
        <time>2026-08-31T00:26:50Z</time>
      </trkpt>
      <trkpt lat="34.84331126033287" lon="113.64871118976478">
        <ele>87.21149949543178</ele>
        <time>2026-08-31T00:27:02Z</time>
      </trkpt>
      <trkpt lat="34.8433675960038" lon="113.64880565516307">
        <ele>87.05558084882796</ele>
        <time>2026-08-31T00:27:08Z</time>
      </trkpt>
      <trkpt lat="34.84337376644104" lon="113.64916300021784">
        <ele>88.63381784968078</ele>
        <time>2026-08-31T00:27:20Z</time>
      </trkpt>
      <trkpt lat="34.8433777914862" lon="113.64950423814317">
        <ele>89.0970141319558</ele>
        <time>2026-08-31T00:27:32Z</time>
      </trkpt>
      <trkpt lat="34.84339073125825" lon="113.64965712241884">
        <ele>88.80851857271045</ele>
        <time>2026-08-31T00:27:38Z</time>
      </trkpt>
      <trkpt lat="34.843363386768516" lon="113.64970634591472">
        <ele>89.10006853472441</ele>
        <time>2026-08-31T00:27:41Z</time>
      </trkpt>
      <trkpt lat="34.843286521417006" lon="113.64971412535589">
        <ele>88.30237312149256</ele>
        <time>2026-08-31T00:27:44Z</time>
      </trkpt>
      <trkpt lat="34.843000258106024" lon="113.64984285699202">
        <ele>86.10233535524458</ele>
        <time>2026-08-31T00:27:58Z</time>
      </trkpt>
      <trkpt lat="34.84282962778583" lon="113.64992426792843">
        <ele>85.71569968387485</ele>
        <time>2026-08-31T00:28:06Z</time>
      </trkpt>
      <trkpt lat="34.84274142968484" lon="113.64993491655606">
        <ele>85.72620466910303</ele>
        <time>2026-08-31T00:28:10Z</time>
      </trkpt>
      <trkpt lat="34.84246836770743" lon="113.65005751337165">
        <ele>85.00749660097063</ele>
        <time>2026-08-31T00:28:25Z</time>
      </trkpt>
      <trkpt lat="34.84221439762297" lon="113.65017722353025">
        <ele>85.26947138179094</ele>
        <time>2026-08-31T00:28:37Z</time>
      </trkpt>
      <trkpt lat="34.84191319780435" lon="113.65028890575165">
        <ele>83.18794628791511</ele>
        <time>2026-08-31T00:28:52Z</time>
      </trkpt>
      <trkpt lat="34.8416130538321" lon="113.65035601855891">
        <ele>85.88702527154237</ele>
        <time>2026-08-31T00:29:04Z</time>
      </trkpt>
      <trkpt lat="34.841357141812935" lon="113.65040533889757">
        <ele>84.90171973966062</ele>
        <time>2026-08-31T00:29:16Z</time>
      </trkpt>
      <trkpt lat="34.841296988361215" lon="113.6504341036663">
        <ele>84.74218708090484</ele>
        <time>2026-08-31T00:29:19Z</time>
      </trkpt>
      <trkpt lat="34.84122048217743" lon="113.65040690895283">
        <ele>84.7692689485848</ele>
        <time>2026-08-31T00:29:22Z</time>
      </trkpt>
      <trkpt lat="34.84100743634054" lon="113.65051865206316">
        <ele>86.89851241931319</ele>
        <time>2026-08-31T00:29:34Z</time>
      </trkpt>
      <trkpt lat="34.840860825667406" lon="113.65054734105125">
        <ele>87.60575323738158</ele>
        <time>2026-08-31T00:29:40Z</time>
      </trkpt>
      <trkpt lat="34.840655651704175" lon="113.65055156105608">
        <ele>86.78184810094535</ele>
        <time>2026-08-31T00:29:49Z</time>
      </trkpt>
      <trkpt lat="34.840376984409325" lon="113.65067336520984">
        <ele>86.24776904378086</ele>
        <time>2026-08-31T00:30:02Z</time>
      </trkpt>
      <trkpt lat="34.84031465945708" lon="113.65094033094456">
        <ele>84.92816451657563</ele>
        <time>2026-08-31T00:30:06Z</time>
      </trkpt>
      <trkpt lat="34.84023300346393" lon="113.65095941732471">
        <ele>85.0329833989963</ele>
        <time>2026-08-31T00:30:10Z</time>
      </trkpt>
      <trkpt lat="34.84010401236192" lon="113.65084769731202">
        <ele>84.25149112101644</ele>
        <time>2026-08-31T00:30:16Z</time>
      </trkpt>
      <trkpt lat="34.83984971689737" lon="113.6510301152106">
        <ele>87.6127464985475</ele>
        <time>2026-08-31T00:30:31Z</time>
      </trkpt>
      <trkpt lat="34.839642012850966" lon="113.65122045909752">
        <ele>88.45123629737645</ele>
        <time>2026-08-31T00:30:43Z</time>
      </trkpt>
      <trkpt lat="34.83937276093202" lon="113.65131638076599">
        <ele>88.80242168810219</ele>
        <time>2026-08-31T00:30:55Z</time>
      </trkpt>
      <trkpt lat="34.83930220740499" lon="113.65132548470962">
        <ele>88.22157241683453</ele>
        <time>2026-08-31T00:30:58Z</time>
      </trkpt>
      <trkpt lat="34.83907379816211" lon="113.65142603785839">
        <ele>87.3616817528382</ele>
        <time>2026-08-31T00:31:10Z</time>
      </trkpt>
      <trkpt lat="34.839000455402946" lon="113.65144267411851">
        <ele>87.5726062161848</ele>
        <time>2026-08-31T00:31:13Z</time>
      </trkpt>
      <trkpt lat="34.83894362449184" lon="113.65148840846095">
        <ele>86.92401094455272</ele>
        <time>2026-08-31T00:31:16Z</time>
      </trkpt>
      <trkpt lat="34.83868666209324" lon="113.65157745593693">
        <ele>86.77887901756912</ele>
        <time>2026-08-31T00:31:28Z</time>
      </trkpt>
      <trkpt lat="34.83851988466773" lon="113.6517062007709">
        <ele>87.43725387379527</ele>
        <time>2026-08-31T00:31:37Z</time>
      </trkpt>
      <trkpt lat="34.83833811939331" lon="113.65180285971897">
        <ele>87.8918646350503</ele>
        <time>2026-08-31T00:31:46Z</time>
      </trkpt>
      <trkpt lat="34.83828416387995" lon="113.65185147032436">
        <ele>87.89882507361472</ele>
        <time>2026-08-31T00:31:49Z</time>
      </trkpt>
      <trkpt lat="34.83823055975876" lon="113.65187351295967">
        <ele>87.73914900422096</ele>
        <time>2026-08-31T00:31:52Z</time>
      </trkpt>
      <trkpt lat="34.83798771490372" lon="113.65206602292145">
        <ele>88.87316575180739</ele>
        <time>2026-08-31T00:32:05Z</time>
      </trkpt>
      <trkpt lat="34.837678214974304" lon="113.65218076993389">
        <ele>89.79336488898844</ele>
        <time>2026-08-31T00:32:19Z</time>
      </trkpt>
      <trkpt lat="34.83735746398083" lon="113.65229697513328">
        <ele>90.50460060313344</ele>
        <time>2026-08-31T00:32:34Z</time>
      </trkpt>
      <trkpt lat="34.83717017673583" lon="113.65238148067293">
        <ele>90.3613210991025</ele>
        <time>2026-08-31T00:32:43Z</time>
      </trkpt>
      <trkpt lat="34.83688622097393" lon="113.6525879350793">
        <ele>90.06184922810644</ele>
        <time>2026-08-31T00:32:58Z</time>
      </trkpt>
      <trkpt lat="34.836592421203136" lon="113.65279670286907">
        <ele>88.97844652272761</ele>
        <time>2026-08-31T00:33:13Z</time>
      </trkpt>
      <trkpt lat="34.83635556992489" lon="113.65294816215987">
        <ele>88.4548585191369</ele>
        <time>2026-08-31T00:33:25Z</time>
      </trkpt>
      <trkpt lat="34.836308653417085" lon="113.65299982175738">
        <ele>87.76504971738905</ele>
        <time>2026-08-31T00:33:28Z</time>
      </trkpt>
      <trkpt lat="34.836290350572774" lon="113.65308114666598">
        <ele>86.97583829797804</ele>
        <time>2026-08-31T00:33:31Z</time>
      </trkpt>
      <trkpt lat="34.83623644808351" lon="113.65313013319063">
        <ele>88.1427718391642</ele>
        <time>2026-08-31T00:33:34Z</time>
      </trkpt>
      <trkpt lat="34.83593396056077" lon="113.65324311418256">
        <ele>88.0622678603977</ele>
        <time>2026-08-31T00:33:46Z</time>
      </trkpt>
      <trkpt lat="34.835630026859306" lon="113.65337589881">
        <ele>87.868284041062</ele>
        <time>2026-08-31T00:33:58Z</time>
      </trkpt>
      <trkpt lat="34.835311222495065" lon="113.65350561903524">
        <ele>86.2913844641298</ele>
        <time>2026-08-31T00:34:11Z</time>
      </trkpt>
      <trkpt lat="34.83499862140793" lon="113.65362211668136">
        <ele>85.97807436715811</ele>
        <time>2026-08-31T00:34:24Z</time>
      </trkpt>
      <trkpt lat="34.83471258508685" lon="113.65375938443474">
        <ele>85.69981097895652</ele>
        <time>2026-08-31T00:34:36Z</time>
      </trkpt>
      <trkpt lat="34.834578252394834" lon="113.65380718365917">
        <ele>86.25440490897745</ele>
        <time>2026-08-31T00:34:42Z</time>
      </trkpt>
      <trkpt lat="34.834462110790405" lon="113.65378913193797">
        <ele>87.55808057263494</ele>
        <time>2026-08-31T00:34:48Z</time>
      </trkpt>
      <trkpt lat="34.834197355260585" lon="113.65389617430066">
        <ele>88.14601315651089</ele>
        <time>2026-08-31T00:35:00Z</time>
      </trkpt>
      <trkpt lat="34.834041905443065" lon="113.6539952151237">
        <ele>86.92468563560396</ele>
        <time>2026-08-31T00:35:09Z</time>
      </trkpt>
      <trkpt lat="34.834013661822375" lon="113.65397872384422">
        <ele>87.11684543825686</ele>
        <time>2026-08-31T00:35:12Z</time>
      </trkpt>
    </trkseg>
  </trk>
</gpx>