<?xml version="1.0" encoding="UTF-8"?>
<gpx xmlns="http://www.topografix.com/GPX/1/1" xmlns:gpxtpx="http://www.garmin.com/xmlschemas/TrackPointExtension/v1" xmlns:xsi="http://www.w3.org/2001/XMLSchema-instance" xsi:schemaLocation="http://www.topografix.com/GPX/1/1 http://www.topografix.com/GPX/1/1/gpx.xsd" version="1.1" creator="gpx.py -- https://github.com/tkrajina/gpxpy">
  <trk>
    <name>gpx from keep</name>
    <type>Walk</type>
    <trkseg>
      <trkpt lat="34.82973023649678" lon="113.65719534221421">
        <ele>90.53662109375</ele>
        <time>2026-08-07T01:02:43Z</time>
      </trkpt>
      <trkpt lat="34.82976399278795" lon="113.65681783897003">
        <ele>89.3779111765325</ele>
        <time>2026-08-07T01:02:58Z</time>
      </trkpt>
      <trkpt lat="34.8297752376365" lon="113.65656083809004">
        <ele>89.34113650489599</ele>
        <time>2026-08-07T01:03:07Z</time>
      </trkpt>
      <trkpt lat="34.829795988812286" lon="113.65645653728966">
        <ele>90.14740043412894</ele>
        <time>2026-08-07T01:03:10Z</time>
      </trkpt>
      <trkpt lat="34.82977451824841" lon="113.65637433942756">
        <ele>89.92074993811548</ele>
        <time>2026-08-07T01:03:13Z</time>
      </trkpt>
      <trkpt lat="34.82982653641498" lon="113.65605927639551">
        <ele>88.80964269395918</ele>
        <time>2026-08-07T01:03:25Z</time>
      </trkpt>
      <trkpt lat="34.829801661263986" lon="113.6557097582095">
        <ele>87.56714850477874</ele>
        <time>2026-08-07T01:03:37Z</time>
      </trkpt>
      <trkpt lat="34.82979777694362" lon="113.65563695927851">
        <ele>87.80274764075875</ele>
        <time>2026-08-07T01:03:40Z</time>
      </trkpt>
      <trkpt lat="34.82982813258384" lon="113.65548356832443">
        <ele>87.89054872002453</ele>
        <time>2026-08-07T01:03:46Z</time>
      </trkpt>
      <trkpt lat="34.82985280220856" lon="113.65509297415193">
        <ele>88.29529380053282</ele>
        <time>2026-08-07T01:04:01Z</time>
      </trkpt>
      <trkpt lat="34.82984583729713" lon="113.65498929666815">
        <ele>87.70786290243268</ele>
        <time>2026-08-07T01:04:07Z</time>
      </trkpt>
      <trkpt lat="34.82976858870765" lon="113.65501009607729">
        <ele>87.4524751342833</ele>
        <time>2026-08-07T01:04:13Z</time>
      </trkpt>
      <trkpt lat="34.829724576179544" lon="113.65504856679901">
        <ele>87.40668400656432</ele>
        <time>2026-08-07T01:04:16Z</time>
      </trkpt>
      <trkpt lat="34.829422151915544" lon="113.65519079072772">
        <ele>87.37439639493823</ele>
        <time>2026-08-07T01:04:31Z</time>
      </trkpt>
      <trkpt lat="34.829126578994895" lon="113.65531763555518">
        <ele>86.41601087898016</ele>
        <time>2026-08-07T01:04:46Z</time>
      </trkpt>
      <trkpt lat="34.828790219966265" lon="113.65544939695197">
        <ele>87.4913166416809</ele>
        <time>2026-08-07T01:05:02Z</time>
      </trkpt>
      <trkpt lat="34.8284320410367" lon="113.65560718199067">
        <ele>86.92933129798621</ele>
        <time>2026-08-07T01:05:20Z</time>
      </trkpt>
      <trkpt lat="34.828126913797696" lon="113.65573527905858">
        <ele>86.95398591738194</ele>
        <time>2026-08-07T01:05:35Z</time>
      </trkpt>
      <trkpt lat="34.827865352583494" lon="113.65584087429677">
        <ele>87.02175337076187</ele>
        <time>2026-08-07T01:05:47Z</time>
      </trkpt>
      <trkpt lat="34.82782104613136" lon="113.65588539221275">
        <ele>87.71599454898387</ele>
        <time>2026-08-07T01:05:50Z</time>
      </trkpt>
      <trkpt lat="34.82750552768578" lon="113.65598300137054">
        <ele>87.19588116090745</ele>
        <time>2026-08-07T01:06:05Z</time>
      </trkpt>
      <trkpt lat="34.827205932445715" lon="113.65610394280955">
        <ele>87.83637339062989</ele>
        <time>2026-08-07T01:06:20Z</time>
      </trkpt>
      <trkpt lat="34.826945129762805" lon="113.65620513418784">
        <ele>87.2948895515874</ele>
        <time>2026-08-07T01:06:32Z</time>
      </trkpt>
      <trkpt lat="34.82682519332591" lon="113.65624230745817">
        <ele>87.24238674528897</ele>
        <time>2026-08-07T01:06:38Z</time>
      </trkpt>
      <trkpt lat="34.82664484471372" lon="113.65633943043979">
        <ele>86.15967413596809</ele>
        <time>2026-08-07T01:06:47Z</time>
      </trkpt>
      <trkpt lat="34.82633524453953" lon="113.65647038076722">
        <ele>85.8528917087242</ele>
        <time>2026-08-07T01:07:02Z</time>
      </trkpt>
      <trkpt lat="34.826106373950566" lon="113.65658241830847">
        <ele>85.36517087649554</ele>
        <time>2026-08-07T01:07:13Z</time>
      </trkpt>
      <trkpt lat="34.82590996746204" lon="113.65664029723735">
        <ele>86.38202210888267</ele>
        <time>2026-08-07T01:07:22Z</time>
      </trkpt>
      <trkpt lat="34.82574441096358" lon="113.65671844132926">
        <ele>86.77082848921418</ele>
        <time>2026-08-07T01:07:31Z</time>
      </trkpt>
      <trkpt lat="34.825672988641514" lon="113.65672241828182">
        <ele>87.15294497646391</ele>
        <time>2026-08-07T01:07:34Z</time>
      </trkpt>
      <trkpt lat="34.82554547466029" lon="113.65680793930055">
        <ele>85.34678582195193</ele>
        <time>2026-08-07T01:07:40Z</time>
      </trkpt>
      <trkpt lat="34.82530713865971" lon="113.65692719030638">
        <ele>84.57530061528087</ele>
        <time>2026-08-07T01:07:52Z</time>
      </trkpt>
      <trkpt lat="34.82499087448542" lon="113.65703387468689">
        <ele>85.80055771023035</ele>
        <time>2026-08-07T01:08:07Z</time>
      </trkpt>
      <trkpt lat="34.824806789650886" lon="113.65711219366989">
        <ele>87.10315293632448</ele>
        <time>2026-08-07T01:08:16Z</time>
      </trkpt>
      <trkpt lat="34.824732156680646" lon="113.65711490501461">
        <ele>86.44593090098351</ele>
        <time>2026-08-07T01:08:19Z</time>
      </trkpt>
      <trkpt lat="34.824608856815374" lon="113.65721414942806">
        <ele>86.90387058909982</ele>
        <time>2026-08-07T01:08:25Z</time>
      </trkpt>
      <trkpt lat="34.82447005599699" lon="113.6572467284587">
        <ele>86.72183676064014</ele>
        <time>2026-08-07T01:08:31Z</time>
      </trkpt>
      <trkpt lat="34.82428327113955" lon="113.65733819068922">
        <ele>86.55570599250495</ele>
        <time>2026-08-07T01:08:40Z</time>
      </trkpt>
      <trkpt lat="34.824087291945304" lon="113.65739168030342">
        <ele>85.48149468190968</ele>
        <time>2026-08-07T01:08:49Z</time>
      </trkpt>
      <trkpt lat="34.82403868789276" lon="113.65743229607459">
        <ele>85.70006904564798</ele>
        <time>2026-08-07T01:08:52Z</time>
      </trkpt>
      <trkpt lat="34.82392433649344" lon="113.6574656089394">
        <ele>85.94612259138376</ele>
        <time>2026-08-07T01:08:58Z</time>
      </trkpt>
      <trkpt lat="34.823751877001875" lon="113.65757629385776">
        <ele>85.5527671277523</ele>
        <time>2026-08-07T01:09:06Z</time>
      </trkpt>
      <trkpt lat="34.823560981467864" lon="113.6576091239499">
        <ele>86.04729551728815</ele>
        <time>2026-08-07T01:09:14Z</time>
      </trkpt>
      <trkpt lat="34.82349884530721" lon="113.65765198413477">
        <ele>86.05046273767948</ele>
        <time>2026-08-07T01:09:18Z</time>
      </trkpt>
      <trkpt lat="34.823222384709965" lon="113.65775712788633">
        <ele>87.41629060171545</ele>
        <time>2026-08-07T01:09:31Z</time>
      </trkpt>
      <trkpt lat="34.822915182581035" lon="113.65788538049237">
        <ele>87.95847596228123</ele>
        <time>2026-08-07T01:09:46Z</time>
      </trkpt>
      <trkpt lat="34.822596750416125" lon="113.65801881576053">
        <ele>87.62108178529888</ele>
        <time>2026-08-07T01:10:01Z</time>
      </trkpt>
      <trkpt lat="34.82240815463517" lon="113.6580847553536">
        <ele>87.35827058367431</ele>
        <time>2026-08-07T01:10:10Z</time>
      </trkpt>
      <trkpt lat="34.822342339676695" lon="113.65809243555955">
        <ele>86.75129729602486</ele>
        <time>2026-08-07T01:10:13Z</time>
      </trkpt>
      <trkpt lat="34.82229590437867" lon="113.65813028298133">
        <ele>86.14041011873633</ele>
        <time>2026-08-07T01:10:16Z</time>
      </trkpt>
      <trkpt lat="34.822225387859916" lon="113.65814238915175">
        <ele>87.32594215963036</ele>
        <time>2026-08-07T01:10:19Z</time>
      </trkpt>
      <trkpt lat="34.82217955998219" lon="113.65817794763207">
        <ele>86.53211517632008</ele>
        <time>2026-08-07T01:10:22Z</time>
      </trkpt>
      <trkpt lat="34.822051672357" lon="113.65817112848777">
        <ele>86.26808139123023</ele>
        <time>2026-08-07T01:10:28Z</time>
      </trkpt>
      <trkpt lat="34.82191899509359" lon="113.65823183237634">
        <ele>85.99127441179007</ele>
        <time>2026-08-07T01:10:34Z</time>
      </trkpt>
      <trkpt lat="34.82187434980042" lon="113.65829093919804">
        <ele>84.98783931415528</ele>
        <time>2026-08-07T01:10:37Z</time>
      </trkpt>
      <trkpt lat="34.82156871874193" lon="113.6584247457797">
        <ele>85.28351681120694</ele>
        <time>2026-08-07T01:10:52Z</time>
      </trkpt>
      <trkpt lat="34.821261071091406" lon="113.65855533642048">
        <ele>85.41668561380357</ele>
        <time>2026-08-07T01:11:08Z</time>
      </trkpt>
      <trkpt lat="34.82117754684293" lon="113.6585724373598">
        <ele>84.80974238738418</ele>
        <time>2026-08-07T01:11:12Z</time>
      </trkpt>
      <trkpt lat="34.820915062293295" lon="113.65869010553176">
        <ele>85.00949716195464</ele>
        <time>2026-08-07T01:11:26Z</time>
      </trkpt>
      <trkpt lat="34.82066788627592" lon="113.6587794504963">
        <ele>84.6539039183408</ele>
        <time>2026-08-07T01:11:38Z</time>
      </trkpt>
      <trkpt lat="34.82062017422615" lon="113.65878205858546">
        <ele>85.91713036969304</ele>
        <time>2026-08-07T01:11:41Z</time>
      </trkpt>
      <trkpt lat="34.82055296430957" lon="113.65873541820785">
        <ele>88.67177959624678</ele>
        <time>2026-08-07T01:11:50Z</time>
      </trkpt>
      <trkpt lat="34.820530677201035" lon="113.65865199332006">
        <ele>89.23688765522093</ele>
        <time>2026-08-07T01:11:53Z</time>
      </trkpt>
      <trkpt lat="34.82056648713195" lon="113.65859574051458">
        <ele>88.55927752703428</ele>
        <time>2026-08-07T01:11:56Z</time>
      </trkpt>
      <trkpt lat="34.82059047323988" lon="113.65822783299288">
        <ele>87.75409122370183</ele>
        <time>2026-08-07T01:12:11Z</time>
      </trkpt>
      <trkpt lat="34.820584357256486" lon="113.65815474399267">
        <ele>87.31565478723496</ele>
        <time>2026-08-07T01:12:14Z</time>
      </trkpt>
      <trkpt lat="34.820686427735495" lon="113.65805692394288">
        <ele>88.4599686153233</ele>
        <time>2026-08-07T01:12:20Z</time>
      </trkpt>
      <trkpt lat="34.821012697526974" lon="113.65798694609073">
        <ele>89.58944816235453</ele>
        <time>2026-08-07T01:12:35Z</time>
      </trkpt>
      <trkpt lat="34.82115190280679" lon="113.65796789244092">
        <ele>89.19238993991166</ele>
        <time>2026-08-07T01:12:41Z</time>
      </trkpt>
      <trkpt lat="34.821224151746996" lon="113.6579774737065">
        <ele>90.26228524558246</ele>
        <time>2026-08-07T01:12:44Z</time>
      </trkpt>
      <trkpt lat="34.82134539630801" lon="113.65790028591694">
        <ele>89.7568339202553</ele>
        <time>2026-08-07T01:12:50Z</time>
      </trkpt>
      <trkpt lat="34.82138975003412" lon="113.65781208354147">
        <ele>90.28013344481587</ele>
        <time>2026-08-07T01:12:53Z</time>
      </trkpt>
      <trkpt lat="34.821487822573594" lon="113.65775166336128">
        <ele>90.84595482423902</ele>
        <time>2026-08-07T01:12:59Z</time>
      </trkpt>
      <trkpt lat="34.821785885636906" lon="113.6576436440884">
        <ele>91.5214813221246</ele>
        <time>2026-08-07T01:13:12Z</time>
      </trkpt>
      <trkpt lat="34.82189950033737" lon="113.65762260885533">
        <ele>90.75642545334995</ele>
        <time>2026-08-07T01:13:18Z</time>
      </trkpt>
      <trkpt lat="34.82198642568211" lon="113.65755014338514">
        <ele>90.08875560108572</ele>
        <time>2026-08-07T01:13:24Z</time>
      </trkpt>
      <trkpt lat="34.822209610299836" lon="113.65743672929598">
        <ele>90.02470939047635</ele>
        <time>2026-08-07T01:13:36Z</time>
      </trkpt>
      <trkpt lat="34.82236477828059" lon="113.65740788399937">
        <ele>90.3637942429632</ele>
        <time>2026-08-07T01:13:42Z</time>
      </trkpt>
      <trkpt lat="34.82253929168705" lon="113.65731915887017">
        <ele>88.49942247290164</ele>
        <time>2026-08-07T01:13:51Z</time>
      </trkpt>
      <trkpt lat="34.822832525902506" lon="113.65728502116286">
        <ele>89.4166022632271</ele>
        <time>2026-08-07T01:14:03Z</time>
      </trkpt>
      <trkpt lat="34.822903488136646" lon="113.65725943727244">
        <ele>88.72461425699294</ele>
        <time>2026-08-07T01:14:06Z</time>
      </trkpt>
      <trkpt lat="34.82302538347923" lon="113.65716010390751">
        <ele>89.89916947949678</ele>
        <time>2026-08-07T01:14:12Z</time>
      </trkpt>
      <trkpt lat="34.82307835873349" lon="113.65714193784346">
        <ele>89.95551435183734</ele>
        <time>2026-08-07T01:14:15Z</time>
      </trkpt>
      <trkpt lat="34.82318499033028" lon="113.65706546041984">
        <ele>91.31276059802622</ele>
        <time>2026-08-07T01:14:21Z</time>
      </trkpt>
      <trkpt lat="34.823472915086306" lon="113.65694112772218">
        <ele>92.2567590251565</ele>
        <time>2026-08-07T01:14:36Z</time>
      </trkpt>
      <trkpt lat="34.823839941190464" lon="113.65681541142766">
        <ele>91.405567006208</ele>
        <time>2026-08-07T01:14:54Z</time>
      </trkpt>
      <trkpt lat="34.82395907923745" lon="113.65679205979544">
        <ele>91.62549505196512</ele>
        <time>2026-08-07T01:15:00Z</time>
      </trkpt>
      <trkpt lat="34.824148461951765" lon="113.65670209673753">
        <ele>90.83571686036885</ele>
        <time>2026-08-07T01:15:12Z</time>
      </trkpt>
      <trkpt lat="34.8242056333066" lon="113.65669326046691">
        <ele>90.84952874016017</ele>
        <time>2026-08-07T01:15:15Z</time>
      </trkpt>
      <trkpt lat="34.82447174368152" lon="113.65657833254484">
        <ele>90.14289131108671</ele>
        <time>2026-08-07T01:15:28Z</time>
      </trkpt>
      <trkpt lat="34.824606081729094" lon="113.65653961010861">
        <ele>91.41477385442704</ele>
        <time>2026-08-07T01:15:34Z</time>
      </trkpt>
      <trkpt lat="34.82471989964621" lon="113.65646536208425">
        <ele>91.89547276496887</ele>
        <time>2026-08-07T01:15:40Z</time>
      </trkpt>
      <trkpt lat="34.82502752488498" lon="113.65634513198216">
        <ele>90.8607413964346</ele>
        <time>2026-08-07T01:15:55Z</time>
      </trkpt>
      <trkpt lat="34.8250906262019" lon="113.65634137635632">
        <ele>91.3245362918824</ele>
        <time>2026-08-07T01:15:58Z</time>
      </trkpt>
      <trkpt lat="34.825135822314905" lon="113.65629186817202">
        <ele>91.38726667966694</ele>
        <time>2026-08-07T01:16:01Z</time>
      </trkpt>
      <trkpt lat="34.82527539133378" lon="113.65626906990306">
        <ele>90.49532169476151</ele>
        <time>2026-08-07T01:16:07Z</time>
      </trkpt>
      <trkpt lat="34.82532526363409" lon="113.65623059174585">
        <ele>89.6782548557967</ele>
        <time>2026-08-07T01:16:10Z</time>
      </trkpt>
      <trkpt lat="34.82558773537586" lon="113.65612784517457">
        <ele>89.11086717713624</ele>
        <time>2026-08-07T01:16:22Z</time>
      </trkpt>
      <trkpt lat="34.82569411342056" lon="113.65603855884854">
        <ele>89.86987861152738</ele>
        <time>2026-08-07T01:16:28Z</time>
      </trkpt>
      <trkpt lat="34.82579782795051" lon="113.65597905730993">
        <ele>89.6177167352289</ele>
        <time>2026-08-07T01:16:34Z</time>
      </trkpt>
      <trkpt lat="34.82601081309322" lon="113.65593162722736">
        <ele>91.15225045476109</ele>
        <time>2026-08-07T01:16:43Z</time>
      </trkpt>
      <trkpt lat="34.82630276287893" lon="113.65579236777664">
        <ele>90.34691164270043</ele>
        <time>2026-08-07T01:16:58Z</time>
      </trkpt>
      <trkpt lat="34.826544290756516" lon="113.6556832547777">
        <ele>90.13343167491257</ele>
        <time>2026-08-07T01:17:10Z</time>
      </trkpt>
      <trkpt lat="34.82685585953344" lon="113.65556517471389">
        <ele>90.09550378005952</ele>
        <time>2026-08-07T01:17:26Z</time>
      </trkpt>
      <trkpt lat="34.82693179003797" lon="113.65553344187933">
        <ele>90.30103132035583</ele>
        <time>2026-08-07T01:17:30Z</time>
      </trkpt>
      <trkpt lat="34.827016591427466" lon="113.65547104222311">
        <ele>90.42271312419325</ele>
        <time>2026-08-07T01:17:36Z</time>
      </trkpt>
      <trkpt lat="34.82725960005277" lon="113.65534126668734">
        <ele>91.41774630639702</ele>
        <time>2026-08-07T01:17:48Z</time>
      </trkpt>
      <trkpt lat="34.827389384452815" lon="113.65532185867939">
        <ele>90.939477160573</ele>
        <time>2026-08-07T01:17:54Z</time>
      </trkpt>
      <trkpt lat="34.82749145631515" lon="113.65524484144768">
        <ele>90.80434635374695</ele>
        <time>2026-08-07T01:18:00Z</time>
      </trkpt>
      <trkpt lat="34.827801205352905" lon="113.65512620565806">
        <ele>90.91383167356253</ele>
        <time>2026-08-07T01:18:12Z</time>
      </trkpt>
      <trkpt lat="34.82800598808829" lon="113.65505002420501">
        <ele>89.84518189169466</ele>
        <time>2026-08-07T01:18:21Z</time>
      </trkpt>
      <trkpt lat="34.82812420352292" lon="113.65503628693165">
        <ele>89.53016792889684</ele>
        <time>2026-08-07T01:18:27Z</time>
      </trkpt>
      <trkpt lat="34.82819872583871" lon="113.65499563412499">
        <ele>90.43589756730944</ele>
        <time>2026-08-07T01:18:33Z</time>
      </trkpt>
    </trkseg>
  </trk>
</gpx>