<?xml version="1.0" encoding="UTF-8"?>
<gpx xmlns="http://www.topografix.com/GPX/1/1" xmlns:gpxtpx="http://www.garmin.com/xmlschemas/TrackPointExtension/v1" xmlns:xsi="http://www.w3.org/2001/XMLSchema-instance" xsi:schemaLocation="http://www.topografix.com/GPX/1/1 http://www.topografix.com/GPX/1/1/gpx.xsd" version="1.1" creator="gpx.py -- https://github.com/tkrajina/gpxpy">
  <trk>
    <name>gpx from keep</name>
    <type>Ride</type>
    <trkseg>
      <trkpt lat="34.8357564764817" lon="113.6511750112397">
        <ele>85.8365478515625</ele>
        <time>2026-08-29T14:40:18Z</time>
      </trkpt>
      <trkpt lat="34.835501793548644" lon="113.65127317987688">
        <ele>87.72449579183012</ele>
        <time>2026-08-29T14:40:27Z</time>
      </trkpt>
      <trkpt lat="34.83542783850337" lon="113.65128401523219">
        <ele>89.15118129737675</ele>
        <time>2026-08-29T14:40:30Z</time>
      </trkpt>
      <trkpt lat="34.83538698129418" lon="113.65120326112225">
        <ele>87.63909684401006</ele>
        <time>2026-08-29T14:40:34Z</time>
      </trkpt>
      <trkpt lat="34.835283183033695" lon="113.65119903864274">
        <ele>88.86775666195899</ele>
        <time>2026-08-29T14:40:39Z</time>
      </trkpt>
      <trkpt lat="34.83507968356129" lon="113.65124666276229">
        <ele>89.74181949812919</ele>
        <time>2026-08-29T14:40:45Z</time>
      </trkpt>
      <trkpt lat="34.834937461812274" lon="113.65132216244936">
        <ele>91.97817247733474</ele>
        <time>2026-08-29T14:40:53Z</time>
      </trkpt>
      <trkpt lat="34.83486157493763" lon="113.65132470281809">
        <ele>94.93746331240982</ele>
        <time>2026-08-29T14:40:57Z</time>
      </trkpt>
      <trkpt lat="34.834525450233336" lon="113.65146903454418">
        <ele>94.51989272609353</ele>
        <time>2026-08-29T14:41:09Z</time>
      </trkpt>
      <trkpt lat="34.83445147454672" lon="113.65165617309898">
        <ele>89.96642878837883</ele>
        <time>2026-08-29T14:41:17Z</time>
      </trkpt>
      <trkpt lat="34.834146035059156" lon="113.65181579111052">
        <ele>95.75099535193294</ele>
        <time>2026-08-29T14:41:31Z</time>
      </trkpt>
      <trkpt lat="34.83372569644819" lon="113.65198159076347">
        <ele>88.7389925904572</ele>
        <time>2026-08-29T14:41:38Z</time>
      </trkpt>
      <trkpt lat="34.83355649790213" lon="113.65206436653958">
        <ele>89.1576008470729</ele>
        <time>2026-08-29T14:41:43Z</time>
      </trkpt>
      <trkpt lat="34.83355878575734" lon="113.65216927390391">
        <ele>90.2823452912271</ele>
        <time>2026-08-29T14:41:47Z</time>
      </trkpt>
      <trkpt lat="34.83358936856739" lon="113.65226437117443">
        <ele>92.09770744014531</ele>
        <time>2026-08-29T14:41:50Z</time>
      </trkpt>
      <trkpt lat="34.83359290556412" lon="113.65236858679647">
        <ele>93.31301459297538</ele>
        <time>2026-08-29T14:41:54Z</time>
      </trkpt>
      <trkpt lat="34.83353776789433" lon="113.65254684673683">
        <ele>94.90680172666907</ele>
        <time>2026-08-29T14:42:02Z</time>
      </trkpt>
      <trkpt lat="34.83348053700576" lon="113.65262706224003">
        <ele>95.04901605658233</ele>
        <time>2026-08-29T14:42:05Z</time>
      </trkpt>
      <trkpt lat="34.83325625853828" lon="113.65274858537526">
        <ele>96.28976052813232</ele>
        <time>2026-08-29T14:42:14Z</time>
      </trkpt>
      <trkpt lat="34.833174834988235" lon="113.65281873412835">
        <ele>96.90081494022161</ele>
        <time>2026-08-29T14:42:18Z</time>
      </trkpt>
      <trkpt lat="34.83313063535702" lon="113.65291249172863">
        <ele>97.05680207256228</ele>
        <time>2026-08-29T14:42:23Z</time>
      </trkpt>
      <trkpt lat="34.83311320955122" lon="113.65302354252489">
        <ele>96.88333070930094</ele>
        <time>2026-08-29T14:42:27Z</time>
      </trkpt>
      <trkpt lat="34.833003058388904" lon="113.65319686710498">
        <ele>95.89214965887368</ele>
        <time>2026-08-29T14:42:36Z</time>
      </trkpt>
      <trkpt lat="34.832811441422315" lon="113.6534132236454">
        <ele>93.92735704220831</ele>
        <time>2026-08-29T14:42:45Z</time>
      </trkpt>
      <trkpt lat="34.83277581140198" lon="113.65349919950906">
        <ele>93.32705251034349</ele>
        <time>2026-08-29T14:42:51Z</time>
      </trkpt>
      <trkpt lat="34.83281282027329" lon="113.65359787920436">
        <ele>93.58019330073148</ele>
        <time>2026-08-29T14:42:55Z</time>
      </trkpt>
      <trkpt lat="34.832826021608994" lon="113.65414326717851">
        <ele>95.55496960878372</ele>
        <time>2026-08-29T14:43:10Z</time>
      </trkpt>
      <trkpt lat="34.83285557629002" lon="113.65423757098918">
        <ele>94.12742675095797</ele>
        <time>2026-08-29T14:43:15Z</time>
      </trkpt>
      <trkpt lat="34.832895068498885" lon="113.65414437074256">
        <ele>90.74708316940814</ele>
        <time>2026-08-29T14:43:20Z</time>
      </trkpt>
      <trkpt lat="34.8329793392321" lon="113.654083069618">
        <ele>90.584651267156</ele>
        <time>2026-08-29T14:43:23Z</time>
      </trkpt>
      <trkpt lat="34.833065276672535" lon="113.654086779139">
        <ele>90.59914348926395</ele>
        <time>2026-08-29T14:43:26Z</time>
      </trkpt>
      <trkpt lat="34.83308094976616" lon="113.65419329240717">
        <ele>90.80945486202836</ele>
        <time>2026-08-29T14:43:29Z</time>
      </trkpt>
      <trkpt lat="34.83306113550261" lon="113.65427742704722">
        <ele>89.94048428256065</ele>
        <time>2026-08-29T14:43:31Z</time>
      </trkpt>
      <trkpt lat="34.83290631838871" lon="113.65439661687823">
        <ele>89.88286329712719</ele>
        <time>2026-08-29T14:43:36Z</time>
      </trkpt>
      <trkpt lat="34.832432067230215" lon="113.65455432695542">
        <ele>91.23157148063183</ele>
        <time>2026-08-29T14:43:48Z</time>
      </trkpt>
      <trkpt lat="34.83193623649574" lon="113.65469623746185">
        <ele>94.17432435415685</ele>
        <time>2026-08-29T14:44:03Z</time>
      </trkpt>
      <trkpt lat="34.83157381865916" lon="113.6549495490298">
        <ele>93.3988113924861</ele>
        <time>2026-08-29T14:44:14Z</time>
      </trkpt>
      <trkpt lat="34.83129731973476" lon="113.65501337443506">
        <ele>96.83335153665394</ele>
        <time>2026-08-29T14:44:23Z</time>
      </trkpt>
      <trkpt lat="34.83084060627054" lon="113.6552195736972">
        <ele>95.12743561621755</ele>
        <time>2026-08-29T14:44:35Z</time>
      </trkpt>
      <trkpt lat="34.830746978799866" lon="113.65523532969272">
        <ele>96.47011870797724</ele>
        <time>2026-08-29T14:44:38Z</time>
      </trkpt>
      <trkpt lat="34.830647848690646" lon="113.65531442931011">
        <ele>96.65858033671975</ele>
        <time>2026-08-29T14:44:41Z</time>
      </trkpt>
      <trkpt lat="34.830491024331586" lon="113.65536711124501">
        <ele>95.07145557925105</ele>
        <time>2026-08-29T14:44:45Z</time>
      </trkpt>
      <trkpt lat="34.83039417014659" lon="113.65543731703497">
        <ele>91.52546463254839</ele>
        <time>2026-08-29T14:44:47Z</time>
      </trkpt>
      <trkpt lat="34.82996962858831" lon="113.65555616656788">
        <ele>91.95888487901539</ele>
        <time>2026-08-29T14:45:03Z</time>
      </trkpt>
      <trkpt lat="34.82989498528277" lon="113.65559626652961">
        <ele>91.6988085526973</ele>
        <time>2026-08-29T14:45:06Z</time>
      </trkpt>
      <trkpt lat="34.82982627219905" lon="113.65601528559553">
        <ele>92.12095917668194</ele>
        <time>2026-08-29T14:45:20Z</time>
      </trkpt>
      <trkpt lat="34.829787481083684" lon="113.65648430086675">
        <ele>96.01667340379208</ele>
        <time>2026-08-29T14:45:36Z</time>
      </trkpt>
      <trkpt lat="34.82970574965607" lon="113.65678624355903">
        <ele>97.09010075964034</ele>
        <time>2026-08-29T14:45:45Z</time>
      </trkpt>
      <trkpt lat="34.82970734528325" lon="113.65690631732025">
        <ele>99.5359117127955</ele>
        <time>2026-08-29T14:45:48Z</time>
      </trkpt>
      <trkpt lat="34.82968537012403" lon="113.65702552275769">
        <ele>100.10589483752847</ele>
        <time>2026-08-29T14:45:52Z</time>
      </trkpt>
      <trkpt lat="34.829699165252265" lon="113.65733266862536">
        <ele>97.89613287057728</ele>
        <time>2026-08-29T14:45:58Z</time>
      </trkpt>
      <trkpt lat="34.829644827744595" lon="113.65764580370993">
        <ele>95.35079795774072</ele>
        <time>2026-08-29T14:46:05Z</time>
      </trkpt>
      <trkpt lat="34.8296144724533" lon="113.65774080880067">
        <ele>93.20349749457091</ele>
        <time>2026-08-29T14:46:10Z</time>
      </trkpt>
      <trkpt lat="34.8296591244474" lon="113.65781549908839">
        <ele>91.59017877280712</ele>
        <time>2026-08-29T14:46:14Z</time>
      </trkpt>
      <trkpt lat="34.829688051123235" lon="113.657903530969">
        <ele>91.40941218752414</ele>
        <time>2026-08-29T14:46:23Z</time>
      </trkpt>
    </trkseg>
  </trk>
</gpx>