<?xml version="1.0" encoding="UTF-8"?>
<gpx xmlns="http://www.topografix.com/GPX/1/1" xmlns:gpxtpx="http://www.garmin.com/xmlschemas/TrackPointExtension/v1" xmlns:xsi="http://www.w3.org/2001/XMLSchema-instance" xsi:schemaLocation="http://www.topografix.com/GPX/1/1 http://www.topografix.com/GPX/1/1/gpx.xsd" version="1.1" creator="gpx.py -- https://github.com/tkrajina/gpxpy">
  <trk>
    <name>gpx from keep</name>
    <type>Walk</type>
    <trkseg>
      <trkpt lat="34.827696190816205" lon="113.659776430324">
        <ele>90.81753937993199</ele>
        <time>2026-08-23T04:15:04Z</time>
      </trkpt>
      <trkpt lat="34.82764278366467" lon="113.6598859207111">
        <ele>94.03053202759475</ele>
        <time>2026-08-23T04:15:14Z</time>
      </trkpt>
      <trkpt lat="34.827619526682525" lon="113.66014422214005">
        <ele>97.56297940388322</ele>
        <time>2026-08-23T04:15:29Z</time>
      </trkpt>
      <trkpt lat="34.82765640602218" lon="113.66037951066032">
        <ele>94.49695427156985</ele>
        <time>2026-08-23T04:15:44Z</time>
      </trkpt>
      <trkpt lat="34.82768430673202" lon="113.66044708148887">
        <ele>93.64735112525523</ele>
        <time>2026-08-23T04:15:47Z</time>
      </trkpt>
      <trkpt lat="34.827737046012935" lon="113.66048174797842">
        <ele>92.01311973109841</ele>
        <time>2026-08-23T04:15:50Z</time>
      </trkpt>
      <trkpt lat="34.82774698948819" lon="113.66040395614934">
        <ele>90.61181706842035</ele>
        <time>2026-08-23T04:15:53Z</time>
      </trkpt>
      <trkpt lat="34.82792278598878" lon="113.66046555328651">
        <ele>88.54201713204384</ele>
        <time>2026-08-23T04:16:05Z</time>
      </trkpt>
      <trkpt lat="34.82796680643514" lon="113.66051529242799">
        <ele>88.35784038063139</ele>
        <time>2026-08-23T04:16:08Z</time>
      </trkpt>
      <trkpt lat="34.8280085760237" lon="113.66047806811052">
        <ele>88.74305556993932</ele>
        <time>2026-08-23T04:16:11Z</time>
      </trkpt>
      <trkpt lat="34.828054707487055" lon="113.66048779204391">
        <ele>89.29936744924635</ele>
        <time>2026-08-23T04:16:14Z</time>
      </trkpt>
      <trkpt lat="34.82813020762626" lon="113.66043057303959">
        <ele>88.65189748164266</ele>
        <time>2026-08-23T04:16:20Z</time>
      </trkpt>
      <trkpt lat="34.828188703635725" lon="113.66041567946901">
        <ele>88.34443034976721</ele>
        <time>2026-08-23T04:16:23Z</time>
      </trkpt>
      <trkpt lat="34.82829941808279" lon="113.66045045245603">
        <ele>88.88940292596817</ele>
        <time>2026-08-23T04:16:32Z</time>
      </trkpt>
      <trkpt lat="34.828529251937134" lon="113.66041621471561">
        <ele>90.27861183416098</ele>
        <time>2026-08-23T04:16:47Z</time>
      </trkpt>
      <trkpt lat="34.828574318836765" lon="113.66042688674254">
        <ele>90.00478777568787</ele>
        <time>2026-08-23T04:16:50Z</time>
      </trkpt>
      <trkpt lat="34.8286962277684" lon="113.66041545292352">
        <ele>89.86555451713502</ele>
        <time>2026-08-23T04:16:59Z</time>
      </trkpt>
      <trkpt lat="34.82880965977698" lon="113.66043663256822">
        <ele>89.4617620818317</ele>
        <time>2026-08-23T04:17:09Z</time>
      </trkpt>
      <trkpt lat="34.82896145521008" lon="113.66041088783139">
        <ele>90.63691192027181</ele>
        <time>2026-08-23T04:17:18Z</time>
      </trkpt>
      <trkpt lat="34.82906093997459" lon="113.66035315430142">
        <ele>89.51864493824542</ele>
        <time>2026-08-23T04:17:24Z</time>
      </trkpt>
      <trkpt lat="34.82910765706955" lon="113.66038166412683">
        <ele>90.00700580142438</ele>
        <time>2026-08-23T04:17:27Z</time>
      </trkpt>
      <trkpt lat="34.82920382513999" lon="113.66038853938154">
        <ele>89.92006041575223</ele>
        <time>2026-08-23T04:17:33Z</time>
      </trkpt>
      <trkpt lat="34.82934940736097" lon="113.66042561894841">
        <ele>90.38452875521034</ele>
        <time>2026-08-23T04:17:42Z</time>
      </trkpt>
      <trkpt lat="34.82942449336053" lon="113.66040620153578">
        <ele>93.20471531525254</ele>
        <time>2026-08-23T04:17:48Z</time>
      </trkpt>
      <trkpt lat="34.829474500098215" lon="113.6603480336607">
        <ele>91.12157667800784</ele>
        <time>2026-08-23T04:17:51Z</time>
      </trkpt>
      <trkpt lat="34.8295462335824" lon="113.66034695964795">
        <ele>89.93072147946805</ele>
        <time>2026-08-23T04:17:57Z</time>
      </trkpt>
      <trkpt lat="34.82961022933908" lon="113.6603070906272">
        <ele>88.26198310125619</ele>
        <time>2026-08-23T04:18:03Z</time>
      </trkpt>
      <trkpt lat="34.82963000146747" lon="113.66024322935115">
        <ele>86.49373569339514</ele>
        <time>2026-08-23T04:18:06Z</time>
      </trkpt>
      <trkpt lat="34.82966199966993" lon="113.66019870975232">
        <ele>86.96474369056523</ele>
        <time>2026-08-23T04:18:12Z</time>
      </trkpt>
      <trkpt lat="34.82992481897275" lon="113.66022511543001">
        <ele>84.55504251550883</ele>
        <time>2026-08-23T04:18:54Z</time>
      </trkpt>
      <trkpt lat="34.83020813432256" lon="113.66020020945072">
        <ele>87.01744280848652</ele>
        <time>2026-08-23T04:19:13Z</time>
      </trkpt>
      <trkpt lat="34.830510269277575" lon="113.66021659455782">
        <ele>87.18733423482627</ele>
        <time>2026-08-23T04:19:34Z</time>
      </trkpt>
      <trkpt lat="34.830731845993675" lon="113.66022242426783">
        <ele>89.54766987357289</ele>
        <time>2026-08-23T04:19:49Z</time>
      </trkpt>
      <trkpt lat="34.83078467604388" lon="113.66023802235287">
        <ele>91.02525184582919</ele>
        <time>2026-08-23T04:19:52Z</time>
      </trkpt>
      <trkpt lat="34.83099630305915" lon="113.66021256845623">
        <ele>94.11403312440962</ele>
        <time>2026-08-23T04:20:07Z</time>
      </trkpt>
      <trkpt lat="34.831116453838995" lon="113.66023191098616">
        <ele>93.33879096247256</ele>
        <time>2026-08-23T04:20:13Z</time>
      </trkpt>
      <trkpt lat="34.83124264678996" lon="113.66019965291797">
        <ele>91.69631720893085</ele>
        <time>2026-08-23T04:20:22Z</time>
      </trkpt>
      <trkpt lat="34.83128519841938" lon="113.66021745009256">
        <ele>91.69658685382456</ele>
        <time>2026-08-23T04:20:25Z</time>
      </trkpt>
      <trkpt lat="34.83160236414598" lon="113.66020325772897">
        <ele>94.32392735499889</ele>
        <time>2026-08-23T04:20:46Z</time>
      </trkpt>
      <trkpt lat="34.83164732435398" lon="113.6601849231264">
        <ele>92.89057901594788</ele>
        <time>2026-08-23T04:20:49Z</time>
      </trkpt>
      <trkpt lat="34.83179422471976" lon="113.66017228611084">
        <ele>92.5619812682271</ele>
        <time>2026-08-23T04:20:58Z</time>
      </trkpt>
      <trkpt lat="34.83185867507901" lon="113.66014572859052">
        <ele>90.58989860769361</ele>
        <time>2026-08-23T04:21:04Z</time>
      </trkpt>
      <trkpt lat="34.83196502096041" lon="113.66016151326484">
        <ele>91.67326128389686</ele>
        <time>2026-08-23T04:21:10Z</time>
      </trkpt>
      <trkpt lat="34.832237263226475" lon="113.66016040281873">
        <ele>89.50117731280625</ele>
        <time>2026-08-23T04:21:32Z</time>
      </trkpt>
      <trkpt lat="34.8324065352576" lon="113.66022491396441">
        <ele>90.34886554069817</ele>
        <time>2026-08-23T04:21:44Z</time>
      </trkpt>
      <trkpt lat="34.83268678062082" lon="113.66019901420725">
        <ele>89.97356103546917</ele>
        <time>2026-08-23T04:22:05Z</time>
      </trkpt>
      <trkpt lat="34.832938200403696" lon="113.6602191963031">
        <ele>88.42398394830525</ele>
        <time>2026-08-23T04:22:23Z</time>
      </trkpt>
      <trkpt lat="34.83312007535064" lon="113.66017586766526">
        <ele>92.75104948319495</ele>
        <time>2026-08-23T04:22:35Z</time>
      </trkpt>
      <trkpt lat="34.833236030527104" lon="113.66019509176809">
        <ele>91.9570147888735</ele>
        <time>2026-08-23T04:22:44Z</time>
      </trkpt>
      <trkpt lat="34.83341435467226" lon="113.6601663288488">
        <ele>93.50498009566218</ele>
        <time>2026-08-23T04:22:56Z</time>
      </trkpt>
      <trkpt lat="34.83356837495725" lon="113.66018988857485">
        <ele>93.97151927184314</ele>
        <time>2026-08-23T04:23:05Z</time>
      </trkpt>
      <trkpt lat="34.83365645411945" lon="113.6601821483801">
        <ele>95.2649691440165</ele>
        <time>2026-08-23T04:23:11Z</time>
      </trkpt>
      <trkpt lat="34.83376637186852" lon="113.66014357094446">
        <ele>91.96464329678565</ele>
        <time>2026-08-23T04:23:21Z</time>
      </trkpt>
      <trkpt lat="34.83406933045622" lon="113.66014230781137">
        <ele>94.00954569131136</ele>
        <time>2026-08-23T04:23:39Z</time>
      </trkpt>
      <trkpt lat="34.83416952420907" lon="113.66017298044325">
        <ele>94.50441664643586</ele>
        <time>2026-08-23T04:23:45Z</time>
      </trkpt>
      <trkpt lat="34.834241235135885" lon="113.66006432309194">
        <ele>88.51326478179544</ele>
        <time>2026-08-23T04:23:54Z</time>
      </trkpt>
      <trkpt lat="34.83455737373542" lon="113.66013049140126">
        <ele>88.57454385049641</ele>
        <time>2026-08-23T04:24:12Z</time>
      </trkpt>
      <trkpt lat="34.834663994579195" lon="113.66010217550236">
        <ele>88.43401349149644</ele>
        <time>2026-08-23T04:24:21Z</time>
      </trkpt>
      <trkpt lat="34.8349852611958" lon="113.66011427838147">
        <ele>87.93758955784142</ele>
        <time>2026-08-23T04:24:42Z</time>
      </trkpt>
      <trkpt lat="34.83503337605479" lon="113.66012357364261">
        <ele>88.88788106665015</ele>
        <time>2026-08-23T04:24:45Z</time>
      </trkpt>
      <trkpt lat="34.835084234931955" lon="113.66007476074516">
        <ele>88.73753708600998</ele>
        <time>2026-08-23T04:24:48Z</time>
      </trkpt>
      <trkpt lat="34.83513390003937" lon="113.66009103389979">
        <ele>88.52471426222473</ele>
        <time>2026-08-23T04:24:51Z</time>
      </trkpt>
      <trkpt lat="34.83518282046765" lon="113.66008035861772">
        <ele>89.42497906088829</ele>
        <time>2026-08-23T04:24:57Z</time>
      </trkpt>
      <trkpt lat="34.8352235003453" lon="113.6601084940117">
        <ele>89.38549656420946</ele>
        <time>2026-08-23T04:25:00Z</time>
      </trkpt>
      <trkpt lat="34.83550926170308" lon="113.66011887127887">
        <ele>89.90226407907903</ele>
        <time>2026-08-23T04:25:18Z</time>
      </trkpt>
      <trkpt lat="34.83581282042798" lon="113.6601639955454">
        <ele>96.52623853925616</ele>
        <time>2026-08-23T04:25:40Z</time>
      </trkpt>
      <trkpt lat="34.835888677446654" lon="113.66022211520915">
        <ele>95.04212145786732</ele>
        <time>2026-08-23T04:25:46Z</time>
      </trkpt>
      <trkpt lat="34.83603198291824" lon="113.66018490995633">
        <ele>92.27072355244309</ele>
        <time>2026-08-23T04:25:55Z</time>
      </trkpt>
      <trkpt lat="34.836103101093094" lon="113.66013609077213">
        <ele>93.45686548762023</ele>
        <time>2026-08-23T04:26:01Z</time>
      </trkpt>
      <trkpt lat="34.836372768241205" lon="113.66017309857901">
        <ele>99.71045391634107</ele>
        <time>2026-08-23T04:26:19Z</time>
      </trkpt>
      <trkpt lat="34.83642448110887" lon="113.66016373681518">
        <ele>98.87264956068248</ele>
        <time>2026-08-23T04:26:22Z</time>
      </trkpt>
      <trkpt lat="34.836511493054665" lon="113.66021552447862">
        <ele>98.34748737607151</ele>
        <time>2026-08-23T04:26:28Z</time>
      </trkpt>
      <trkpt lat="34.836600728456574" lon="113.66015831331964">
        <ele>95.51696970500052</ele>
        <time>2026-08-23T04:26:34Z</time>
      </trkpt>
      <trkpt lat="34.83672733422429" lon="113.66017369958821">
        <ele>94.20824293978512</ele>
        <time>2026-08-23T04:26:43Z</time>
      </trkpt>
      <trkpt lat="34.8368723072016" lon="113.66013190383698">
        <ele>91.53407324105501</ele>
        <time>2026-08-23T04:26:52Z</time>
      </trkpt>
      <trkpt lat="34.83696157558013" lon="113.66014576276181">
        <ele>88.59715622011572</ele>
        <time>2026-08-23T04:26:58Z</time>
      </trkpt>
      <trkpt lat="34.83700606706245" lon="113.66012168439477">
        <ele>87.53456169832498</ele>
        <time>2026-08-23T04:27:01Z</time>
      </trkpt>
      <trkpt lat="34.83706532502037" lon="113.66013560114233">
        <ele>85.94326136261225</ele>
        <time>2026-08-23T04:27:07Z</time>
      </trkpt>
      <trkpt lat="34.837155989148435" lon="113.66019855142545">
        <ele>85.46880920231342</ele>
        <time>2026-08-23T04:27:10Z</time>
      </trkpt>
      <trkpt lat="34.837230824212575" lon="113.6601939626595">
        <ele>89.1369311325252</ele>
        <time>2026-08-23T04:27:16Z</time>
      </trkpt>
      <trkpt lat="34.837309030833715" lon="113.66015490153424">
        <ele>90.63970829639584</ele>
        <time>2026-08-23T04:27:22Z</time>
      </trkpt>
      <trkpt lat="34.83738270170112" lon="113.660148999122">
        <ele>90.53839449770749</ele>
        <time>2026-08-23T04:27:28Z</time>
      </trkpt>
      <trkpt lat="34.83742520506582" lon="113.66011342940773">
        <ele>88.48636247217655</ele>
        <time>2026-08-23T04:27:36Z</time>
      </trkpt>
      <trkpt lat="34.83743487052398" lon="113.66004559417571">
        <ele>89.37830694299191</ele>
        <time>2026-08-23T04:27:44Z</time>
      </trkpt>
      <trkpt lat="34.83748531023537" lon="113.6602520813316">
        <ele>87.89997900387519</ele>
        <time>2026-08-23T04:28:02Z</time>
      </trkpt>
      <trkpt lat="34.83749194093398" lon="113.66011037335485">
        <ele>71.21570208761841</ele>
        <time>2026-08-23T04:28:16Z</time>
      </trkpt>
      <trkpt lat="34.83751818442457" lon="113.66000279553953">
        <ele>104.6200542608276</ele>
        <time>2026-08-23T04:28:19Z</time>
      </trkpt>
      <trkpt lat="34.83754243347957" lon="113.66025024108512">
        <ele>124.70687009580433</ele>
        <time>2026-08-23T04:28:25Z</time>
      </trkpt>
      <trkpt lat="34.837473014708756" lon="113.6602368700102">
        <ele>89.87562463339418</ele>
        <time>2026-08-23T04:28:40Z</time>
      </trkpt>
      <trkpt lat="34.837442018159166" lon="113.66024695133784">
        <ele>89.62249254155904</ele>
        <time>2026-08-23T04:29:01Z</time>
      </trkpt>
    </trkseg>
  </trk>
</gpx>