<?xml version="1.0" encoding="UTF-8"?>
<gpx xmlns="http://www.topografix.com/GPX/1/1" xmlns:gpxtpx="http://www.garmin.com/xmlschemas/TrackPointExtension/v1" xmlns:xsi="http://www.w3.org/2001/XMLSchema-instance" xsi:schemaLocation="http://www.topografix.com/GPX/1/1 http://www.topografix.com/GPX/1/1/gpx.xsd" version="1.1" creator="gpx.py -- https://github.com/tkrajina/gpxpy">
  <trk>
    <name>gpx from keep</name>
    <type>Run</type>
    <trkseg>
      <trkpt lat="34.829926591709025" lon="113.65848205683794">
        <ele>93.54595947265625</ele>
        <time>2026-09-15T23:52:09Z</time>
      </trkpt>
      <trkpt lat="34.830117733122464" lon="113.65848488095195">
        <ele>93.51578546874225</ele>
        <time>2026-09-15T23:52:20Z</time>
      </trkpt>
      <trkpt lat="34.830249878317524" lon="113.65845149538188">
        <ele>95.24896272923797</ele>
        <time>2026-09-15T23:52:29Z</time>
      </trkpt>
      <trkpt lat="34.8303026841984" lon="113.65852051298495">
        <ele>98.11499156802893</ele>
        <time>2026-09-15T23:52:32Z</time>
      </trkpt>
      <trkpt lat="34.83030106065235" lon="113.65861290273237">
        <ele>98.42021883372217</ele>
        <time>2026-09-15T23:52:35Z</time>
      </trkpt>
      <trkpt lat="34.83024922997472" lon="113.65867578609878">
        <ele>94.97828317806125</ele>
        <time>2026-09-15T23:52:38Z</time>
      </trkpt>
      <trkpt lat="34.83025556960827" lon="113.65874004301904">
        <ele>94.79513910226524</ele>
        <time>2026-09-15T23:52:41Z</time>
      </trkpt>
      <trkpt lat="34.830236871625104" lon="113.6588118447064">
        <ele>92.88593506906182</ele>
        <time>2026-09-15T23:52:44Z</time>
      </trkpt>
      <trkpt lat="34.83025223591841" lon="113.65898096481628">
        <ele>92.44635714963078</ele>
        <time>2026-09-15T23:52:50Z</time>
      </trkpt>
      <trkpt lat="34.830241187509365" lon="113.65903987568414">
        <ele>91.77162940334529</ele>
        <time>2026-09-15T23:52:53Z</time>
      </trkpt>
      <trkpt lat="34.8302585649942" lon="113.65942593838247">
        <ele>89.68602066114545</ele>
        <time>2026-09-15T23:53:08Z</time>
      </trkpt>
      <trkpt lat="34.83024549797482" lon="113.65951592179692">
        <ele>89.1741272220388</ele>
        <time>2026-09-15T23:53:11Z</time>
      </trkpt>
      <trkpt lat="34.83025440009692" lon="113.6598192308186">
        <ele>88.01965506095439</ele>
        <time>2026-09-15T23:53:23Z</time>
      </trkpt>
      <trkpt lat="34.8302851625512" lon="113.65989664186876">
        <ele>86.82813803479075</ele>
        <time>2026-09-15T23:53:26Z</time>
      </trkpt>
      <trkpt lat="34.8303537927249" lon="113.6599256413612">
        <ele>88.42780407704413</ele>
        <time>2026-09-15T23:53:29Z</time>
      </trkpt>
      <trkpt lat="34.83062879097545" lon="113.65993307097156">
        <ele>87.81575194559991</ele>
        <time>2026-09-15T23:53:41Z</time>
      </trkpt>
      <trkpt lat="34.83085644113361" lon="113.65993698435946">
        <ele>89.89910396188498</ele>
        <time>2026-09-15T23:53:50Z</time>
      </trkpt>
      <trkpt lat="34.83091594782414" lon="113.65992412554108">
        <ele>88.68629608582705</ele>
        <time>2026-09-15T23:53:53Z</time>
      </trkpt>
      <trkpt lat="34.831130585137366" lon="113.65995224731451">
        <ele>90.57215553056449</ele>
        <time>2026-09-15T23:54:02Z</time>
      </trkpt>
      <trkpt lat="34.83119820500711" lon="113.65998045501836">
        <ele>90.30542642716318</ele>
        <time>2026-09-15T23:54:05Z</time>
      </trkpt>
      <trkpt lat="34.831403165883835" lon="113.65995949611035">
        <ele>89.84352331701666</ele>
        <time>2026-09-15T23:54:14Z</time>
      </trkpt>
      <trkpt lat="34.83147977975693" lon="113.65996681475481">
        <ele>91.05560203548521</ele>
        <time>2026-09-15T23:54:18Z</time>
      </trkpt>
      <trkpt lat="34.83179423355739" lon="113.65994318108869">
        <ele>94.10102925635874</ele>
        <time>2026-09-15T23:54:33Z</time>
      </trkpt>
      <trkpt lat="34.83187768489456" lon="113.65991835811396">
        <ele>93.3279453329742</ele>
        <time>2026-09-15T23:54:39Z</time>
      </trkpt>
      <trkpt lat="34.83195355267762" lon="113.65992810568228">
        <ele>93.5370819279924</ele>
        <time>2026-09-15T23:54:42Z</time>
      </trkpt>
      <trkpt lat="34.83201286160793" lon="113.65991501154699">
        <ele>94.25361652486026</ele>
        <time>2026-09-15T23:54:45Z</time>
      </trkpt>
      <trkpt lat="34.83205528326262" lon="113.65988004069867">
        <ele>92.91845033783466</ele>
        <time>2026-09-15T23:54:48Z</time>
      </trkpt>
      <trkpt lat="34.83210339919018" lon="113.65968574027605">
        <ele>91.35368069261312</ele>
        <time>2026-09-15T23:54:57Z</time>
      </trkpt>
      <trkpt lat="34.83210176255497" lon="113.65930893933583">
        <ele>90.98899296484888</ele>
        <time>2026-09-15T23:55:12Z</time>
      </trkpt>
      <trkpt lat="34.83214321230901" lon="113.65896833751272">
        <ele>90.22811932861805</ele>
        <time>2026-09-15T23:55:24Z</time>
      </trkpt>
      <trkpt lat="34.832171203021524" lon="113.65862544969943">
        <ele>89.36713941581547</ele>
        <time>2026-09-15T23:55:36Z</time>
      </trkpt>
      <trkpt lat="34.83217347714507" lon="113.65828671023482">
        <ele>88.7618834329769</ele>
        <time>2026-09-15T23:55:48Z</time>
      </trkpt>
      <trkpt lat="34.83217380488025" lon="113.65821187754203">
        <ele>88.88871823158115</ele>
        <time>2026-09-15T23:55:51Z</time>
      </trkpt>
      <trkpt lat="34.83214351341497" lon="113.65813665267206">
        <ele>88.76503813453019</ele>
        <time>2026-09-15T23:55:54Z</time>
      </trkpt>
      <trkpt lat="34.83216783001456" lon="113.65776757500151">
        <ele>87.78506021760404</ele>
        <time>2026-09-15T23:56:09Z</time>
      </trkpt>
      <trkpt lat="34.83216808011135" lon="113.65735512756669">
        <ele>89.7290260232985</ele>
        <time>2026-09-15T23:56:25Z</time>
      </trkpt>
      <trkpt lat="34.83213418143247" lon="113.65726567667292">
        <ele>90.76808019634336</ele>
        <time>2026-09-15T23:56:29Z</time>
      </trkpt>
      <trkpt lat="34.832089738764836" lon="113.65719995236411">
        <ele>88.25355884525925</ele>
        <time>2026-09-15T23:56:33Z</time>
      </trkpt>
      <trkpt lat="34.832011381041305" lon="113.65716033329865">
        <ele>86.61064141243696</ele>
        <time>2026-09-15T23:56:37Z</time>
      </trkpt>
      <trkpt lat="34.83183281047801" lon="113.65715752345594">
        <ele>87.0059256432578</ele>
        <time>2026-09-15T23:56:45Z</time>
      </trkpt>
      <trkpt lat="34.831690881167404" lon="113.6571765768595">
        <ele>86.77441517915577</ele>
        <time>2026-09-15T23:56:51Z</time>
      </trkpt>
      <trkpt lat="34.83139010251402" lon="113.65717459011354">
        <ele>86.64622462540865</ele>
        <time>2026-09-15T23:57:06Z</time>
      </trkpt>
      <trkpt lat="34.83107165942297" lon="113.65717479331362">
        <ele>86.88735060021281</ele>
        <time>2026-09-15T23:57:21Z</time>
      </trkpt>
      <trkpt lat="34.83083671404653" lon="113.65713240313048">
        <ele>86.80372013896704</ele>
        <time>2026-09-15T23:57:33Z</time>
      </trkpt>
      <trkpt lat="34.83051577656779" lon="113.65712579235351">
        <ele>85.93320141918957</ele>
        <time>2026-09-15T23:57:48Z</time>
      </trkpt>
      <trkpt lat="34.83033674869009" lon="113.65722609064653">
        <ele>86.61332978587598</ele>
        <time>2026-09-15T23:57:57Z</time>
      </trkpt>
      <trkpt lat="34.830296561345186" lon="113.6574276480575">
        <ele>89.04997254163027</ele>
        <time>2026-09-15T23:58:06Z</time>
      </trkpt>
      <trkpt lat="34.830281174246814" lon="113.65780577156471">
        <ele>87.05129957292229</ele>
        <time>2026-09-15T23:58:21Z</time>
      </trkpt>
      <trkpt lat="34.830297814695975" lon="113.65798826632188">
        <ele>87.77333780005574</ele>
        <time>2026-09-15T23:58:27Z</time>
      </trkpt>
      <trkpt lat="34.830274726523896" lon="113.6582180840517">
        <ele>88.63818893022835</ele>
        <time>2026-09-15T23:58:35Z</time>
      </trkpt>
      <trkpt lat="34.83027600787682" lon="113.6586161620847">
        <ele>90.39711455907673</ele>
        <time>2026-09-15T23:58:47Z</time>
      </trkpt>
      <trkpt lat="34.8302616719834" lon="113.65875705849494">
        <ele>90.77923591528088</ele>
        <time>2026-09-15T23:58:51Z</time>
      </trkpt>
      <trkpt lat="34.83025993300182" lon="113.65912733411642">
        <ele>90.7878443710506</ele>
        <time>2026-09-15T23:59:04Z</time>
      </trkpt>
      <trkpt lat="34.83025016348811" lon="113.65920539064008">
        <ele>91.8966143578291</ele>
        <time>2026-09-15T23:59:07Z</time>
      </trkpt>
      <trkpt lat="34.83026298670313" lon="113.65951107739957">
        <ele>89.95889250282198</ele>
        <time>2026-09-15T23:59:19Z</time>
      </trkpt>
      <trkpt lat="34.830259006516265" lon="113.65981034191248">
        <ele>90.72283317428082</ele>
        <time>2026-09-15T23:59:31Z</time>
      </trkpt>
      <trkpt lat="34.83027973709629" lon="113.65988675286181">
        <ele>90.6055900817737</ele>
        <time>2026-09-15T23:59:34Z</time>
      </trkpt>
      <trkpt lat="34.83033261390232" lon="113.65993306369396">
        <ele>90.29262296948582</ele>
        <time>2026-09-15T23:59:37Z</time>
      </trkpt>
      <trkpt lat="34.83050012172226" lon="113.6599730656671">
        <ele>89.0217498736456</ele>
        <time>2026-09-15T23:59:46Z</time>
      </trkpt>
      <trkpt lat="34.83077231700503" lon="113.65997243245019">
        <ele>89.96966463141143</ele>
        <time>2026-09-15T23:59:58Z</time>
      </trkpt>
      <trkpt lat="34.83104779135653" lon="113.65998298435325">
        <ele>94.36576056294143</ele>
        <time>2026-09-16T00:00:10Z</time>
      </trkpt>
      <trkpt lat="34.83117196356877" lon="113.65997656888031">
        <ele>94.92038900125772</ele>
        <time>2026-09-16T00:00:16Z</time>
      </trkpt>
      <trkpt lat="34.831214800372415" lon="113.66002240989958">
        <ele>93.90718149673194</ele>
        <time>2026-09-16T00:00:19Z</time>
      </trkpt>
      <trkpt lat="34.83153267842381" lon="113.65997228183682">
        <ele>92.57068328652531</ele>
        <time>2026-09-16T00:00:35Z</time>
      </trkpt>
      <trkpt lat="34.83185072535409" lon="113.65991491752399">
        <ele>95.18982371501625</ele>
        <time>2026-09-16T00:00:50Z</time>
      </trkpt>
      <trkpt lat="34.831922155682975" lon="113.65991557014544">
        <ele>94.23108628951013</ele>
        <time>2026-09-16T00:00:53Z</time>
      </trkpt>
      <trkpt lat="34.832043975801184" lon="113.65984239035187">
        <ele>93.49320187978446</ele>
        <time>2026-09-16T00:00:59Z</time>
      </trkpt>
      <trkpt lat="34.83205036878099" lon="113.65945863989377">
        <ele>90.12476106919348</ele>
        <time>2026-09-16T00:01:14Z</time>
      </trkpt>
      <trkpt lat="34.83208135652602" lon="113.65906543346875">
        <ele>89.79354678560048</ele>
        <time>2026-09-16T00:01:29Z</time>
      </trkpt>
      <trkpt lat="34.832154898759626" lon="113.65872125020772">
        <ele>88.30933923833072</ele>
        <time>2026-09-16T00:01:47Z</time>
      </trkpt>
      <trkpt lat="34.83216718962229" lon="113.65863632135962">
        <ele>88.03848853055388</ele>
        <time>2026-09-16T00:01:50Z</time>
      </trkpt>
      <trkpt lat="34.83212281839988" lon="113.65845392531104">
        <ele>87.7623384334147</ele>
        <time>2026-09-16T00:01:59Z</time>
      </trkpt>
      <trkpt lat="34.83213949687614" lon="113.65832946963913">
        <ele>87.49749973695725</ele>
        <time>2026-09-16T00:02:05Z</time>
      </trkpt>
      <trkpt lat="34.83219949204972" lon="113.65818996712353">
        <ele>83.88917976245284</ele>
        <time>2026-09-16T00:02:11Z</time>
      </trkpt>
      <trkpt lat="34.832183390664156" lon="113.65812109511961">
        <ele>86.32477009296417</ele>
        <time>2026-09-16T00:02:14Z</time>
      </trkpt>
      <trkpt lat="34.83220128292868" lon="113.65802822326708">
        <ele>84.64257363602519</ele>
        <time>2026-09-16T00:02:20Z</time>
      </trkpt>
      <trkpt lat="34.83218223707596" lon="113.65795998961013">
        <ele>83.81329829990864</ele>
        <time>2026-09-16T00:02:23Z</time>
      </trkpt>
      <trkpt lat="34.83216787235199" lon="113.65772579344244">
        <ele>83.68215883802623</ele>
        <time>2026-09-16T00:02:32Z</time>
      </trkpt>
      <trkpt lat="34.832180216404566" lon="113.65765136360504">
        <ele>83.9808123651892</ele>
        <time>2026-09-16T00:02:35Z</time>
      </trkpt>
      <trkpt lat="34.832157746283144" lon="113.65757565471321">
        <ele>83.9954210948199</ele>
        <time>2026-09-16T00:02:38Z</time>
      </trkpt>
      <trkpt lat="34.83218079125566" lon="113.65734234760039">
        <ele>85.97408856265247</ele>
        <time>2026-09-16T00:02:46Z</time>
      </trkpt>
      <trkpt lat="34.832149207815625" lon="113.65728766692646">
        <ele>85.22523553110659</ele>
        <time>2026-09-16T00:02:50Z</time>
      </trkpt>
      <trkpt lat="34.832013099981786" lon="113.65725344366966">
        <ele>85.80641891248524</ele>
        <time>2026-09-16T00:02:57Z</time>
      </trkpt>
      <trkpt lat="34.831958956125696" lon="113.65725705413112">
        <ele>84.778620143421</ele>
        <time>2026-09-16T00:03:00Z</time>
      </trkpt>
      <trkpt lat="34.831843656100105" lon="113.65730202123734">
        <ele>83.32836659997702</ele>
        <time>2026-09-16T00:03:06Z</time>
      </trkpt>
      <trkpt lat="34.83154616805267" lon="113.65726189083661">
        <ele>84.33972991723567</ele>
        <time>2026-09-16T00:03:24Z</time>
      </trkpt>
      <trkpt lat="34.83124982609404" lon="113.65724107940538">
        <ele>85.0125261824578</ele>
        <time>2026-09-16T00:03:39Z</time>
      </trkpt>
      <trkpt lat="34.83111445720982" lon="113.65723918451796">
        <ele>84.23862964846194</ele>
        <time>2026-09-16T00:03:48Z</time>
      </trkpt>
      <trkpt lat="34.83104067256858" lon="113.65727591964541">
        <ele>82.95084270648658</ele>
        <time>2026-09-16T00:03:54Z</time>
      </trkpt>
      <trkpt lat="34.830966465380406" lon="113.65760238810383">
        <ele>89.04146211594343</ele>
        <time>2026-09-16T00:04:12Z</time>
      </trkpt>
      <trkpt lat="34.83095661606153" lon="113.65794548597844">
        <ele>90.83784243185073</ele>
        <time>2026-09-16T00:04:27Z</time>
      </trkpt>
      <trkpt lat="34.83096054602004" lon="113.65807387546518">
        <ele>91.84262188244611</ele>
        <time>2026-09-16T00:04:33Z</time>
      </trkpt>
      <trkpt lat="34.830859921953966" lon="113.65845035640533">
        <ele>89.45016994141042</ele>
        <time>2026-09-16T00:04:49Z</time>
      </trkpt>
      <trkpt lat="34.830858169767865" lon="113.6587498029057">
        <ele>90.47167091909796</ele>
        <time>2026-09-16T00:05:01Z</time>
      </trkpt>
      <trkpt lat="34.830815504376986" lon="113.65892794781736">
        <ele>89.58711357973516</ele>
        <time>2026-09-16T00:05:11Z</time>
      </trkpt>
      <trkpt lat="34.830826627800064" lon="113.65899196458358">
        <ele>87.94066282268614</ele>
        <time>2026-09-16T00:05:14Z</time>
      </trkpt>
      <trkpt lat="34.830861167548555" lon="113.65906544857815">
        <ele>87.69972978718579</ele>
        <time>2026-09-16T00:05:17Z</time>
      </trkpt>
      <trkpt lat="34.83104578094117" lon="113.65911723095772">
        <ele>88.90427865087986</ele>
        <time>2026-09-16T00:05:26Z</time>
      </trkpt>
      <trkpt lat="34.83125247809469" lon="113.65908898160156">
        <ele>88.44079945795238</ele>
        <time>2026-09-16T00:05:38Z</time>
      </trkpt>
      <trkpt lat="34.831370980509384" lon="113.65903810986192">
        <ele>88.9697870882228</ele>
        <time>2026-09-16T00:05:44Z</time>
      </trkpt>
      <trkpt lat="34.83147881133019" lon="113.65904365477067">
        <ele>88.04952686838806</ele>
        <time>2026-09-16T00:05:50Z</time>
      </trkpt>
      <trkpt lat="34.831744601304706" lon="113.65912850482964">
        <ele>85.65019339509308</ele>
        <time>2026-09-16T00:06:08Z</time>
      </trkpt>
      <trkpt lat="34.83199541101374" lon="113.65910797182731">
        <ele>87.10564769804478</ele>
        <time>2026-09-16T00:06:20Z</time>
      </trkpt>
      <trkpt lat="34.832089054686655" lon="113.65901103143426">
        <ele>88.50777293741703</ele>
        <time>2026-09-16T00:06:26Z</time>
      </trkpt>
      <trkpt lat="34.83215455676843" lon="113.65882047390971">
        <ele>88.6495668720454</ele>
        <time>2026-09-16T00:06:35Z</time>
      </trkpt>
      <trkpt lat="34.832169621197686" lon="113.65864923903666">
        <ele>86.7133298907429</ele>
        <time>2026-09-16T00:06:44Z</time>
      </trkpt>
      <trkpt lat="34.83212113991762" lon="113.65858601427858">
        <ele>87.01070752181113</ele>
        <time>2026-09-16T00:06:47Z</time>
      </trkpt>
      <trkpt lat="34.83184419654271" lon="113.65859949430312">
        <ele>84.97547116968781</ele>
        <time>2026-09-16T00:07:02Z</time>
      </trkpt>
      <trkpt lat="34.83176927776969" lon="113.65852062068853">
        <ele>85.64166833460331</ele>
        <time>2026-09-16T00:07:06Z</time>
      </trkpt>
      <trkpt lat="34.831696666169414" lon="113.65852702981444">
        <ele>86.80972343310714</ele>
        <time>2026-09-16T00:07:09Z</time>
      </trkpt>
      <trkpt lat="34.83154309609592" lon="113.65848468201469">
        <ele>85.65251210331917</ele>
        <time>2026-09-16T00:07:18Z</time>
      </trkpt>
      <trkpt lat="34.831292135931044" lon="113.65829296075343">
        <ele>83.89827981870621</ele>
        <time>2026-09-16T00:07:36Z</time>
      </trkpt>
      <trkpt lat="34.83123818654864" lon="113.6582464049137">
        <ele>84.21542395930737</ele>
        <time>2026-09-16T00:07:39Z</time>
      </trkpt>
      <trkpt lat="34.831110645414014" lon="113.65820176621519">
        <ele>85.09380817040801</ele>
        <time>2026-09-16T00:07:45Z</time>
      </trkpt>
      <trkpt lat="34.83087142713923" lon="113.65825167593461">
        <ele>86.84292269591242</ele>
        <time>2026-09-16T00:07:57Z</time>
      </trkpt>
      <trkpt lat="34.83082772219262" lon="113.65828472042816">
        <ele>86.33069261163473</ele>
        <time>2026-09-16T00:08:00Z</time>
      </trkpt>
      <trkpt lat="34.83056885429931" lon="113.65835400169057">
        <ele>84.3458654070273</ele>
        <time>2026-09-16T00:08:18Z</time>
      </trkpt>
      <trkpt lat="34.83046284652446" lon="113.65845789808559">
        <ele>84.45415514800698</ele>
        <time>2026-09-16T00:08:27Z</time>
      </trkpt>
      <trkpt lat="34.83037467074861" lon="113.65847598111843">
        <ele>84.83306800201535</ele>
        <time>2026-09-16T00:08:30Z</time>
      </trkpt>
      <trkpt lat="34.830189822031464" lon="113.65845661824147">
        <ele>87.34245333448052</ele>
        <time>2026-09-16T00:08:36Z</time>
      </trkpt>
      <trkpt lat="34.83013288804872" lon="113.65849235614306">
        <ele>85.7480354886502</ele>
        <time>2026-09-16T00:08:39Z</time>
      </trkpt>
      <trkpt lat="34.83013288804872" lon="113.65849235614306">
        <ele>85.7480354886502</ele>
        <time>2026-09-16T00:08:42Z</time>
      </trkpt>
    </trkseg>
  </trk>
</gpx>