<?xml version="1.0" encoding="UTF-8"?>
<gpx xmlns="http://www.topografix.com/GPX/1/1" xmlns:gpxtpx="http://www.garmin.com/xmlschemas/TrackPointExtension/v1" xmlns:xsi="http://www.w3.org/2001/XMLSchema-instance" xsi:schemaLocation="http://www.topografix.com/GPX/1/1 http://www.topografix.com/GPX/1/1/gpx.xsd" version="1.1" creator="gpx.py -- https://github.com/tkrajina/gpxpy">
  <trk>
    <name>gpx from keep</name>
    <type>Walk</type>
    <trkseg>
      <trkpt lat="34.83873571904773" lon="113.65001129833381">
        <ele>90.771484375</ele>
        <time>2026-08-24T13:12:02Z</time>
      </trkpt>
      <trkpt lat="34.83866396983196" lon="113.65001314219289">
        <ele>92.21221923828125</ele>
        <time>2026-08-24T13:12:07Z</time>
      </trkpt>
      <trkpt lat="34.83836894636397" lon="113.65013423279909">
        <ele>94.26299888174981</ele>
        <time>2026-08-24T13:12:28Z</time>
      </trkpt>
      <trkpt lat="34.83818458321211" lon="113.65022134824638">
        <ele>91.25801813229918</ele>
        <time>2026-08-24T13:12:40Z</time>
      </trkpt>
      <trkpt lat="34.83808684399595" lon="113.6502972597519">
        <ele>93.58343890123069</ele>
        <time>2026-08-24T13:12:49Z</time>
      </trkpt>
      <trkpt lat="34.837970077786125" lon="113.65041425921541">
        <ele>92.74815186858177</ele>
        <time>2026-08-24T13:12:58Z</time>
      </trkpt>
      <trkpt lat="34.83777765045793" lon="113.6505042470943">
        <ele>90.54273384809494</ele>
        <time>2026-08-24T13:13:10Z</time>
      </trkpt>
      <trkpt lat="34.83773530174596" lon="113.65054146890418">
        <ele>90.91802257858217</ele>
        <time>2026-08-24T13:13:13Z</time>
      </trkpt>
      <trkpt lat="34.83759892479081" lon="113.65057925310428">
        <ele>91.38751161657274</ele>
        <time>2026-08-24T13:13:22Z</time>
      </trkpt>
      <trkpt lat="34.83751172922095" lon="113.6505820231182">
        <ele>91.51843504980206</ele>
        <time>2026-08-24T13:13:28Z</time>
      </trkpt>
      <trkpt lat="34.83734970355888" lon="113.65053731977088">
        <ele>90.54855587985367</ele>
        <time>2026-08-24T13:13:40Z</time>
      </trkpt>
      <trkpt lat="34.83708788330951" lon="113.65059309519646">
        <ele>93.11786826886237</ele>
        <time>2026-08-24T13:14:01Z</time>
      </trkpt>
      <trkpt lat="34.83682441243191" lon="113.65071109319754">
        <ele>91.14465555921197</ele>
        <time>2026-08-24T13:14:17Z</time>
      </trkpt>
      <trkpt lat="34.83652434004367" lon="113.65085585789657">
        <ele>93.97094569634646</ele>
        <time>2026-08-24T13:14:41Z</time>
      </trkpt>
      <trkpt lat="34.836284607618474" lon="113.65095286756326">
        <ele>94.08580003865063</ele>
        <time>2026-08-24T13:14:59Z</time>
      </trkpt>
      <trkpt lat="34.83619788934889" lon="113.65096141409181">
        <ele>94.66616536770016</ele>
        <time>2026-08-24T13:15:05Z</time>
      </trkpt>
      <trkpt lat="34.83607398136126" lon="113.65103115331883">
        <ele>91.60633963346481</ele>
        <time>2026-08-24T13:15:14Z</time>
      </trkpt>
      <trkpt lat="34.83578617278979" lon="113.65116821193523">
        <ele>90.28840123582631</ele>
        <time>2026-08-24T13:15:32Z</time>
      </trkpt>
      <trkpt lat="34.83553178111134" lon="113.65125747240258">
        <ele>91.07496615685523</ele>
        <time>2026-08-24T13:15:50Z</time>
      </trkpt>
      <trkpt lat="34.835382080700406" lon="113.65131868815588">
        <ele>91.42196788452566</ele>
        <time>2026-08-24T13:16:02Z</time>
      </trkpt>
      <trkpt lat="34.83536623041544" lon="113.65124184643561">
        <ele>91.42265488486737</ele>
        <time>2026-08-24T13:16:08Z</time>
      </trkpt>
      <trkpt lat="34.835307381586006" lon="113.65119142909283">
        <ele>91.21603977121413</ele>
        <time>2026-08-24T13:16:14Z</time>
      </trkpt>
      <trkpt lat="34.83511299070626" lon="113.65126198418233">
        <ele>92.3278672778979</ele>
        <time>2026-08-24T13:16:26Z</time>
      </trkpt>
      <trkpt lat="34.83501892497598" lon="113.65132164427077">
        <ele>91.81103565916419</ele>
        <time>2026-08-24T13:16:34Z</time>
      </trkpt>
      <trkpt lat="34.83475580040497" lon="113.65137460272466">
        <ele>92.30007386673242</ele>
        <time>2026-08-24T13:16:52Z</time>
      </trkpt>
      <trkpt lat="34.834647529045355" lon="113.65145998748699">
        <ele>90.87224022112787</ele>
        <time>2026-08-24T13:17:01Z</time>
      </trkpt>
      <trkpt lat="34.83439483186543" lon="113.65153061109592">
        <ele>93.78074250090867</ele>
        <time>2026-08-24T13:17:19Z</time>
      </trkpt>
      <trkpt lat="34.834395648106145" lon="113.65164883957398">
        <ele>93.49962596967816</ele>
        <time>2026-08-24T13:17:25Z</time>
      </trkpt>
      <trkpt lat="34.83436707080895" lon="113.65172006234897">
        <ele>91.88556141033769</ele>
        <time>2026-08-24T13:17:31Z</time>
      </trkpt>
      <trkpt lat="34.834199420554754" lon="113.65178596798239">
        <ele>92.7032310264185</ele>
        <time>2026-08-24T13:17:43Z</time>
      </trkpt>
      <trkpt lat="34.83417907361476" lon="113.65196356687281">
        <ele>92.38038857560605</ele>
        <time>2026-08-24T13:17:55Z</time>
      </trkpt>
      <trkpt lat="34.83392073006618" lon="113.65219776773628">
        <ele>89.38112983480096</ele>
        <time>2026-08-24T13:18:16Z</time>
      </trkpt>
      <trkpt lat="34.83373272398715" lon="113.65232479060361">
        <ele>89.83176837582141</ele>
        <time>2026-08-24T13:18:31Z</time>
      </trkpt>
      <trkpt lat="34.833676705778814" lon="113.65234285672256">
        <ele>90.12721859943122</ele>
        <time>2026-08-24T13:18:35Z</time>
      </trkpt>
      <trkpt lat="34.83360546313018" lon="113.65242402829617">
        <ele>90.71956482902169</ele>
        <time>2026-08-24T13:18:41Z</time>
      </trkpt>
      <trkpt lat="34.83353537102326" lon="113.65255488833101">
        <ele>91.84110806789249</ele>
        <time>2026-08-24T13:18:50Z</time>
      </trkpt>
      <trkpt lat="34.8335369705294" lon="113.6526494481164">
        <ele>92.15600549988449</ele>
        <time>2026-08-24T13:18:56Z</time>
      </trkpt>
      <trkpt lat="34.83343099391382" lon="113.65274475923816">
        <ele>91.94977282732725</ele>
        <time>2026-08-24T13:19:05Z</time>
      </trkpt>
      <trkpt lat="34.83335541745369" lon="113.65278812641053">
        <ele>92.03704604040831</ele>
        <time>2026-08-24T13:19:11Z</time>
      </trkpt>
      <trkpt lat="34.83314151540187" lon="113.65286421522508">
        <ele>94.04386980831623</ele>
        <time>2026-08-24T13:19:29Z</time>
      </trkpt>
      <trkpt lat="34.83308564674458" lon="113.6531560023544">
        <ele>94.61833847034723</ele>
        <time>2026-08-24T13:19:47Z</time>
      </trkpt>
      <trkpt lat="34.83287090785918" lon="113.65338778245803">
        <ele>94.29999166261405</ele>
        <time>2026-08-24T13:20:17Z</time>
      </trkpt>
      <trkpt lat="34.832805325881154" lon="113.65345651666446">
        <ele>93.52403505984694</ele>
        <time>2026-08-24T13:20:23Z</time>
      </trkpt>
      <trkpt lat="34.832786687886056" lon="113.65356898932626">
        <ele>92.0075172893703</ele>
        <time>2026-08-24T13:20:30Z</time>
      </trkpt>
      <trkpt lat="34.83287349174221" lon="113.65377088885836">
        <ele>92.56842929683626</ele>
        <time>2026-08-24T13:20:43Z</time>
      </trkpt>
      <trkpt lat="34.83284828055742" lon="113.65411057146319">
        <ele>95.16628534998745</ele>
        <time>2026-08-24T13:21:01Z</time>
      </trkpt>
      <trkpt lat="34.832830297260465" lon="113.6543489574272">
        <ele>93.35325032286346</ele>
        <time>2026-08-24T13:21:16Z</time>
      </trkpt>
      <trkpt lat="34.8328516898368" lon="113.65445649976202">
        <ele>94.39052908681333</ele>
        <time>2026-08-24T13:21:22Z</time>
      </trkpt>
      <trkpt lat="34.832846708260895" lon="113.65454358546974">
        <ele>95.02908979263157</ele>
        <time>2026-08-24T13:21:28Z</time>
      </trkpt>
      <trkpt lat="34.832708700851775" lon="113.6545822361719">
        <ele>92.26134532224387</ele>
        <time>2026-08-24T13:21:40Z</time>
      </trkpt>
      <trkpt lat="34.832684281218505" lon="113.65464402010765">
        <ele>92.54249982722104</ele>
        <time>2026-08-24T13:21:46Z</time>
      </trkpt>
      <trkpt lat="34.83271584978817" lon="113.65475549425098">
        <ele>93.15041456837207</ele>
        <time>2026-08-24T13:21:52Z</time>
      </trkpt>
      <trkpt lat="34.83275100898421" lon="113.65482273194823">
        <ele>93.50762462709099</ele>
        <time>2026-08-24T13:21:58Z</time>
      </trkpt>
      <trkpt lat="34.8328114038215" lon="113.65497432619865">
        <ele>93.74722852930427</ele>
        <time>2026-08-24T13:22:07Z</time>
      </trkpt>
      <trkpt lat="34.832827981497815" lon="113.65506831364613">
        <ele>92.7208605017513</ele>
        <time>2026-08-24T13:22:13Z</time>
      </trkpt>
      <trkpt lat="34.83279939162065" lon="113.65511949291319">
        <ele>92.50493142846972</ele>
        <time>2026-08-24T13:22:16Z</time>
      </trkpt>
      <trkpt lat="34.83277648774452" lon="113.65521680491581">
        <ele>92.85588803235441</ele>
        <time>2026-08-24T13:22:22Z</time>
      </trkpt>
      <trkpt lat="34.832817072946185" lon="113.65525265028518">
        <ele>93.14433132205158</ele>
        <time>2026-08-24T13:22:25Z</time>
      </trkpt>
      <trkpt lat="34.83274862131676" lon="113.65539360587863">
        <ele>92.11764836590737</ele>
        <time>2026-08-24T13:22:35Z</time>
      </trkpt>
      <trkpt lat="34.832708034382385" lon="113.65561769378465">
        <ele>91.95996259711683</ele>
        <time>2026-08-24T13:22:47Z</time>
      </trkpt>
      <trkpt lat="34.83270246727768" lon="113.6558357283838">
        <ele>92.87316182814538</ele>
        <time>2026-08-24T13:22:59Z</time>
      </trkpt>
      <trkpt lat="34.83254451445447" lon="113.65605448727518">
        <ele>95.36393080465496</ele>
        <time>2026-08-24T13:23:14Z</time>
      </trkpt>
      <trkpt lat="34.83248455714182" lon="113.65611027457501">
        <ele>93.40122522041202</ele>
        <time>2026-08-24T13:23:20Z</time>
      </trkpt>
      <trkpt lat="34.83236567156431" lon="113.65613753890896">
        <ele>91.80889569409192</ele>
        <time>2026-08-24T13:23:29Z</time>
      </trkpt>
      <trkpt lat="34.832055187207075" lon="113.65606027230369">
        <ele>91.977707805112</ele>
        <time>2026-08-24T13:23:50Z</time>
      </trkpt>
      <trkpt lat="34.83181404194487" lon="113.65606804729468">
        <ele>91.51440600119531</ele>
        <time>2026-08-24T13:24:05Z</time>
      </trkpt>
      <trkpt lat="34.831519112108985" lon="113.65620819999462">
        <ele>92.65469841193408</ele>
        <time>2026-08-24T13:24:26Z</time>
      </trkpt>
      <trkpt lat="34.83139701707789" lon="113.65627252262911">
        <ele>91.5599065264687</ele>
        <time>2026-08-24T13:24:35Z</time>
      </trkpt>
      <trkpt lat="34.83125162440681" lon="113.65619173849491">
        <ele>91.84017603006214</ele>
        <time>2026-08-24T13:24:45Z</time>
      </trkpt>
      <trkpt lat="34.83101092332133" lon="113.65615720205909">
        <ele>92.39669404737651</ele>
        <time>2026-08-24T13:25:00Z</time>
      </trkpt>
      <trkpt lat="34.83086386411239" lon="113.65617023066835">
        <ele>94.50467064324766</ele>
        <time>2026-08-24T13:25:09Z</time>
      </trkpt>
      <trkpt lat="34.83070565809535" lon="113.6562757433162">
        <ele>95.13020770531148</ele>
        <time>2026-08-24T13:25:21Z</time>
      </trkpt>
      <trkpt lat="34.83064193070344" lon="113.65634265528877">
        <ele>94.1136522050947</ele>
        <time>2026-08-24T13:25:27Z</time>
      </trkpt>
      <trkpt lat="34.83054316206284" lon="113.65665160176084">
        <ele>93.71583486068994</ele>
        <time>2026-08-24T13:25:45Z</time>
      </trkpt>
      <trkpt lat="34.830294477305934" lon="113.65678452006065">
        <ele>94.33645123802125</ele>
        <time>2026-08-24T13:26:00Z</time>
      </trkpt>
      <trkpt lat="34.83023341470883" lon="113.657139591496">
        <ele>95.34111434780061</ele>
        <time>2026-08-24T13:26:15Z</time>
      </trkpt>
      <trkpt lat="34.830195463247605" lon="113.65733585769341">
        <ele>96.26191459223628</ele>
        <time>2026-08-24T13:26:24Z</time>
      </trkpt>
      <trkpt lat="34.830220276792744" lon="113.65739045121039">
        <ele>93.94665112532675</ele>
        <time>2026-08-24T13:26:30Z</time>
      </trkpt>
      <trkpt lat="34.83021091810194" lon="113.65751415283687">
        <ele>93.73131296690553</ele>
        <time>2026-08-24T13:26:36Z</time>
      </trkpt>
      <trkpt lat="34.83018411078643" lon="113.65790505096228">
        <ele>93.01980952359736</ele>
        <time>2026-08-24T13:26:54Z</time>
      </trkpt>
      <trkpt lat="34.83016699909115" lon="113.65828815693578">
        <ele>92.57628989871591</ele>
        <time>2026-08-24T13:27:13Z</time>
      </trkpt>
      <trkpt lat="34.8301767218275" lon="113.65835269518072">
        <ele>92.15637054014951</ele>
        <time>2026-08-24T13:27:16Z</time>
      </trkpt>
      <trkpt lat="34.83014911959684" lon="113.65852881153003">
        <ele>93.12293720804155</ele>
        <time>2026-08-24T13:27:25Z</time>
      </trkpt>
      <trkpt lat="34.83010910046326" lon="113.65855481653887">
        <ele>93.30180407036096</ele>
        <time>2026-08-24T13:27:28Z</time>
      </trkpt>
      <trkpt lat="34.83005747412755" lon="113.65852438141363">
        <ele>92.5522938594222</ele>
        <time>2026-08-24T13:27:31Z</time>
      </trkpt>
      <trkpt lat="34.830001391882185" lon="113.65852091964041">
        <ele>94.2543353382498</ele>
        <time>2026-08-24T13:27:40Z</time>
      </trkpt>
      <trkpt lat="34.82989075939915" lon="113.65847337658808">
        <ele>93.10589673463255</ele>
        <time>2026-08-24T13:27:49Z</time>
      </trkpt>
      <trkpt lat="34.82982740723275" lon="113.65847453026565">
        <ele>92.2830402571708</ele>
        <time>2026-08-24T13:27:52Z</time>
      </trkpt>
      <trkpt lat="34.82976445199731" lon="113.65842089141759">
        <ele>92.14177726209164</ele>
        <time>2026-08-24T13:27:58Z</time>
      </trkpt>
      <trkpt lat="34.82967702579771" lon="113.65817942861517">
        <ele>92.29092822782695</ele>
        <time>2026-08-24T13:28:10Z</time>
      </trkpt>
      <trkpt lat="34.82937654671062" lon="113.6581035633907">
        <ele>93.1461488828063</ele>
        <time>2026-08-24T13:28:28Z</time>
      </trkpt>
      <trkpt lat="34.82927293617012" lon="113.65811998831454">
        <ele>93.65940354205668</ele>
        <time>2026-08-24T13:28:34Z</time>
      </trkpt>
      <trkpt lat="34.82927491110437" lon="113.65823440024185">
        <ele>94.43103327043355</ele>
        <time>2026-08-24T13:28:40Z</time>
      </trkpt>
      <trkpt lat="34.82923643974497" lon="113.65853254533837">
        <ele>95.84999666176736</ele>
        <time>2026-08-24T13:28:53Z</time>
      </trkpt>
      <trkpt lat="34.82924584884823" lon="113.65868692393862">
        <ele>94.75623928476125</ele>
        <time>2026-08-24T13:29:00Z</time>
      </trkpt>
      <trkpt lat="34.82920820535103" lon="113.65884688470385">
        <ele>93.5150177469477</ele>
        <time>2026-08-24T13:29:07Z</time>
      </trkpt>
      <trkpt lat="34.82913050614234" lon="113.65886447981725">
        <ele>93.32749118376523</ele>
        <time>2026-08-24T13:29:13Z</time>
      </trkpt>
      <trkpt lat="34.82908477810177" lon="113.65884220511184">
        <ele>93.53248252905905</ele>
        <time>2026-08-24T13:29:19Z</time>
      </trkpt>
      <trkpt lat="34.829098320386464" lon="113.65874179837162">
        <ele>88.28861810546368</ele>
        <time>2026-08-24T13:29:28Z</time>
      </trkpt>
      <trkpt lat="34.82915045646544" lon="113.65872922616327">
        <ele>88.74559881072491</ele>
        <time>2026-08-24T13:29:34Z</time>
      </trkpt>
      <trkpt lat="34.82911351242386" lon="113.6588104989999">
        <ele>93.58699608378494</ele>
        <time>2026-08-24T13:29:52Z</time>
      </trkpt>
      <trkpt lat="34.82908833116819" lon="113.65876299016364">
        <ele>92.91784529238745</ele>
        <time>2026-08-24T13:30:04Z</time>
      </trkpt>
      <trkpt lat="34.829022745465515" lon="113.65867439117383">
        <ele>93.65609504905312</ele>
        <time>2026-08-24T13:30:35Z</time>
      </trkpt>
      <trkpt lat="34.82890126625078" lon="113.65873937348796">
        <ele>94.06140125666737</ele>
        <time>2026-08-24T13:31:34Z</time>
      </trkpt>
      <trkpt lat="34.82883928445305" lon="113.65867351469922">
        <ele>93.75760461093529</ele>
        <time>2026-08-24T13:32:04Z</time>
      </trkpt>
      <trkpt lat="34.82877341067423" lon="113.65867663941951">
        <ele>136.51472396589816</ele>
        <time>2026-08-24T13:32:46Z</time>
      </trkpt>
      <trkpt lat="34.82886713632427" lon="113.6587930929315">
        <ele>140.08782694116235</ele>
        <time>2026-08-24T13:32:54Z</time>
      </trkpt>
    </trkseg>
  </trk>
</gpx>