<?xml version="1.0" encoding="UTF-8"?>
<gpx xmlns="http://www.topografix.com/GPX/1/1" xmlns:gpxtpx="http://www.garmin.com/xmlschemas/TrackPointExtension/v1" xmlns:xsi="http://www.w3.org/2001/XMLSchema-instance" xsi:schemaLocation="http://www.topografix.com/GPX/1/1 http://www.topografix.com/GPX/1/1/gpx.xsd" version="1.1" creator="gpx.py -- https://github.com/tkrajina/gpxpy">
  <trk>
    <name>gpx from keep</name>
    <type>Run</type>
    <trkseg>
      <trkpt lat="34.830348714396784" lon="113.65907244665846">
        <ele>82.73126220703125</ele>
        <time>2026-08-27T03:53:10Z</time>
      </trkpt>
      <trkpt lat="34.83032741712977" lon="113.65944854890827">
        <ele>85.07394082192332</ele>
        <time>2026-08-27T03:53:22Z</time>
      </trkpt>
      <trkpt lat="34.83029177116076" lon="113.65984049490315">
        <ele>87.04752778448164</ele>
        <time>2026-08-27T03:53:34Z</time>
      </trkpt>
      <trkpt lat="34.830265346646925" lon="113.65992569632809">
        <ele>90.0378475645557</ele>
        <time>2026-08-27T03:53:37Z</time>
      </trkpt>
      <trkpt lat="34.83041385620229" lon="113.66004141067306">
        <ele>92.69104274921119</ele>
        <time>2026-08-27T03:53:46Z</time>
      </trkpt>
      <trkpt lat="34.830459341472036" lon="113.65998765154286">
        <ele>92.21206443011761</ele>
        <time>2026-08-27T03:53:49Z</time>
      </trkpt>
      <trkpt lat="34.830590547953236" lon="113.65999880936577">
        <ele>94.57489747181535</ele>
        <time>2026-08-27T03:53:55Z</time>
      </trkpt>
      <trkpt lat="34.830843309864356" lon="113.65999198718283">
        <ele>94.30057661887258</ele>
        <time>2026-08-27T03:54:04Z</time>
      </trkpt>
      <trkpt lat="34.83091306750449" lon="113.66000937820813">
        <ele>95.34744791593403</ele>
        <time>2026-08-27T03:54:07Z</time>
      </trkpt>
      <trkpt lat="34.831171262108136" lon="113.65998514474627">
        <ele>92.01818961370736</ele>
        <time>2026-08-27T03:54:16Z</time>
      </trkpt>
      <trkpt lat="34.83123601092141" lon="113.65994828397251">
        <ele>88.46851675119251</ele>
        <time>2026-08-27T03:54:19Z</time>
      </trkpt>
      <trkpt lat="34.83151900172682" lon="113.65995869618148">
        <ele>91.59422895591706</ele>
        <time>2026-08-27T03:54:31Z</time>
      </trkpt>
      <trkpt lat="34.831778801737904" lon="113.65995661782632">
        <ele>93.13051817938685</ele>
        <time>2026-08-27T03:54:40Z</time>
      </trkpt>
      <trkpt lat="34.8318440469813" lon="113.65993127775728">
        <ele>93.87416055426002</ele>
        <time>2026-08-27T03:54:43Z</time>
      </trkpt>
      <trkpt lat="34.83206462526871" lon="113.65990028939493">
        <ele>94.91278626117855</ele>
        <time>2026-08-27T03:54:52Z</time>
      </trkpt>
      <trkpt lat="34.832102322923696" lon="113.6598356754497">
        <ele>94.21099782083184</ele>
        <time>2026-08-27T03:54:55Z</time>
      </trkpt>
      <trkpt lat="34.83211557998407" lon="113.65961863279993">
        <ele>91.87755041662604</ele>
        <time>2026-08-27T03:55:04Z</time>
      </trkpt>
      <trkpt lat="34.83207247358542" lon="113.65925137120786">
        <ele>90.7660455731675</ele>
        <time>2026-08-27T03:55:17Z</time>
      </trkpt>
      <trkpt lat="34.832138036971365" lon="113.65897612341887">
        <ele>90.15146085526794</ele>
        <time>2026-08-27T03:55:26Z</time>
      </trkpt>
      <trkpt lat="34.83216083525844" lon="113.6587213601151">
        <ele>89.24879933241755</ele>
        <time>2026-08-27T03:55:35Z</time>
      </trkpt>
      <trkpt lat="34.832186923525164" lon="113.65862442850207">
        <ele>89.01018496509641</ele>
        <time>2026-08-27T03:55:38Z</time>
      </trkpt>
      <trkpt lat="34.8321542768013" lon="113.65845724550314">
        <ele>87.93640737701207</ele>
        <time>2026-08-27T03:55:44Z</time>
      </trkpt>
      <trkpt lat="34.8322171039566" lon="113.65832598188157">
        <ele>86.58511875197291</ele>
        <time>2026-08-27T03:55:50Z</time>
      </trkpt>
      <trkpt lat="34.832175902524725" lon="113.65815362598659">
        <ele>87.42912372108549</ele>
        <time>2026-08-27T03:55:56Z</time>
      </trkpt>
      <trkpt lat="34.832163053203914" lon="113.65782492459122">
        <ele>86.3478633183986</ele>
        <time>2026-08-27T03:56:08Z</time>
      </trkpt>
      <trkpt lat="34.83219113968395" lon="113.65766423826045">
        <ele>88.3846489880234</ele>
        <time>2026-08-27T03:56:14Z</time>
      </trkpt>
      <trkpt lat="34.83216964573803" lon="113.65733109256512">
        <ele>87.01529215928167</ele>
        <time>2026-08-27T03:56:26Z</time>
      </trkpt>
      <trkpt lat="34.832184074067" lon="113.65724154575555">
        <ele>86.27041019219905</ele>
        <time>2026-08-27T03:56:29Z</time>
      </trkpt>
      <trkpt lat="34.83206208878348" lon="113.6572210084317">
        <ele>86.34943931363523</ele>
        <time>2026-08-27T03:56:32Z</time>
      </trkpt>
      <trkpt lat="34.83177290381239" lon="113.65726395659642">
        <ele>85.06375183537602</ele>
        <time>2026-08-27T03:56:44Z</time>
      </trkpt>
      <trkpt lat="34.83169908531829" lon="113.65727958460866">
        <ele>85.39003270119429</ele>
        <time>2026-08-27T03:56:47Z</time>
      </trkpt>
      <trkpt lat="34.83155086063244" lon="113.65725516682849">
        <ele>84.61666495911777</ele>
        <time>2026-08-27T03:56:53Z</time>
      </trkpt>
      <trkpt lat="34.83123034265868" lon="113.65724505346078">
        <ele>80.62047271803021</ele>
        <time>2026-08-27T03:57:08Z</time>
      </trkpt>
      <trkpt lat="34.830986025033845" lon="113.65721104978553">
        <ele>79.58633140940219</ele>
        <time>2026-08-27T03:57:20Z</time>
      </trkpt>
      <trkpt lat="34.8309006581631" lon="113.65717989787721">
        <ele>81.06464058626443</ele>
        <time>2026-08-27T03:57:24Z</time>
      </trkpt>
      <trkpt lat="34.83070273183779" lon="113.65715192006972">
        <ele>80.55897579435259</ele>
        <time>2026-08-27T03:57:32Z</time>
      </trkpt>
      <trkpt lat="34.830465832272104" lon="113.65717635299484">
        <ele>79.57235166896135</ele>
        <time>2026-08-27T03:57:42Z</time>
      </trkpt>
      <trkpt lat="34.83039808412946" lon="113.65722019703603">
        <ele>79.99292773753405</ele>
        <time>2026-08-27T03:57:45Z</time>
      </trkpt>
      <trkpt lat="34.83035055394591" lon="113.65728231477112">
        <ele>80.52816680446267</ele>
        <time>2026-08-27T03:57:48Z</time>
      </trkpt>
      <trkpt lat="34.830343758639984" lon="113.65759503322155">
        <ele>79.06481514405459</ele>
        <time>2026-08-27T03:58:00Z</time>
      </trkpt>
      <trkpt lat="34.83032047320559" lon="113.65768028147265">
        <ele>80.15606104396284</ele>
        <time>2026-08-27T03:58:03Z</time>
      </trkpt>
      <trkpt lat="34.83032924827874" lon="113.65785235663215">
        <ele>80.58196443412453</ele>
        <time>2026-08-27T03:58:09Z</time>
      </trkpt>
      <trkpt lat="34.83031310362385" lon="113.65794353104518">
        <ele>81.5746135218069</ele>
        <time>2026-08-27T03:58:12Z</time>
      </trkpt>
      <trkpt lat="34.83030598352099" lon="113.65819715900616">
        <ele>82.04622475802898</ele>
        <time>2026-08-27T03:58:21Z</time>
      </trkpt>
      <trkpt lat="34.83026095709176" lon="113.65855134753323">
        <ele>84.33761452231556</ele>
        <time>2026-08-27T03:58:33Z</time>
      </trkpt>
      <trkpt lat="34.83026068508858" lon="113.65895696469059">
        <ele>87.75441120844334</ele>
        <time>2026-08-27T03:58:48Z</time>
      </trkpt>
      <trkpt lat="34.8302720336043" lon="113.65924277661188">
        <ele>86.69940901827067</ele>
        <time>2026-08-27T03:59:00Z</time>
      </trkpt>
      <trkpt lat="34.830235427970756" lon="113.6596000542352">
        <ele>89.0111299790442</ele>
        <time>2026-08-27T03:59:12Z</time>
      </trkpt>
      <trkpt lat="34.83020940683577" lon="113.65983534894477">
        <ele>90.44352787733078</ele>
        <time>2026-08-27T03:59:21Z</time>
      </trkpt>
      <trkpt lat="34.83023067448631" lon="113.65990592086531">
        <ele>89.99741837196052</ele>
        <time>2026-08-27T03:59:24Z</time>
      </trkpt>
      <trkpt lat="34.83027049463792" lon="113.65996563418148">
        <ele>90.69550008885562</ele>
        <time>2026-08-27T03:59:27Z</time>
      </trkpt>
      <trkpt lat="34.830435223767175" lon="113.65999799275643">
        <ele>90.46571721788496</ele>
        <time>2026-08-27T03:59:35Z</time>
      </trkpt>
      <trkpt lat="34.830752848034365" lon="113.65997571134517">
        <ele>91.56398469768465</ele>
        <time>2026-08-27T03:59:49Z</time>
      </trkpt>
      <trkpt lat="34.831010391335695" lon="113.66000234422253">
        <ele>92.5105620585382</ele>
        <time>2026-08-27T04:00:01Z</time>
      </trkpt>
      <trkpt lat="34.83128977739746" lon="113.65996366868036">
        <ele>92.77261258102953</ele>
        <time>2026-08-27T04:00:13Z</time>
      </trkpt>
      <trkpt lat="34.83156515934169" lon="113.65994656728182">
        <ele>95.09861661214381</ele>
        <time>2026-08-27T04:00:25Z</time>
      </trkpt>
      <trkpt lat="34.83163456673747" lon="113.65992481684002">
        <ele>93.2187632592395</ele>
        <time>2026-08-27T04:00:28Z</time>
      </trkpt>
      <trkpt lat="34.83200239061289" lon="113.65993322013513">
        <ele>95.02567240968347</ele>
        <time>2026-08-27T04:00:43Z</time>
      </trkpt>
      <trkpt lat="34.83205707580044" lon="113.6598849705853">
        <ele>94.83423465769738</ele>
        <time>2026-08-27T04:00:46Z</time>
      </trkpt>
      <trkpt lat="34.832086637797026" lon="113.65983103610895">
        <ele>93.41419679578394</ele>
        <time>2026-08-27T04:00:49Z</time>
      </trkpt>
      <trkpt lat="34.83208247739928" lon="113.65944171572961">
        <ele>88.70548537373543</ele>
        <time>2026-08-27T04:01:04Z</time>
      </trkpt>
      <trkpt lat="34.83208148400733" lon="113.65936695167179">
        <ele>88.29824296478182</ele>
        <time>2026-08-27T04:01:07Z</time>
      </trkpt>
      <trkpt lat="34.83213374708633" lon="113.65902305882005">
        <ele>87.20631134789437</ele>
        <time>2026-08-27T04:01:19Z</time>
      </trkpt>
      <trkpt lat="34.83216152223807" lon="113.65868516816877">
        <ele>86.76370428316295</ele>
        <time>2026-08-27T04:01:31Z</time>
      </trkpt>
      <trkpt lat="34.83212462106916" lon="113.65846505213631">
        <ele>87.10858746431768</ele>
        <time>2026-08-27T04:01:39Z</time>
      </trkpt>
      <trkpt lat="34.83215794957322" lon="113.65836219987743">
        <ele>87.00620555412024</ele>
        <time>2026-08-27T04:01:43Z</time>
      </trkpt>
      <trkpt lat="34.832167088369275" lon="113.65825414131442">
        <ele>87.04135265946388</ele>
        <time>2026-08-27T04:01:47Z</time>
      </trkpt>
      <trkpt lat="34.83215209121024" lon="113.65816035881548">
        <ele>87.18663708493114</ele>
        <time>2026-08-27T04:01:51Z</time>
      </trkpt>
      <trkpt lat="34.83216657158009" lon="113.65810628907683">
        <ele>88.05495706293732</ele>
        <time>2026-08-27T04:01:54Z</time>
      </trkpt>
      <trkpt lat="34.83216002018983" lon="113.65771977705235">
        <ele>86.32309715729207</ele>
        <time>2026-08-27T04:02:09Z</time>
      </trkpt>
      <trkpt lat="34.832165449343755" lon="113.65736612446238">
        <ele>86.22160775586963</ele>
        <time>2026-08-27T04:02:21Z</time>
      </trkpt>
      <trkpt lat="34.83211040070754" lon="113.65721709195833">
        <ele>87.64338358771056</ele>
        <time>2026-08-27T04:02:27Z</time>
      </trkpt>
      <trkpt lat="34.83180416663827" lon="113.65723793847431">
        <ele>85.69785594660789</ele>
        <time>2026-08-27T04:02:42Z</time>
      </trkpt>
      <trkpt lat="34.83150604500097" lon="113.65723703367459">
        <ele>84.36024831980467</ele>
        <time>2026-08-27T04:02:54Z</time>
      </trkpt>
      <trkpt lat="34.831281940853934" lon="113.657225192509">
        <ele>83.2055529197678</ele>
        <time>2026-08-27T04:03:03Z</time>
      </trkpt>
      <trkpt lat="34.830978032448414" lon="113.65716314935464">
        <ele>82.23551578167826</ele>
        <time>2026-08-27T04:03:18Z</time>
      </trkpt>
      <trkpt lat="34.8306484205836" lon="113.65713514314984">
        <ele>82.75617503933609</ele>
        <time>2026-08-27T04:03:33Z</time>
      </trkpt>
      <trkpt lat="34.83043107411536" lon="113.65715176133084">
        <ele>83.33738038875163</ele>
        <time>2026-08-27T04:03:43Z</time>
      </trkpt>
      <trkpt lat="34.830368672874734" lon="113.65721068020326">
        <ele>82.34417348913848</ele>
        <time>2026-08-27T04:03:47Z</time>
      </trkpt>
      <trkpt lat="34.83032091031229" lon="113.65737930689171">
        <ele>81.93723607715219</ele>
        <time>2026-08-27T04:03:55Z</time>
      </trkpt>
      <trkpt lat="34.830309739296744" lon="113.65771361366203">
        <ele>84.39507722016424</ele>
        <time>2026-08-27T04:04:07Z</time>
      </trkpt>
      <trkpt lat="34.830291617279215" lon="113.65787720514425">
        <ele>85.2581721721217</ele>
        <time>2026-08-27T04:04:13Z</time>
      </trkpt>
      <trkpt lat="34.83036584361019" lon="113.65816677828808">
        <ele>84.80747376568615</ele>
        <time>2026-08-27T04:04:25Z</time>
      </trkpt>
      <trkpt lat="34.830411989282744" lon="113.65820744067052">
        <ele>83.77088207565248</ele>
        <time>2026-08-27T04:04:28Z</time>
      </trkpt>
      <trkpt lat="34.83048937264065" lon="113.65823583088279">
        <ele>83.00565134827048</ele>
        <time>2026-08-27T04:04:31Z</time>
      </trkpt>
      <trkpt lat="34.83078286643929" lon="113.65824233444174">
        <ele>83.18844432663172</ele>
        <time>2026-08-27T04:04:46Z</time>
      </trkpt>
      <trkpt lat="34.831014202091865" lon="113.65817000802484">
        <ele>88.45475807320327</ele>
        <time>2026-08-27T04:04:58Z</time>
      </trkpt>
      <trkpt lat="34.831294692057455" lon="113.65824298559446">
        <ele>92.94606321118772</ele>
        <time>2026-08-27T04:05:10Z</time>
      </trkpt>
      <trkpt lat="34.83136949692918" lon="113.65830180386732">
        <ele>92.68090228922665</ele>
        <time>2026-08-27T04:05:13Z</time>
      </trkpt>
      <trkpt lat="34.831451870985234" lon="113.65861834350127">
        <ele>92.55741272680461</ele>
        <time>2026-08-27T04:05:22Z</time>
      </trkpt>
      <trkpt lat="34.831420015301845" lon="113.65881597282952">
        <ele>92.0628968840465</ele>
        <time>2026-08-27T04:05:28Z</time>
      </trkpt>
      <trkpt lat="34.831343112454164" lon="113.6589853247367">
        <ele>90.12636781577021</ele>
        <time>2026-08-27T04:05:34Z</time>
      </trkpt>
      <trkpt lat="34.83123257114068" lon="113.65909085773636">
        <ele>87.73407995328307</ele>
        <time>2026-08-27T04:05:40Z</time>
      </trkpt>
      <trkpt lat="34.8311682693533" lon="113.65912396878446">
        <ele>87.52426766045392</ele>
        <time>2026-08-27T04:05:43Z</time>
      </trkpt>
      <trkpt lat="34.831059836371594" lon="113.65913418701521">
        <ele>86.3765356587246</ele>
        <time>2026-08-27T04:05:47Z</time>
      </trkpt>
      <trkpt lat="34.83094743057488" lon="113.6591140731227">
        <ele>85.78430602233857</ele>
        <time>2026-08-27T04:05:51Z</time>
      </trkpt>
      <trkpt lat="34.83087196293269" lon="113.65906315150015">
        <ele>84.51452994346619</ele>
        <time>2026-08-27T04:05:55Z</time>
      </trkpt>
      <trkpt lat="34.83080899217279" lon="113.65899494994888">
        <ele>85.34257190395147</ele>
        <time>2026-08-27T04:06:02Z</time>
      </trkpt>
      <trkpt lat="34.83081880093931" lon="113.65889298618946">
        <ele>84.64692433178425</ele>
        <time>2026-08-27T04:06:08Z</time>
      </trkpt>
      <trkpt lat="34.8308922597559" lon="113.65880811226104">
        <ele>83.24126734398305</ele>
        <time>2026-08-27T04:06:11Z</time>
      </trkpt>
      <trkpt lat="34.830895667728434" lon="113.65871251245602">
        <ele>84.25732833892107</ele>
        <time>2026-08-27T04:06:14Z</time>
      </trkpt>
      <trkpt lat="34.83094158843962" lon="113.65862490442973">
        <ele>86.28396270330995</ele>
        <time>2026-08-27T04:06:17Z</time>
      </trkpt>
      <trkpt lat="34.83091456417217" lon="113.65854555087208">
        <ele>88.06472309678793</ele>
        <time>2026-08-27T04:06:20Z</time>
      </trkpt>
      <trkpt lat="34.83083253307652" lon="113.65848625749051">
        <ele>87.04323358554393</ele>
        <time>2026-08-27T04:06:26Z</time>
      </trkpt>
    </trkseg>
  </trk>
</gpx>