<?xml version="1.0" encoding="UTF-8"?>
<gpx xmlns="http://www.topografix.com/GPX/1/1" xmlns:gpxtpx="http://www.garmin.com/xmlschemas/TrackPointExtension/v1" xmlns:xsi="http://www.w3.org/2001/XMLSchema-instance" xsi:schemaLocation="http://www.topografix.com/GPX/1/1 http://www.topografix.com/GPX/1/1/gpx.xsd" version="1.1" creator="gpx.py -- https://github.com/tkrajina/gpxpy">
  <trk>
    <name>gpx from keep</name>
    <type>Run</type>
    <trkseg>
      <trkpt lat="34.82966363087757" lon="113.65738434253751">
        <ele>81.5625</ele>
        <time>2026-09-07T00:35:52Z</time>
      </trkpt>
      <trkpt lat="34.82966359251042" lon="113.65730381249217">
        <ele>82.40988678205758</ele>
        <time>2026-09-07T00:35:54Z</time>
      </trkpt>
      <trkpt lat="34.82964497272966" lon="113.65724996320216">
        <ele>82.70945192687213</ele>
        <time>2026-09-07T00:35:57Z</time>
      </trkpt>
      <trkpt lat="34.82966279789019" lon="113.65700838731091">
        <ele>89.49066853243858</ele>
        <time>2026-09-07T00:36:06Z</time>
      </trkpt>
      <trkpt lat="34.829737485541855" lon="113.65666613979911">
        <ele>91.17686469852924</ele>
        <time>2026-09-07T00:36:18Z</time>
      </trkpt>
      <trkpt lat="34.829773553086795" lon="113.65630395818609">
        <ele>86.9939541509375</ele>
        <time>2026-09-07T00:36:33Z</time>
      </trkpt>
      <trkpt lat="34.82978981998217" lon="113.65615191643461">
        <ele>86.86186914611608</ele>
        <time>2026-09-07T00:36:39Z</time>
      </trkpt>
      <trkpt lat="34.82977716866397" lon="113.65606014156013">
        <ele>88.68732424918562</ele>
        <time>2026-09-07T00:36:42Z</time>
      </trkpt>
      <trkpt lat="34.829798854333596" lon="113.65597682269618">
        <ele>88.38279114849865</ele>
        <time>2026-09-07T00:36:45Z</time>
      </trkpt>
      <trkpt lat="34.82979764068145" lon="113.65575399594015">
        <ele>88.05658874940127</ele>
        <time>2026-09-07T00:36:54Z</time>
      </trkpt>
      <trkpt lat="34.82976885168928" lon="113.65559790723678">
        <ele>88.08270412962884</ele>
        <time>2026-09-07T00:37:00Z</time>
      </trkpt>
      <trkpt lat="34.829864665214124" lon="113.65554904840542">
        <ele>87.02863505017012</ele>
        <time>2026-09-07T00:37:06Z</time>
      </trkpt>
      <trkpt lat="34.829807005515605" lon="113.65550010979236">
        <ele>87.53255436662585</ele>
        <time>2026-09-07T00:37:09Z</time>
      </trkpt>
      <trkpt lat="34.829856015845884" lon="113.65532276301116">
        <ele>88.24442734010518</ele>
        <time>2026-09-07T00:37:15Z</time>
      </trkpt>
      <trkpt lat="34.82987304199042" lon="113.65515734793905">
        <ele>88.8151888595894</ele>
        <time>2026-09-07T00:37:21Z</time>
      </trkpt>
      <trkpt lat="34.8298892386227" lon="113.65478605440175">
        <ele>88.3464689552784</ele>
        <time>2026-09-07T00:37:36Z</time>
      </trkpt>
      <trkpt lat="34.82992620925596" lon="113.65445836615295">
        <ele>90.63981896359473</ele>
        <time>2026-09-07T00:37:48Z</time>
      </trkpt>
      <trkpt lat="34.82990517658912" lon="113.6543064941307">
        <ele>89.96251347102225</ele>
        <time>2026-09-07T00:37:55Z</time>
      </trkpt>
      <trkpt lat="34.82983901783578" lon="113.65430124398831">
        <ele>88.67367468494922</ele>
        <time>2026-09-07T00:37:59Z</time>
      </trkpt>
      <trkpt lat="34.82978988653407" lon="113.65434290283908">
        <ele>89.8732840185985</ele>
        <time>2026-09-07T00:38:05Z</time>
      </trkpt>
      <trkpt lat="34.82959561369572" lon="113.65442979726441">
        <ele>89.62916690669954</ele>
        <time>2026-09-07T00:38:17Z</time>
      </trkpt>
      <trkpt lat="34.82952605605838" lon="113.65444321372075">
        <ele>89.55886075086892</ele>
        <time>2026-09-07T00:38:20Z</time>
      </trkpt>
      <trkpt lat="34.82929703105261" lon="113.65456310907369">
        <ele>89.25501564517617</ele>
        <time>2026-09-07T00:38:32Z</time>
      </trkpt>
      <trkpt lat="34.82916116324649" lon="113.65459057300004">
        <ele>88.95855482853949</ele>
        <time>2026-09-07T00:38:38Z</time>
      </trkpt>
      <trkpt lat="34.829057733111824" lon="113.65468800054958">
        <ele>88.67672870866954</ele>
        <time>2026-09-07T00:38:44Z</time>
      </trkpt>
      <trkpt lat="34.828735186723314" lon="113.6547554062123">
        <ele>89.44781916309148</ele>
        <time>2026-09-07T00:38:59Z</time>
      </trkpt>
      <trkpt lat="34.82857011689996" lon="113.6548329167114">
        <ele>89.32267824467272</ele>
        <time>2026-09-07T00:39:08Z</time>
      </trkpt>
      <trkpt lat="34.828480886879724" lon="113.65484168167977">
        <ele>88.44388885144144</ele>
        <time>2026-09-07T00:39:11Z</time>
      </trkpt>
      <trkpt lat="34.82823877138126" lon="113.65496641265317">
        <ele>89.43308981135488</ele>
        <time>2026-09-07T00:39:26Z</time>
      </trkpt>
      <trkpt lat="34.82798635975844" lon="113.65504234836311">
        <ele>87.94423096626997</ele>
        <time>2026-09-07T00:39:38Z</time>
      </trkpt>
      <trkpt lat="34.82779989466103" lon="113.65515902309538">
        <ele>88.75219144392759</ele>
        <time>2026-09-07T00:39:47Z</time>
      </trkpt>
      <trkpt lat="34.82754439067923" lon="113.6552943834326">
        <ele>87.78991505783051</ele>
        <time>2026-09-07T00:40:00Z</time>
      </trkpt>
      <trkpt lat="34.82730414042243" lon="113.65539181051992">
        <ele>88.87857178878039</ele>
        <time>2026-09-07T00:40:12Z</time>
      </trkpt>
      <trkpt lat="34.82723885368732" lon="113.65544061827698">
        <ele>89.7475456148386</ele>
        <time>2026-09-07T00:40:16Z</time>
      </trkpt>
      <trkpt lat="34.826922802696494" lon="113.65553821800026">
        <ele>89.3221376799047</ele>
        <time>2026-09-07T00:40:32Z</time>
      </trkpt>
      <trkpt lat="34.82668416894661" lon="113.65557428090214">
        <ele>89.2293903613463</ele>
        <time>2026-09-07T00:40:44Z</time>
      </trkpt>
      <trkpt lat="34.82652963339184" lon="113.6556226680205">
        <ele>89.22201698739082</ele>
        <time>2026-09-07T00:40:50Z</time>
      </trkpt>
      <trkpt lat="34.82633608234376" lon="113.65564540754859">
        <ele>89.06111521739513</ele>
        <time>2026-09-07T00:40:59Z</time>
      </trkpt>
      <trkpt lat="34.82637510310059" lon="113.65572076593757">
        <ele>88.69557337276638</ele>
        <time>2026-09-07T00:41:02Z</time>
      </trkpt>
      <trkpt lat="34.826322040353595" lon="113.65571992152584">
        <ele>88.76626353804022</ele>
        <time>2026-09-07T00:41:05Z</time>
      </trkpt>
      <trkpt lat="34.82633936429429" lon="113.65580643011269">
        <ele>89.40989311225712</ele>
        <time>2026-09-07T00:41:08Z</time>
      </trkpt>
      <trkpt lat="34.826163468088986" lon="113.65597775083397">
        <ele>89.33265393599868</ele>
        <time>2026-09-07T00:41:17Z</time>
      </trkpt>
      <trkpt lat="34.826021190258395" lon="113.65602077218117">
        <ele>88.95067163556814</ele>
        <time>2026-09-07T00:41:23Z</time>
      </trkpt>
      <trkpt lat="34.825740042339525" lon="113.65613742987614">
        <ele>89.12960742600262</ele>
        <time>2026-09-07T00:41:38Z</time>
      </trkpt>
      <trkpt lat="34.8256056732381" lon="113.65619529866679">
        <ele>88.94967330060899</ele>
        <time>2026-09-07T00:41:44Z</time>
      </trkpt>
      <trkpt lat="34.82555502521921" lon="113.65625621133975">
        <ele>89.77844753675163</ele>
        <time>2026-09-07T00:41:47Z</time>
      </trkpt>
      <trkpt lat="34.82539317958505" lon="113.65625254201142">
        <ele>88.58766057807952</ele>
        <time>2026-09-07T00:41:53Z</time>
      </trkpt>
      <trkpt lat="34.82525808388757" lon="113.65628418871847">
        <ele>89.03092504106462</ele>
        <time>2026-09-07T00:41:59Z</time>
      </trkpt>
      <trkpt lat="34.82503251750549" lon="113.65630818255813">
        <ele>89.20396846532822</ele>
        <time>2026-09-07T00:42:10Z</time>
      </trkpt>
      <trkpt lat="34.824955231780685" lon="113.65634707663331">
        <ele>89.11656893324107</ele>
        <time>2026-09-07T00:42:14Z</time>
      </trkpt>
      <trkpt lat="34.824903426308175" lon="113.65642707409621">
        <ele>88.76659325137734</ele>
        <time>2026-09-07T00:42:18Z</time>
      </trkpt>
      <trkpt lat="34.82461130718859" lon="113.65655520241197">
        <ele>89.62977873533964</ele>
        <time>2026-09-07T00:42:33Z</time>
      </trkpt>
      <trkpt lat="34.82451647738429" lon="113.65657211483517">
        <ele>88.63769344426692</ele>
        <time>2026-09-07T00:42:39Z</time>
      </trkpt>
      <trkpt lat="34.824440238990384" lon="113.65654948110969">
        <ele>88.34781060833484</ele>
        <time>2026-09-07T00:42:42Z</time>
      </trkpt>
      <trkpt lat="34.824406547685285" lon="113.65658925940485">
        <ele>89.04805138986558</ele>
        <time>2026-09-07T00:42:45Z</time>
      </trkpt>
      <trkpt lat="34.824130689756245" lon="113.65667479972589">
        <ele>89.7511875173077</ele>
        <time>2026-09-07T00:42:57Z</time>
      </trkpt>
      <trkpt lat="34.823964130357496" lon="113.65672060706873">
        <ele>90.7096263114363</ele>
        <time>2026-09-07T00:43:06Z</time>
      </trkpt>
      <trkpt lat="34.823890726025695" lon="113.65677304462685">
        <ele>90.19604264572263</ele>
        <time>2026-09-07T00:43:09Z</time>
      </trkpt>
      <trkpt lat="34.823622895922746" lon="113.65687249798181">
        <ele>90.25748971384019</ele>
        <time>2026-09-07T00:43:24Z</time>
      </trkpt>
      <trkpt lat="34.82346593953369" lon="113.65693150634391">
        <ele>90.06279394123703</ele>
        <time>2026-09-07T00:43:33Z</time>
      </trkpt>
      <trkpt lat="34.823373898462755" lon="113.65690667943052">
        <ele>89.20676193013787</ele>
        <time>2026-09-07T00:43:36Z</time>
      </trkpt>
      <trkpt lat="34.82326157952628" lon="113.65692183164984">
        <ele>90.195183028467</ele>
        <time>2026-09-07T00:43:42Z</time>
      </trkpt>
      <trkpt lat="34.8231025550946" lon="113.65700835376394">
        <ele>90.4034342803061</ele>
        <time>2026-09-07T00:43:51Z</time>
      </trkpt>
      <trkpt lat="34.823071512108356" lon="113.65711093309942">
        <ele>90.50172352325171</ele>
        <time>2026-09-07T00:43:54Z</time>
      </trkpt>
      <trkpt lat="34.82300900522863" lon="113.65712231590487">
        <ele>90.41468899231404</ele>
        <time>2026-09-07T00:43:57Z</time>
      </trkpt>
      <trkpt lat="34.82286091507372" lon="113.65726100801162">
        <ele>89.97247633431107</ele>
        <time>2026-09-07T00:44:06Z</time>
      </trkpt>
      <trkpt lat="34.82274497029253" lon="113.65729661117933">
        <ele>89.71441342215985</ele>
        <time>2026-09-07T00:44:13Z</time>
      </trkpt>
      <trkpt lat="34.822562647262" lon="113.6574371720042">
        <ele>88.64933659229428</ele>
        <time>2026-09-07T00:44:21Z</time>
      </trkpt>
      <trkpt lat="34.82235966037788" lon="113.6574828743764">
        <ele>88.24826124683022</ele>
        <time>2026-09-07T00:44:29Z</time>
      </trkpt>
      <trkpt lat="34.82227934577291" lon="113.65745327951345">
        <ele>88.45391832944006</ele>
        <time>2026-09-07T00:44:32Z</time>
      </trkpt>
      <trkpt lat="34.82200526862235" lon="113.65745874300477">
        <ele>88.76094300765544</ele>
        <time>2026-09-07T00:44:44Z</time>
      </trkpt>
      <trkpt lat="34.82194719678708" lon="113.65747792254284">
        <ele>89.3160371016711</ele>
        <time>2026-09-07T00:44:47Z</time>
      </trkpt>
      <trkpt lat="34.82173506069608" lon="113.65770019901636">
        <ele>88.96606913022697</ele>
        <time>2026-09-07T00:45:02Z</time>
      </trkpt>
      <trkpt lat="34.82166195773201" lon="113.65773435663047">
        <ele>89.02075835783035</ele>
        <time>2026-09-07T00:45:05Z</time>
      </trkpt>
      <trkpt lat="34.82161375386219" lon="113.65777748684984">
        <ele>87.72292185854167</ele>
        <time>2026-09-07T00:45:08Z</time>
      </trkpt>
      <trkpt lat="34.82154293109689" lon="113.65774772218666">
        <ele>88.27055446989834</ele>
        <time>2026-09-07T00:45:11Z</time>
      </trkpt>
      <trkpt lat="34.821307891545594" lon="113.65789724067085">
        <ele>89.45416615717113</ele>
        <time>2026-09-07T00:45:26Z</time>
      </trkpt>
      <trkpt lat="34.82103659572662" lon="113.65796341355664">
        <ele>90.45774841681123</ele>
        <time>2026-09-07T00:45:38Z</time>
      </trkpt>
      <trkpt lat="34.82080346598537" lon="113.6580737832069">
        <ele>89.15756129287183</ele>
        <time>2026-09-07T00:45:53Z</time>
      </trkpt>
      <trkpt lat="34.82084279732362" lon="113.65812681444321">
        <ele>87.98226402979344</ele>
        <time>2026-09-07T00:45:59Z</time>
      </trkpt>
      <trkpt lat="34.82082563523739" lon="113.65819120478085">
        <ele>88.14553324598819</ele>
        <time>2026-09-07T00:46:02Z</time>
      </trkpt>
      <trkpt lat="34.820717560933865" lon="113.65824444533534">
        <ele>88.3498864211142</ele>
        <time>2026-09-07T00:46:11Z</time>
      </trkpt>
      <trkpt lat="34.82060159440797" lon="113.65825663912088">
        <ele>88.7367976559326</ele>
        <time>2026-09-07T00:46:22Z</time>
      </trkpt>
      <trkpt lat="34.82024914494998" lon="113.65849630942115">
        <ele>95.7789306640625</ele>
        <time>2026-09-07T00:46:32Z</time>
      </trkpt>
      <trkpt lat="34.82036105254864" lon="113.65835022146622">
        <ele>88.90216708742082</ele>
        <time>2026-09-07T00:46:38Z</time>
      </trkpt>
      <trkpt lat="34.820078041238055" lon="113.65852080518006">
        <ele>88.93594385031611</ele>
        <time>2026-09-07T00:46:47Z</time>
      </trkpt>
      <trkpt lat="34.81984675048506" lon="113.65856152344833">
        <ele>89.17524138651788</ele>
        <time>2026-09-07T00:46:56Z</time>
      </trkpt>
      <trkpt lat="34.819797478421584" lon="113.65862135015638">
        <ele>88.92025484703481</ele>
        <time>2026-09-07T00:46:59Z</time>
      </trkpt>
      <trkpt lat="34.819747916650265" lon="113.65862372817719">
        <ele>89.89145584218204</ele>
        <time>2026-09-07T00:47:02Z</time>
      </trkpt>
      <trkpt lat="34.819683982881294" lon="113.65865927541567">
        <ele>90.16452413797379</ele>
        <time>2026-09-07T00:47:05Z</time>
      </trkpt>
      <trkpt lat="34.81953932000261" lon="113.65868842995879">
        <ele>89.14562389906496</ele>
        <time>2026-09-07T00:47:11Z</time>
      </trkpt>
      <trkpt lat="34.81949054111979" lon="113.65873237017658">
        <ele>88.88199621904641</ele>
        <time>2026-09-07T00:47:14Z</time>
      </trkpt>
      <trkpt lat="34.81933441963436" lon="113.65869349850584">
        <ele>88.05177932884544</ele>
        <time>2026-09-07T00:47:20Z</time>
      </trkpt>
      <trkpt lat="34.819287756903094" lon="113.65874484887907">
        <ele>87.30465113092214</ele>
        <time>2026-09-07T00:47:23Z</time>
      </trkpt>
      <trkpt lat="34.81915788204032" lon="113.65881725910356">
        <ele>87.38267082441598</ele>
        <time>2026-09-07T00:47:32Z</time>
      </trkpt>
      <trkpt lat="34.819058171358854" lon="113.6588466388422">
        <ele>87.96078399103135</ele>
        <time>2026-09-07T00:47:38Z</time>
      </trkpt>
      <trkpt lat="34.81892130371909" lon="113.6588597353253">
        <ele>88.68204758036882</ele>
        <time>2026-09-07T00:47:44Z</time>
      </trkpt>
      <trkpt lat="34.81876745142897" lon="113.65892127497025">
        <ele>88.0743532339111</ele>
        <time>2026-09-07T00:47:53Z</time>
      </trkpt>
      <trkpt lat="34.81869180550657" lon="113.65903830055402">
        <ele>88.19278407748789</ele>
        <time>2026-09-07T00:47:59Z</time>
      </trkpt>
      <trkpt lat="34.81857477277945" lon="113.65904790005227">
        <ele>86.64332993980497</ele>
        <time>2026-09-07T00:48:05Z</time>
      </trkpt>
      <trkpt lat="34.81841428434945" lon="113.6591405196101">
        <ele>87.26487690396607</ele>
        <time>2026-09-07T00:48:14Z</time>
      </trkpt>
      <trkpt lat="34.81817458880824" lon="113.65921065766047">
        <ele>87.28071010112762</ele>
        <time>2026-09-07T00:48:28Z</time>
      </trkpt>
      <trkpt lat="34.818020216441944" lon="113.65933142784152">
        <ele>86.24233875796199</ele>
        <time>2026-09-07T00:48:36Z</time>
      </trkpt>
      <trkpt lat="34.81786603042337" lon="113.6593294396938">
        <ele>88.32258276920766</ele>
        <time>2026-09-07T00:48:45Z</time>
      </trkpt>
      <trkpt lat="34.81761058846689" lon="113.65946564251645">
        <ele>88.31963571999222</ele>
        <time>2026-09-07T00:49:00Z</time>
      </trkpt>
      <trkpt lat="34.81747967519957" lon="113.65943807898007">
        <ele>87.4022704558447</ele>
        <time>2026-09-07T00:49:06Z</time>
      </trkpt>
      <trkpt lat="34.817386809837515" lon="113.65950949625723">
        <ele>87.68537782225758</ele>
        <time>2026-09-07T00:49:12Z</time>
      </trkpt>
      <trkpt lat="34.8173121417194" lon="113.65952130562579">
        <ele>87.04252823535353</ele>
        <time>2026-09-07T00:49:15Z</time>
      </trkpt>
      <trkpt lat="34.817212486546985" lon="113.65959720336338">
        <ele>85.44667627476156</ele>
        <time>2026-09-07T00:49:21Z</time>
      </trkpt>
      <trkpt lat="34.817148855093315" lon="113.6595776749346">
        <ele>85.73759669717401</ele>
        <time>2026-09-07T00:49:24Z</time>
      </trkpt>
      <trkpt lat="34.81706647186746" lon="113.6596379897572">
        <ele>85.26432139333338</ele>
        <time>2026-09-07T00:49:30Z</time>
      </trkpt>
      <trkpt lat="34.817039028430635" lon="113.65969759679716">
        <ele>85.78649350535125</ele>
        <time>2026-09-07T00:49:33Z</time>
      </trkpt>
      <trkpt lat="34.816924656569384" lon="113.65980374672847">
        <ele>85.57107434980571</ele>
        <time>2026-09-07T00:49:39Z</time>
      </trkpt>
      <trkpt lat="34.81686109813885" lon="113.6598099871246">
        <ele>85.42317974474281</ele>
        <time>2026-09-07T00:49:42Z</time>
      </trkpt>
      <trkpt lat="34.81679959600354" lon="113.65978472424491">
        <ele>87.09951585531235</ele>
        <time>2026-09-07T00:49:45Z</time>
      </trkpt>
      <trkpt lat="34.816708329093174" lon="113.65985281892975">
        <ele>87.93702122196555</ele>
        <time>2026-09-07T00:49:51Z</time>
      </trkpt>
      <trkpt lat="34.816552456042444" lon="113.65989106272038">
        <ele>88.55947974603623</ele>
        <time>2026-09-07T00:50:00Z</time>
      </trkpt>
      <trkpt lat="34.81636958534926" lon="113.66000444590166">
        <ele>87.88818202540278</ele>
        <time>2026-09-07T00:50:12Z</time>
      </trkpt>
      <trkpt lat="34.81626116484396" lon="113.66001878206437">
        <ele>89.09345374628901</ele>
        <time>2026-09-07T00:50:21Z</time>
      </trkpt>
      <trkpt lat="34.81625830658902" lon="113.65995846488654">
        <ele>89.33428975753486</ele>
        <time>2026-09-07T00:50:24Z</time>
      </trkpt>
      <trkpt lat="34.816210903485505" lon="113.65983576128704">
        <ele>90.39155639242381</ele>
        <time>2026-09-07T00:50:31Z</time>
      </trkpt>
      <trkpt lat="34.81617740491655" lon="113.65978889703115">
        <ele>89.5830807145685</ele>
        <time>2026-09-07T00:50:35Z</time>
      </trkpt>
      <trkpt lat="34.81612960442853" lon="113.65988701314694">
        <ele>91.27075112331659</ele>
        <time>2026-09-07T00:50:43Z</time>
      </trkpt>
      <trkpt lat="34.816184029175844" lon="113.6600936196388">
        <ele>89.08769371267408</ele>
        <time>2026-09-07T00:50:52Z</time>
      </trkpt>
      <trkpt lat="34.81625143734314" lon="113.66042397469309">
        <ele>87.52915698196739</ele>
        <time>2026-09-07T00:51:07Z</time>
      </trkpt>
      <trkpt lat="34.8162704809384" lon="113.66061115273479">
        <ele>88.47016323637217</ele>
        <time>2026-09-07T00:51:16Z</time>
      </trkpt>
      <trkpt lat="34.816331558689306" lon="113.66072572720171">
        <ele>90.03952995035797</ele>
        <time>2026-09-07T00:51:22Z</time>
      </trkpt>
      <trkpt lat="34.81638062848301" lon="113.66074791437386">
        <ele>89.19097095075995</ele>
        <time>2026-09-07T00:51:25Z</time>
      </trkpt>
      <trkpt lat="34.816632967546425" lon="113.6606593739273">
        <ele>90.038708566688</ele>
        <time>2026-09-07T00:51:40Z</time>
      </trkpt>
      <trkpt lat="34.81668471258937" lon="113.66071720429836">
        <ele>89.77118537854403</ele>
        <time>2026-09-07T00:51:43Z</time>
      </trkpt>
      <trkpt lat="34.8167247892651" lon="113.66063669519438">
        <ele>89.20461915805936</ele>
        <time>2026-09-07T00:51:49Z</time>
      </trkpt>
      <trkpt lat="34.81696011801103" lon="113.66052075433363">
        <ele>91.32356364652514</ele>
        <time>2026-09-07T00:52:01Z</time>
      </trkpt>
      <trkpt lat="34.81702577449601" lon="113.66053047756213">
        <ele>90.52845122758299</ele>
        <time>2026-09-07T00:52:04Z</time>
      </trkpt>
      <trkpt lat="34.81708604828513" lon="113.66048475477324">
        <ele>90.54675490409136</ele>
        <time>2026-09-07T00:52:07Z</time>
      </trkpt>
      <trkpt lat="34.817189940736164" lon="113.66046092737156">
        <ele>90.97627171874046</ele>
        <time>2026-09-07T00:52:13Z</time>
      </trkpt>
      <trkpt lat="34.817349666326635" lon="113.66035487072654">
        <ele>91.85808570124209</ele>
        <time>2026-09-07T00:52:22Z</time>
      </trkpt>
      <trkpt lat="34.81763081901539" lon="113.66024844601641">
        <ele>91.38270361535251</ele>
        <time>2026-09-07T00:52:38Z</time>
      </trkpt>
      <trkpt lat="34.8177464035433" lon="113.66024066644422">
        <ele>89.86961009167135</ele>
        <time>2026-09-07T00:52:45Z</time>
      </trkpt>
      <trkpt lat="34.817997732737375" lon="113.66012904129897">
        <ele>89.49762270972133</ele>
        <time>2026-09-07T00:53:01Z</time>
      </trkpt>
      <trkpt lat="34.81821224778501" lon="113.6601551650723">
        <ele>89.83988853823394</ele>
        <time>2026-09-07T00:53:13Z</time>
      </trkpt>
      <trkpt lat="34.81832316111939" lon="113.66011686705625">
        <ele>89.88927668519318</ele>
        <time>2026-09-07T00:53:22Z</time>
      </trkpt>
      <trkpt lat="34.81837560324572" lon="113.66008150298018">
        <ele>89.91594100929797</ele>
        <time>2026-09-07T00:53:25Z</time>
      </trkpt>
      <trkpt lat="34.818404304655296" lon="113.6600139410912">
        <ele>89.61683082673699</ele>
        <time>2026-09-07T00:53:28Z</time>
      </trkpt>
      <trkpt lat="34.818490879450465" lon="113.65989443911606">
        <ele>89.78732229955494</ele>
        <time>2026-09-07T00:53:31Z</time>
      </trkpt>
      <trkpt lat="34.81862783192304" lon="113.65981054161979">
        <ele>90.91214750800282</ele>
        <time>2026-09-07T00:53:37Z</time>
      </trkpt>
      <trkpt lat="34.81869889524963" lon="113.6598272517118">
        <ele>90.67810021713376</ele>
        <time>2026-09-07T00:53:40Z</time>
      </trkpt>
      <trkpt lat="34.81899128465571" lon="113.65969355489769">
        <ele>89.46094094775617</ele>
        <time>2026-09-07T00:53:55Z</time>
      </trkpt>
      <trkpt lat="34.81923219252346" lon="113.65957358857709">
        <ele>90.12944881338626</ele>
        <time>2026-09-07T00:54:07Z</time>
      </trkpt>
      <trkpt lat="34.81933339792555" lon="113.65959626143716">
        <ele>91.0806965380907</ele>
        <time>2026-09-07T00:54:13Z</time>
      </trkpt>
      <trkpt lat="34.819508467052934" lon="113.65956634383939">
        <ele>91.48933487571776</ele>
        <time>2026-09-07T00:54:22Z</time>
      </trkpt>
      <trkpt lat="34.81961330752711" lon="113.65945183828315">
        <ele>90.83351610880345</ele>
        <time>2026-09-07T00:54:28Z</time>
      </trkpt>
      <trkpt lat="34.819846231480255" lon="113.65940624784214">
        <ele>92.76330417301506</ele>
        <time>2026-09-07T00:54:40Z</time>
      </trkpt>
      <trkpt lat="34.819897161814545" lon="113.65943445800809">
        <ele>94.0300897276029</ele>
        <time>2026-09-07T00:54:44Z</time>
      </trkpt>
      <trkpt lat="34.820027697952284" lon="113.65939848368136">
        <ele>93.15568988677114</ele>
        <time>2026-09-07T00:54:50Z</time>
      </trkpt>
      <trkpt lat="34.820234107995724" lon="113.65927693021821">
        <ele>93.75469775032252</ele>
        <time>2026-09-07T00:55:02Z</time>
      </trkpt>
      <trkpt lat="34.820315491876556" lon="113.6591787773572">
        <ele>93.73309602495283</ele>
        <time>2026-09-07T00:55:08Z</time>
      </trkpt>
      <trkpt lat="34.82033011389314" lon="113.65890459284012">
        <ele>92.68899060413241</ele>
        <time>2026-09-07T00:55:20Z</time>
      </trkpt>
      <trkpt lat="34.82034922921776" lon="113.65884251436646">
        <ele>92.62853917013854</ele>
        <time>2026-09-07T00:55:23Z</time>
      </trkpt>
      <trkpt lat="34.820338261663856" lon="113.65878261296092">
        <ele>91.66789243463427</ele>
        <time>2026-09-07T00:55:26Z</time>
      </trkpt>
      <trkpt lat="34.820372701902265" lon="113.65871007421109">
        <ele>91.43621776625514</ele>
        <time>2026-09-07T00:55:32Z</time>
      </trkpt>
      <trkpt lat="34.82039109663903" lon="113.65834263716143">
        <ele>93.22647259104997</ele>
        <time>2026-09-07T00:55:47Z</time>
      </trkpt>
      <trkpt lat="34.82038083697785" lon="113.65828261617727">
        <ele>92.22547406051308</ele>
        <time>2026-09-07T00:55:50Z</time>
      </trkpt>
      <trkpt lat="34.820308824229" lon="113.6582472079659">
        <ele>91.17996570747346</ele>
        <time>2026-09-07T00:55:53Z</time>
      </trkpt>
      <trkpt lat="34.82026323781877" lon="113.65827406266932">
        <ele>90.17673707567155</ele>
        <time>2026-09-07T00:55:59Z</time>
      </trkpt>
      <trkpt lat="34.82030350242243" lon="113.65833339666474">
        <ele>88.58761241007596</ele>
        <time>2026-09-07T00:56:02Z</time>
      </trkpt>
      <trkpt lat="34.820505256737164" lon="113.65832280826926">
        <ele>90.17742776405066</ele>
        <time>2026-09-07T00:56:14Z</time>
      </trkpt>
      <trkpt lat="34.820398822858344" lon="113.65825934240726">
        <ele>90.58720124140382</ele>
        <time>2026-09-07T00:56:17Z</time>
      </trkpt>
      <trkpt lat="34.82064292676297" lon="113.6582817330206">
        <ele>90.5046181390062</ele>
        <time>2026-09-07T00:56:20Z</time>
      </trkpt>
      <trkpt lat="34.820692300286304" lon="113.65824367491008">
        <ele>92.80651902034879</ele>
        <time>2026-09-07T00:56:26Z</time>
      </trkpt>
      <trkpt lat="34.82071736536005" lon="113.6581845424135">
        <ele>93.51017112936825</ele>
        <time>2026-09-07T00:56:32Z</time>
      </trkpt>
      <trkpt lat="34.82060777982026" lon="113.65817429642186">
        <ele>93.37396427802742</ele>
        <time>2026-09-07T00:56:35Z</time>
      </trkpt>
      <trkpt lat="34.820585401453" lon="113.65846223049809">
        <ele>94.84748572669923</ele>
        <time>2026-09-07T00:56:48Z</time>
      </trkpt>
      <trkpt lat="34.82061473707985" lon="113.65857142342588">
        <ele>94.44128511473536</ele>
        <time>2026-09-07T00:56:52Z</time>
      </trkpt>
      <trkpt lat="34.82059180290262" lon="113.65879592986471">
        <ele>93.0402500377968</ele>
        <time>2026-09-07T00:57:06Z</time>
      </trkpt>
      <trkpt lat="34.82064531271243" lon="113.65882463038645">
        <ele>92.03080516122282</ele>
        <time>2026-09-07T00:57:12Z</time>
      </trkpt>
      <trkpt lat="34.82073195656354" lon="113.65884137227843">
        <ele>90.34361514262855</ele>
        <time>2026-09-07T00:57:18Z</time>
      </trkpt>
      <trkpt lat="34.8209269620645" lon="113.65871639818991">
        <ele>90.36320820823312</ele>
        <time>2026-09-07T00:57:30Z</time>
      </trkpt>
      <trkpt lat="34.821071429705995" lon="113.65860196409861">
        <ele>90.43753344938159</ele>
        <time>2026-09-07T00:57:39Z</time>
      </trkpt>
      <trkpt lat="34.821199435853906" lon="113.65859750068454">
        <ele>90.81672336161137</ele>
        <time>2026-09-07T00:57:45Z</time>
      </trkpt>
      <trkpt lat="34.82128477778491" lon="113.65854323252712">
        <ele>91.02033266983926</ele>
        <time>2026-09-07T00:57:48Z</time>
      </trkpt>
      <trkpt lat="34.82133886275853" lon="113.65847300287305">
        <ele>91.1229140413925</ele>
        <time>2026-09-07T00:57:51Z</time>
      </trkpt>
      <trkpt lat="34.82147914838607" lon="113.65845068403603">
        <ele>90.705845634453</ele>
        <time>2026-09-07T00:58:00Z</time>
      </trkpt>
      <trkpt lat="34.82150422939912" lon="113.65840514175314">
        <ele>89.12128117494285</ele>
        <time>2026-09-07T00:58:06Z</time>
      </trkpt>
      <trkpt lat="34.821584427071066" lon="113.65841035365759">
        <ele>87.8571358397603</ele>
        <time>2026-09-07T00:58:17Z</time>
      </trkpt>
      <trkpt lat="34.821811600429584" lon="113.65833118148116">
        <ele>87.56102260295302</ele>
        <time>2026-09-07T00:58:29Z</time>
      </trkpt>
      <trkpt lat="34.82201988501555" lon="113.65821992454892">
        <ele>87.58907520957291</ele>
        <time>2026-09-07T00:58:41Z</time>
      </trkpt>
      <trkpt lat="34.822079206854305" lon="113.65820412086416">
        <ele>88.17541742511094</ele>
        <time>2026-09-07T00:58:44Z</time>
      </trkpt>
      <trkpt lat="34.82217340433314" lon="113.65814165765364">
        <ele>87.97114454209805</ele>
        <time>2026-09-07T00:58:50Z</time>
      </trkpt>
      <trkpt lat="34.822480845051174" lon="113.65805095886203">
        <ele>87.66525590419769</ele>
        <time>2026-09-07T00:59:07Z</time>
      </trkpt>
      <trkpt lat="34.82276350163964" lon="113.65791954136171">
        <ele>87.36785046476871</ele>
        <time>2026-09-07T00:59:25Z</time>
      </trkpt>
      <trkpt lat="34.82298815142675" lon="113.6578318890582">
        <ele>87.24694803450257</ele>
        <time>2026-09-07T00:59:40Z</time>
      </trkpt>
      <trkpt lat="34.82305804807842" lon="113.65784921040996">
        <ele>88.87242646887898</ele>
        <time>2026-09-07T00:59:43Z</time>
      </trkpt>
      <trkpt lat="34.823153789004216" lon="113.65777434478615">
        <ele>89.19078130833805</ele>
        <time>2026-09-07T00:59:49Z</time>
      </trkpt>
      <trkpt lat="34.82343997645929" lon="113.65770759119903">
        <ele>89.34156162664294</ele>
        <time>2026-09-07T01:00:07Z</time>
      </trkpt>
      <trkpt lat="34.82368959425513" lon="113.65761076142665">
        <ele>89.2220171969384</ele>
        <time>2026-09-07T01:00:22Z</time>
      </trkpt>
      <trkpt lat="34.82388893590669" lon="113.65751022542445">
        <ele>89.39256623759866</ele>
        <time>2026-09-07T01:00:37Z</time>
      </trkpt>
      <trkpt lat="34.823976688323945" lon="113.65739223162812">
        <ele>89.54873089957982</ele>
        <time>2026-09-07T01:00:43Z</time>
      </trkpt>
      <trkpt lat="34.82411355578146" lon="113.65739791299758">
        <ele>89.81986928265542</ele>
        <time>2026-09-07T01:00:49Z</time>
      </trkpt>
      <trkpt lat="34.824159479051886" lon="113.65733791112086">
        <ele>90.37419192120433</ele>
        <time>2026-09-07T01:00:55Z</time>
      </trkpt>
      <trkpt lat="34.824249623840494" lon="113.65735798150276">
        <ele>89.58015501592308</ele>
        <time>2026-09-07T01:00:58Z</time>
      </trkpt>
      <trkpt lat="34.824368013739246" lon="113.65731516408421">
        <ele>90.13869440648705</ele>
        <time>2026-09-07T01:01:05Z</time>
      </trkpt>
      <trkpt lat="34.82457354142199" lon="113.65719349606424">
        <ele>90.15702135395259</ele>
        <time>2026-09-07T01:01:17Z</time>
      </trkpt>
      <trkpt lat="34.82473710981408" lon="113.65712769711095">
        <ele>92.07133370358497</ele>
        <time>2026-09-07T01:01:26Z</time>
      </trkpt>
      <trkpt lat="34.824821261098286" lon="113.65712864536981">
        <ele>91.96471048053354</ele>
        <time>2026-09-07T01:01:32Z</time>
      </trkpt>
      <trkpt lat="34.824958937100654" lon="113.6570795883663">
        <ele>89.25086624082178</ele>
        <time>2026-09-07T01:01:41Z</time>
      </trkpt>
      <trkpt lat="34.82500816882374" lon="113.65702152617985">
        <ele>88.5535926297307</ele>
        <time>2026-09-07T01:01:47Z</time>
      </trkpt>
      <trkpt lat="34.82505180113414" lon="113.65700482217204">
        <ele>87.48113537579775</ele>
        <time>2026-09-07T01:01:50Z</time>
      </trkpt>
    </trkseg>
  </trk>
</gpx>