<?xml version="1.0" encoding="UTF-8"?>
<gpx xmlns="http://www.topografix.com/GPX/1/1" xmlns:gpxtpx="http://www.garmin.com/xmlschemas/TrackPointExtension/v1" xmlns:xsi="http://www.w3.org/2001/XMLSchema-instance" xsi:schemaLocation="http://www.topografix.com/GPX/1/1 http://www.topografix.com/GPX/1/1/gpx.xsd" version="1.1" creator="gpx.py -- https://github.com/tkrajina/gpxpy">
  <trk>
    <name>gpx from keep</name>
    <type>Run</type>
    <trkseg>
      <trkpt lat="34.830305585538326" lon="113.65914938862213">
        <ele>102.961181640625</ele>
        <time>2026-07-30T01:05:29Z</time>
      </trkpt>
      <trkpt lat="34.83031656102265" lon="113.6592425906709">
        <ele>93.40277099609375</ele>
        <time>2026-07-30T01:05:33Z</time>
      </trkpt>
      <trkpt lat="34.83030660131926" lon="113.65939540309205">
        <ele>95.27017354778945</ele>
        <time>2026-07-30T01:05:40Z</time>
      </trkpt>
      <trkpt lat="34.83021696120256" lon="113.65977525038788">
        <ele>91.03110360633582</ele>
        <time>2026-07-30T01:05:53Z</time>
      </trkpt>
      <trkpt lat="34.83022001217189" lon="113.65985180288864">
        <ele>90.88906908314675</ele>
        <time>2026-07-30T01:05:56Z</time>
      </trkpt>
      <trkpt lat="34.83024343129126" lon="113.65992461249364">
        <ele>91.20891674607992</ele>
        <time>2026-07-30T01:05:59Z</time>
      </trkpt>
      <trkpt lat="34.830288443720825" lon="113.65998153521086">
        <ele>91.87638152949512</ele>
        <time>2026-07-30T01:06:02Z</time>
      </trkpt>
      <trkpt lat="34.83061770930247" lon="113.66000533746416">
        <ele>91.60862608999014</ele>
        <time>2026-07-30T01:06:17Z</time>
      </trkpt>
      <trkpt lat="34.83087887997002" lon="113.6599835349141">
        <ele>89.59343142621219</ele>
        <time>2026-07-30T01:06:29Z</time>
      </trkpt>
      <trkpt lat="34.830940100469846" lon="113.66001148337733">
        <ele>89.29958540853113</ele>
        <time>2026-07-30T01:06:32Z</time>
      </trkpt>
      <trkpt lat="34.83125362812219" lon="113.66002299292958">
        <ele>90.70501268003136</ele>
        <time>2026-07-30T01:06:47Z</time>
      </trkpt>
      <trkpt lat="34.83137064644346" lon="113.66002366439307">
        <ele>92.94048462901264</ele>
        <time>2026-07-30T01:06:53Z</time>
      </trkpt>
      <trkpt lat="34.83168420611521" lon="113.65996786037459">
        <ele>91.19253700226545</ele>
        <time>2026-07-30T01:07:08Z</time>
      </trkpt>
      <trkpt lat="34.83188871623452" lon="113.65994576681567">
        <ele>93.26959574501961</ele>
        <time>2026-07-30T01:07:17Z</time>
      </trkpt>
      <trkpt lat="34.832020971473796" lon="113.65994529770987">
        <ele>93.16996625531465</ele>
        <time>2026-07-30T01:07:23Z</time>
      </trkpt>
      <trkpt lat="34.83208101337769" lon="113.65990202271232">
        <ele>92.28831570222974</ele>
        <time>2026-07-30T01:07:26Z</time>
      </trkpt>
      <trkpt lat="34.832109553252096" lon="113.65984598337609">
        <ele>91.14596136473119</ele>
        <time>2026-07-30T01:07:29Z</time>
      </trkpt>
      <trkpt lat="34.832124033735795" lon="113.65970164123941">
        <ele>91.12529255263507</ele>
        <time>2026-07-30T01:07:35Z</time>
      </trkpt>
      <trkpt lat="34.832116088703884" lon="113.65959929685701">
        <ele>89.61277873814106</ele>
        <time>2026-07-30T01:07:39Z</time>
      </trkpt>
      <trkpt lat="34.832127416395856" lon="113.65950760537864">
        <ele>90.12997279688716</ele>
        <time>2026-07-30T01:07:42Z</time>
      </trkpt>
      <trkpt lat="34.83214043702919" lon="113.65909996151052">
        <ele>89.52692663669586</ele>
        <time>2026-07-30T01:07:57Z</time>
      </trkpt>
      <trkpt lat="34.83216821275049" lon="113.65869115126296">
        <ele>89.00964044872671</ele>
        <time>2026-07-30T01:08:12Z</time>
      </trkpt>
      <trkpt lat="34.832192341332046" lon="113.65830540770723">
        <ele>88.58415000792593</ele>
        <time>2026-07-30T01:08:27Z</time>
      </trkpt>
      <trkpt lat="34.83217724421014" lon="113.65791880203248">
        <ele>88.64014356955886</ele>
        <time>2026-07-30T01:08:42Z</time>
      </trkpt>
      <trkpt lat="34.83217388453646" lon="113.65784244708631">
        <ele>87.76378241274506</ele>
        <time>2026-07-30T01:08:45Z</time>
      </trkpt>
      <trkpt lat="34.83220327178549" lon="113.65766413731995">
        <ele>88.37236913386732</ele>
        <time>2026-07-30T01:08:51Z</time>
      </trkpt>
      <trkpt lat="34.832194764995776" lon="113.65735501402673">
        <ele>89.20561610814184</ele>
        <time>2026-07-30T01:09:03Z</time>
      </trkpt>
      <trkpt lat="34.8321783574873" lon="113.65729350041096">
        <ele>89.3688691360876</ele>
        <time>2026-07-30T01:09:06Z</time>
      </trkpt>
      <trkpt lat="34.83207795955211" lon="113.65723058179466">
        <ele>89.42709329444915</ele>
        <time>2026-07-30T01:09:12Z</time>
      </trkpt>
      <trkpt lat="34.831878228108096" lon="113.65722430015275">
        <ele>88.41131896805018</ele>
        <time>2026-07-30T01:09:21Z</time>
      </trkpt>
      <trkpt lat="34.831828922095625" lon="113.65724167068886">
        <ele>88.47725752275437</ele>
        <time>2026-07-30T01:09:24Z</time>
      </trkpt>
      <trkpt lat="34.831677114929754" lon="113.65722034476333">
        <ele>88.57549940422177</ele>
        <time>2026-07-30T01:09:30Z</time>
      </trkpt>
      <trkpt lat="34.83162082598131" lon="113.65722773306072">
        <ele>89.32771164830774</ele>
        <time>2026-07-30T01:09:33Z</time>
      </trkpt>
      <trkpt lat="34.831471161688775" lon="113.65719663827556">
        <ele>90.0581879587844</ele>
        <time>2026-07-30T01:09:39Z</time>
      </trkpt>
      <trkpt lat="34.83111187879942" lon="113.65719089705486">
        <ele>91.38152004871517</ele>
        <time>2026-07-30T01:09:54Z</time>
      </trkpt>
      <trkpt lat="34.830782254975674" lon="113.65716180802688">
        <ele>90.21309847291559</ele>
        <time>2026-07-30T01:10:09Z</time>
      </trkpt>
      <trkpt lat="34.83048836585449" lon="113.6571369768725">
        <ele>90.16980772931129</ele>
        <time>2026-07-30T01:10:21Z</time>
      </trkpt>
      <trkpt lat="34.83036585635038" lon="113.65721301006387">
        <ele>89.24727045558393</ele>
        <time>2026-07-30T01:10:27Z</time>
      </trkpt>
      <trkpt lat="34.83032972982953" lon="113.65728489215127">
        <ele>89.73540117405355</ele>
        <time>2026-07-30T01:10:30Z</time>
      </trkpt>
      <trkpt lat="34.83031864542663" lon="113.65753447360572">
        <ele>90.2266477337107</ele>
        <time>2026-07-30T01:10:39Z</time>
      </trkpt>
      <trkpt lat="34.83034575662624" lon="113.65763424113779">
        <ele>90.06016007158905</ele>
        <time>2026-07-30T01:10:42Z</time>
      </trkpt>
      <trkpt lat="34.83035010381065" lon="113.65779315846109">
        <ele>91.07773691695184</ele>
        <time>2026-07-30T01:10:48Z</time>
      </trkpt>
      <trkpt lat="34.83030055368378" lon="113.65813335302136">
        <ele>91.18089933134615</ele>
        <time>2026-07-30T01:11:00Z</time>
      </trkpt>
      <trkpt lat="34.830284011923325" lon="113.65822238233986">
        <ele>91.1236758325249</ele>
        <time>2026-07-30T01:11:03Z</time>
      </trkpt>
      <trkpt lat="34.830274736684565" lon="113.65857719432304">
        <ele>91.49072787445039</ele>
        <time>2026-07-30T01:11:15Z</time>
      </trkpt>
      <trkpt lat="34.83025962824363" lon="113.65891722839054">
        <ele>91.32715091202408</ele>
        <time>2026-07-30T01:11:27Z</time>
      </trkpt>
      <trkpt lat="34.830239422570486" lon="113.65925400632864">
        <ele>91.58595380466431</ele>
        <time>2026-07-30T01:11:39Z</time>
      </trkpt>
      <trkpt lat="34.830238196174946" lon="113.65950963134551">
        <ele>92.91453363839537</ele>
        <time>2026-07-30T01:11:48Z</time>
      </trkpt>
      <trkpt lat="34.83020095159013" lon="113.65983335306625">
        <ele>92.36577518936247</ele>
        <time>2026-07-30T01:12:00Z</time>
      </trkpt>
      <trkpt lat="34.83023505320596" lon="113.65993393610904">
        <ele>91.67603027168661</ele>
        <time>2026-07-30T01:12:04Z</time>
      </trkpt>
      <trkpt lat="34.8303076127194" lon="113.65997271830068">
        <ele>91.80759925115854</ele>
        <time>2026-07-30T01:12:08Z</time>
      </trkpt>
      <trkpt lat="34.83045794923709" lon="113.65999073555814">
        <ele>91.88182263635099</ele>
        <time>2026-07-30T01:12:16Z</time>
      </trkpt>
      <trkpt lat="34.830774701115104" lon="113.65996757330504">
        <ele>92.82898827176541</ele>
        <time>2026-07-30T01:12:31Z</time>
      </trkpt>
      <trkpt lat="34.830836484074815" lon="113.65996797602727">
        <ele>92.68192237615585</ele>
        <time>2026-07-30T01:12:34Z</time>
      </trkpt>
      <trkpt lat="34.83098904598662" lon="113.66001423649875">
        <ele>91.45094972383231</ele>
        <time>2026-07-30T01:12:40Z</time>
      </trkpt>
      <trkpt lat="34.831324694690295" lon="113.65999102030207">
        <ele>90.15878969430923</ele>
        <time>2026-07-30T01:12:55Z</time>
      </trkpt>
      <trkpt lat="34.83138994524594" lon="113.65996356067004">
        <ele>90.08861491177231</ele>
        <time>2026-07-30T01:12:58Z</time>
      </trkpt>
      <trkpt lat="34.831503919394564" lon="113.6599811581407">
        <ele>90.7237048773095</ele>
        <time>2026-07-30T01:13:04Z</time>
      </trkpt>
      <trkpt lat="34.83177536640401" lon="113.65996148484642">
        <ele>91.11248036660254</ele>
        <time>2026-07-30T01:13:16Z</time>
      </trkpt>
      <trkpt lat="34.831883506184376" lon="113.6599514934646">
        <ele>91.65407295431942</ele>
        <time>2026-07-30T01:13:22Z</time>
      </trkpt>
      <trkpt lat="34.83203874489265" lon="113.65998016490164">
        <ele>92.02091911435127</ele>
        <time>2026-07-30T01:13:28Z</time>
      </trkpt>
      <trkpt lat="34.8321004398922" lon="113.65994620881243">
        <ele>92.57467501051724</ele>
        <time>2026-07-30T01:13:31Z</time>
      </trkpt>
      <trkpt lat="34.83212173571082" lon="113.65966820943689">
        <ele>92.24056699033827</ele>
        <time>2026-07-30T01:13:43Z</time>
      </trkpt>
      <trkpt lat="34.83211764458353" lon="113.65951903816055">
        <ele>91.63923931960016</ele>
        <time>2026-07-30T01:13:49Z</time>
      </trkpt>
      <trkpt lat="34.83210017872977" lon="113.65943955238164">
        <ele>92.64480021595955</ele>
        <time>2026-07-30T01:13:52Z</time>
      </trkpt>
      <trkpt lat="34.83209898997304" lon="113.65934023947807">
        <ele>94.00957517605275</ele>
        <time>2026-07-30T01:13:56Z</time>
      </trkpt>
      <trkpt lat="34.83213812879994" lon="113.65914164864986">
        <ele>93.03001856990159</ele>
        <time>2026-07-30T01:14:04Z</time>
      </trkpt>
      <trkpt lat="34.83216662504479" lon="113.65880581530402">
        <ele>90.81739181652665</ele>
        <time>2026-07-30T01:14:18Z</time>
      </trkpt>
      <trkpt lat="34.83217742457194" lon="113.65839750434455">
        <ele>90.79350794665515</ele>
        <time>2026-07-30T01:14:33Z</time>
      </trkpt>
      <trkpt lat="34.832176226890525" lon="113.6580049131153">
        <ele>91.17660879995674</ele>
        <time>2026-07-30T01:14:48Z</time>
      </trkpt>
      <trkpt lat="34.832190168550106" lon="113.65773989029516">
        <ele>92.1114354012534</ele>
        <time>2026-07-30T01:14:57Z</time>
      </trkpt>
      <trkpt lat="34.832178906790794" lon="113.65765326221587">
        <ele>92.26850557979196</ele>
        <time>2026-07-30T01:15:00Z</time>
      </trkpt>
      <trkpt lat="34.83215347292001" lon="113.65759630000936">
        <ele>90.90372550673783</ele>
        <time>2026-07-30T01:15:03Z</time>
      </trkpt>
      <trkpt lat="34.832177032172524" lon="113.65742087071787">
        <ele>90.70356534421444</ele>
        <time>2026-07-30T01:15:09Z</time>
      </trkpt>
      <trkpt lat="34.83216766779004" lon="113.65733906703187">
        <ele>90.14521782658994</ele>
        <time>2026-07-30T01:15:12Z</time>
      </trkpt>
      <trkpt lat="34.832136052975265" lon="113.65727914191092">
        <ele>90.43768626637757</ele>
        <time>2026-07-30T01:15:15Z</time>
      </trkpt>
      <trkpt lat="34.83207160692863" lon="113.65725718298802">
        <ele>91.46643142029643</ele>
        <time>2026-07-30T01:15:18Z</time>
      </trkpt>
      <trkpt lat="34.831800675284164" lon="113.65724423307323">
        <ele>92.76578936260194</ele>
        <time>2026-07-30T01:15:30Z</time>
      </trkpt>
      <trkpt lat="34.831728375238654" lon="113.65728068913643">
        <ele>91.1739063365385</ele>
        <time>2026-07-30T01:15:33Z</time>
      </trkpt>
      <trkpt lat="34.83167361070179" lon="113.65725191823945">
        <ele>91.760379280895</ele>
        <time>2026-07-30T01:15:36Z</time>
      </trkpt>
      <trkpt lat="34.83134861335319" lon="113.65722760325636">
        <ele>92.70462140906602</ele>
        <time>2026-07-30T01:15:51Z</time>
      </trkpt>
      <trkpt lat="34.831080403427215" lon="113.65722162376663">
        <ele>92.20682857464999</ele>
        <time>2026-07-30T01:16:04Z</time>
      </trkpt>
      <trkpt lat="34.83103476087824" lon="113.65727087214059">
        <ele>91.9733386002481</ele>
        <time>2026-07-30T01:16:08Z</time>
      </trkpt>
      <trkpt lat="34.83099678271997" lon="113.65762348373516">
        <ele>92.5915171885863</ele>
        <time>2026-07-30T01:16:22Z</time>
      </trkpt>
      <trkpt lat="34.83097657820183" lon="113.65770673044084">
        <ele>94.03750995732844</ele>
        <time>2026-07-30T01:16:25Z</time>
      </trkpt>
      <trkpt lat="34.830997912620006" lon="113.65786829161921">
        <ele>93.53735524974763</ele>
        <time>2026-07-30T01:16:31Z</time>
      </trkpt>
      <trkpt lat="34.830987776626074" lon="113.65802270017657">
        <ele>93.19260011147708</ele>
        <time>2026-07-30T01:16:37Z</time>
      </trkpt>
      <trkpt lat="34.831018835459" lon="113.65809467144882">
        <ele>94.12432734668255</ele>
        <time>2026-07-30T01:16:40Z</time>
      </trkpt>
      <trkpt lat="34.83113034955361" lon="113.6581643207938">
        <ele>93.51874829735607</ele>
        <time>2026-07-30T01:16:46Z</time>
      </trkpt>
      <trkpt lat="34.83119123942113" lon="113.65817846083318">
        <ele>93.59588119667023</ele>
        <time>2026-07-30T01:16:49Z</time>
      </trkpt>
      <trkpt lat="34.83124701230523" lon="113.65821948356219">
        <ele>95.07058853283525</ele>
        <time>2026-07-30T01:16:52Z</time>
      </trkpt>
      <trkpt lat="34.831304849027376" lon="113.65823169410798">
        <ele>94.27635545190424</ele>
        <time>2026-07-30T01:16:55Z</time>
      </trkpt>
      <trkpt lat="34.83146804340989" lon="113.65837414960208">
        <ele>92.42221532389522</ele>
        <time>2026-07-30T01:17:04Z</time>
      </trkpt>
      <trkpt lat="34.83155456814003" lon="113.65848519833526">
        <ele>92.72137988172472</ele>
        <time>2026-07-30T01:17:10Z</time>
      </trkpt>
      <trkpt lat="34.83181587779374" lon="113.65859506023394">
        <ele>91.54049790278077</ele>
        <time>2026-07-30T01:17:22Z</time>
      </trkpt>
      <trkpt lat="34.83190933859953" lon="113.65866777017108">
        <ele>91.31209049373865</ele>
        <time>2026-07-30T01:17:28Z</time>
      </trkpt>
      <trkpt lat="34.83197893391779" lon="113.65879389589297">
        <ele>92.28695933893323</ele>
        <time>2026-07-30T01:17:34Z</time>
      </trkpt>
      <trkpt lat="34.83208509057391" lon="113.65883397833093">
        <ele>92.1503770975396</ele>
        <time>2026-07-30T01:17:40Z</time>
      </trkpt>
      <trkpt lat="34.83212159148011" lon="113.65889147678476">
        <ele>91.55299570504576</ele>
        <time>2026-07-30T01:17:43Z</time>
      </trkpt>
      <trkpt lat="34.8321068438881" lon="113.65919974280732">
        <ele>92.13468880858272</ele>
        <time>2026-07-30T01:17:55Z</time>
      </trkpt>
      <trkpt lat="34.83202650511166" lon="113.65929511326748">
        <ele>91.15932529140264</ele>
        <time>2026-07-30T01:18:01Z</time>
      </trkpt>
      <trkpt lat="34.831998285089036" lon="113.6591930560277">
        <ele>89.56305579282343</ele>
        <time>2026-07-30T01:18:08Z</time>
      </trkpt>
      <trkpt lat="34.8318228025696" lon="113.65912432365015">
        <ele>87.9167694048956</ele>
        <time>2026-07-30T01:18:16Z</time>
      </trkpt>
      <trkpt lat="34.83173164606758" lon="113.65900864775537">
        <ele>89.7666263319552</ele>
        <time>2026-07-30T01:18:23Z</time>
      </trkpt>
      <trkpt lat="34.83167348882554" lon="113.65896080029158">
        <ele>89.28831299394369</ele>
        <time>2026-07-30T01:18:26Z</time>
      </trkpt>
      <trkpt lat="34.83165269163306" lon="113.65889388017824">
        <ele>88.418904973194</ele>
        <time>2026-07-30T01:18:29Z</time>
      </trkpt>
      <trkpt lat="34.83154378026033" lon="113.65885563547117">
        <ele>88.9957077652216</ele>
        <time>2026-07-30T01:18:35Z</time>
      </trkpt>
      <trkpt lat="34.83147505811334" lon="113.65873967167396">
        <ele>88.60542678181082</ele>
        <time>2026-07-30T01:18:41Z</time>
      </trkpt>
      <trkpt lat="34.831450281618864" lon="113.65854105134933">
        <ele>87.89907264523208</ele>
        <time>2026-07-30T01:18:50Z</time>
      </trkpt>
      <trkpt lat="34.83135792250095" lon="113.65835384962942">
        <ele>87.43594980891794</ele>
        <time>2026-07-30T01:18:59Z</time>
      </trkpt>
      <trkpt lat="34.83121644012599" lon="113.6582392195128">
        <ele>87.45303953345865</ele>
        <time>2026-07-30T01:19:08Z</time>
      </trkpt>
      <trkpt lat="34.831071643315646" lon="113.65818604861273">
        <ele>89.06847726088017</ele>
        <time>2026-07-30T01:19:14Z</time>
      </trkpt>
      <trkpt lat="34.830893244877075" lon="113.65823028552258">
        <ele>89.04304172564298</ele>
        <time>2026-07-30T01:19:23Z</time>
      </trkpt>
      <trkpt lat="34.830758071054326" lon="113.6582950507156">
        <ele>90.15618969593197</ele>
        <time>2026-07-30T01:19:35Z</time>
      </trkpt>
      <trkpt lat="34.83054693166502" lon="113.65823004072989">
        <ele>88.33248635940254</ele>
        <time>2026-07-30T01:19:47Z</time>
      </trkpt>
      <trkpt lat="34.83046844351505" lon="113.65824477717823">
        <ele>88.42462751176208</ele>
        <time>2026-07-30T01:19:50Z</time>
      </trkpt>
      <trkpt lat="34.830424062470414" lon="113.65833079184284">
        <ele>90.34297228325158</ele>
        <time>2026-07-30T01:19:53Z</time>
      </trkpt>
      <trkpt lat="34.83039926395505" lon="113.65845857686428">
        <ele>91.76596918795258</ele>
        <time>2026-07-30T01:20:02Z</time>
      </trkpt>
    </trkseg>
  </trk>
</gpx>