<?xml version="1.0" encoding="UTF-8"?>
<gpx xmlns="http://www.topografix.com/GPX/1/1" xmlns:gpxtpx="http://www.garmin.com/xmlschemas/TrackPointExtension/v1" xmlns:xsi="http://www.w3.org/2001/XMLSchema-instance" xsi:schemaLocation="http://www.topografix.com/GPX/1/1 http://www.topografix.com/GPX/1/1/gpx.xsd" version="1.1" creator="gpx.py -- https://github.com/tkrajina/gpxpy">
  <trk>
    <name>gpx from keep</name>
    <type>Run</type>
    <trkseg>
      <trkpt lat="34.829630871198276" lon="113.65786551894978">
        <ele>81.232666015625</ele>
        <time>2026-09-29T23:10:30Z</time>
      </trkpt>
      <trkpt lat="34.82965657626425" lon="113.65764624631791">
        <ele>85.51306186523288</ele>
        <time>2026-09-29T23:10:39Z</time>
      </trkpt>
      <trkpt lat="34.829632656481294" lon="113.65754636200484">
        <ele>82.28846099134535</ele>
        <time>2026-09-29T23:10:45Z</time>
      </trkpt>
      <trkpt lat="34.82966999477529" lon="113.65732201500967">
        <ele>79.04361491743475</ele>
        <time>2026-09-29T23:10:54Z</time>
      </trkpt>
      <trkpt lat="34.82972662743188" lon="113.65722358602841">
        <ele>87.47934295609593</ele>
        <time>2026-09-29T23:10:57Z</time>
      </trkpt>
      <trkpt lat="34.829717310691215" lon="113.65699480502467">
        <ele>86.27671703137457</ele>
        <time>2026-09-29T23:11:06Z</time>
      </trkpt>
      <trkpt lat="34.82974514572046" lon="113.65690073519457">
        <ele>87.96711716987193</ele>
        <time>2026-09-29T23:11:09Z</time>
      </trkpt>
      <trkpt lat="34.829760765005275" lon="113.65666270036022">
        <ele>88.3438613275066</ele>
        <time>2026-09-29T23:11:18Z</time>
      </trkpt>
      <trkpt lat="34.82974668862353" lon="113.65655677106199">
        <ele>85.29348005261272</ele>
        <time>2026-09-29T23:11:24Z</time>
      </trkpt>
      <trkpt lat="34.82980229406206" lon="113.6561946659473">
        <ele>88.6800505258143</ele>
        <time>2026-09-29T23:11:36Z</time>
      </trkpt>
      <trkpt lat="34.82982847729115" lon="113.65598089025112">
        <ele>88.82647884264588</ele>
        <time>2026-09-29T23:11:45Z</time>
      </trkpt>
      <trkpt lat="34.82980449312357" lon="113.65562966627512">
        <ele>89.34147653449327</ele>
        <time>2026-09-29T23:12:00Z</time>
      </trkpt>
      <trkpt lat="34.829857927635345" lon="113.65523886282648">
        <ele>89.48025628738105</ele>
        <time>2026-09-29T23:12:15Z</time>
      </trkpt>
      <trkpt lat="34.82988817487002" lon="113.6548265516776">
        <ele>87.93564702477306</ele>
        <time>2026-09-29T23:12:33Z</time>
      </trkpt>
      <trkpt lat="34.82992249001754" lon="113.65446488270356">
        <ele>88.2337109837681</ele>
        <time>2026-09-29T23:12:49Z</time>
      </trkpt>
      <trkpt lat="34.8299283827658" lon="113.65440074226828">
        <ele>87.73144166637212</ele>
        <time>2026-09-29T23:12:52Z</time>
      </trkpt>
      <trkpt lat="34.82988340386942" lon="113.65431144693278">
        <ele>87.64901753235608</ele>
        <time>2026-09-29T23:12:58Z</time>
      </trkpt>
      <trkpt lat="34.829833365185706" lon="113.65429729489402">
        <ele>87.33208919409662</ele>
        <time>2026-09-29T23:13:01Z</time>
      </trkpt>
      <trkpt lat="34.82967671460379" lon="113.6543763570159">
        <ele>89.90026594884694</ele>
        <time>2026-09-29T23:13:13Z</time>
      </trkpt>
      <trkpt lat="34.82956782694187" lon="113.65440569005598">
        <ele>88.43161156959832</ele>
        <time>2026-09-29T23:13:19Z</time>
      </trkpt>
      <trkpt lat="34.82928239880472" lon="113.65453538548692">
        <ele>90.30448986589909</ele>
        <time>2026-09-29T23:13:34Z</time>
      </trkpt>
      <trkpt lat="34.8290201749355" lon="113.65466671875099">
        <ele>91.85483634099364</ele>
        <time>2026-09-29T23:13:49Z</time>
      </trkpt>
      <trkpt lat="34.82896036305549" lon="113.65468438760745">
        <ele>92.16972348000854</ele>
        <time>2026-09-29T23:13:52Z</time>
      </trkpt>
      <trkpt lat="34.82890436945204" lon="113.6547321939805">
        <ele>91.42938654404134</ele>
        <time>2026-09-29T23:13:55Z</time>
      </trkpt>
      <trkpt lat="34.82885647048572" lon="113.65472424728509">
        <ele>91.13902677036822</ele>
        <time>2026-09-29T23:13:58Z</time>
      </trkpt>
      <trkpt lat="34.82854759808296" lon="113.65485242263424">
        <ele>90.73785611335188</ele>
        <time>2026-09-29T23:14:16Z</time>
      </trkpt>
      <trkpt lat="34.82828304076329" lon="113.65497428037233">
        <ele>90.42085490655154</ele>
        <time>2026-09-29T23:14:31Z</time>
      </trkpt>
      <trkpt lat="34.828022063701475" lon="113.65508004317412">
        <ele>89.90560511592776</ele>
        <time>2026-09-29T23:14:44Z</time>
      </trkpt>
      <trkpt lat="34.82769406645431" lon="113.65520211386578">
        <ele>90.21581274457276</ele>
        <time>2026-09-29T23:15:00Z</time>
      </trkpt>
      <trkpt lat="34.82743171573403" lon="113.65532000621675">
        <ele>90.55212015099823</ele>
        <time>2026-09-29T23:15:14Z</time>
      </trkpt>
      <trkpt lat="34.82732093784775" lon="113.6553711175245">
        <ele>90.07184682041407</ele>
        <time>2026-09-29T23:15:20Z</time>
      </trkpt>
      <trkpt lat="34.82704132143124" lon="113.65548573719884">
        <ele>90.13671047799289</ele>
        <time>2026-09-29T23:15:35Z</time>
      </trkpt>
      <trkpt lat="34.826759708544" lon="113.65560716841186">
        <ele>88.8713389551267</ele>
        <time>2026-09-29T23:15:50Z</time>
      </trkpt>
      <trkpt lat="34.8264958493686" lon="113.65570497262318">
        <ele>92.00099635217339</ele>
        <time>2026-09-29T23:16:02Z</time>
      </trkpt>
      <trkpt lat="34.82631617114416" lon="113.65576549287384">
        <ele>90.89464440289885</ele>
        <time>2026-09-29T23:16:11Z</time>
      </trkpt>
      <trkpt lat="34.82605332008021" lon="113.65591328019318">
        <ele>90.64978462830186</ele>
        <time>2026-09-29T23:16:26Z</time>
      </trkpt>
      <trkpt lat="34.8257656022281" lon="113.65604688076014">
        <ele>90.51798557396978</ele>
        <time>2026-09-29T23:16:41Z</time>
      </trkpt>
      <trkpt lat="34.825446873727344" lon="113.65617016092155">
        <ele>92.12437615916133</ele>
        <time>2026-09-29T23:16:56Z</time>
      </trkpt>
      <trkpt lat="34.82513750032276" lon="113.65630525343298">
        <ele>91.53679928742349</ele>
        <time>2026-09-29T23:17:12Z</time>
      </trkpt>
      <trkpt lat="34.824982036990875" lon="113.656363424632">
        <ele>91.18594435043633</ele>
        <time>2026-09-29T23:17:20Z</time>
      </trkpt>
      <trkpt lat="34.82484785059152" lon="113.65639515141991">
        <ele>87.4863455966115</ele>
        <time>2026-09-29T23:17:26Z</time>
      </trkpt>
      <trkpt lat="34.82468429394178" lon="113.6564570968822">
        <ele>86.79608906712383</ele>
        <time>2026-09-29T23:17:35Z</time>
      </trkpt>
      <trkpt lat="34.82462588278106" lon="113.65649872925526">
        <ele>87.1098936907947</ele>
        <time>2026-09-29T23:17:38Z</time>
      </trkpt>
      <trkpt lat="34.82433891722743" lon="113.65662786412904">
        <ele>89.13921694643795</ele>
        <time>2026-09-29T23:17:53Z</time>
      </trkpt>
      <trkpt lat="34.82407636731853" lon="113.65673563231547">
        <ele>89.13780923839658</ele>
        <time>2026-09-29T23:18:08Z</time>
      </trkpt>
      <trkpt lat="34.82383541486694" lon="113.65683284303277">
        <ele>89.44358920771629</ele>
        <time>2026-09-29T23:18:20Z</time>
      </trkpt>
      <trkpt lat="34.823669483797836" lon="113.65688320995478">
        <ele>87.25544178206474</ele>
        <time>2026-09-29T23:18:29Z</time>
      </trkpt>
      <trkpt lat="34.823625785344" lon="113.65692302096637">
        <ele>87.37215758580714</ele>
        <time>2026-09-29T23:18:32Z</time>
      </trkpt>
      <trkpt lat="34.823303687587995" lon="113.65701546184188">
        <ele>83.91651760041714</ele>
        <time>2026-09-29T23:18:47Z</time>
      </trkpt>
      <trkpt lat="34.823044555586094" lon="113.65714267357126">
        <ele>84.12986676488072</ele>
        <time>2026-09-29T23:19:02Z</time>
      </trkpt>
      <trkpt lat="34.82295233291227" lon="113.65716380692466">
        <ele>83.55443436373025</ele>
        <time>2026-09-29T23:19:06Z</time>
      </trkpt>
      <trkpt lat="34.8226531696586" lon="113.65730818342186">
        <ele>87.90588951483369</ele>
        <time>2026-09-29T23:19:22Z</time>
      </trkpt>
      <trkpt lat="34.822387045792105" lon="113.65746083869465">
        <ele>84.44238603487611</ele>
        <time>2026-09-29T23:19:38Z</time>
      </trkpt>
      <trkpt lat="34.822337406587515" lon="113.65747726383086">
        <ele>85.18935349117965</ele>
        <time>2026-09-29T23:19:41Z</time>
      </trkpt>
      <trkpt lat="34.822265244596004" lon="113.65745365400052">
        <ele>85.48968375567347</ele>
        <time>2026-09-29T23:19:44Z</time>
      </trkpt>
      <trkpt lat="34.821992755456264" lon="113.65759548429203">
        <ele>88.1294580893591</ele>
        <time>2026-09-29T23:19:59Z</time>
      </trkpt>
      <trkpt lat="34.82173472149374" lon="113.65770260899818">
        <ele>89.46098150592297</ele>
        <time>2026-09-29T23:20:14Z</time>
      </trkpt>
      <trkpt lat="34.821580157526704" lon="113.65774716686163">
        <ele>89.08688733819872</ele>
        <time>2026-09-29T23:20:23Z</time>
      </trkpt>
      <trkpt lat="34.82130653644669" lon="113.65787273990419">
        <ele>88.40027182083577</ele>
        <time>2026-09-29T23:20:38Z</time>
      </trkpt>
      <trkpt lat="34.8210388563542" lon="113.65798483702456">
        <ele>88.56262802146375</ele>
        <time>2026-09-29T23:20:53Z</time>
      </trkpt>
      <trkpt lat="34.82083568846225" lon="113.65802754740116">
        <ele>88.71409942489117</ele>
        <time>2026-09-29T23:21:04Z</time>
      </trkpt>
      <trkpt lat="34.82063934917729" lon="113.65812172157183">
        <ele>89.45523665472865</ele>
        <time>2026-09-29T23:21:20Z</time>
      </trkpt>
      <trkpt lat="34.82063229174869" lon="113.6581981572474">
        <ele>88.10580997169018</ele>
        <time>2026-09-29T23:21:28Z</time>
      </trkpt>
      <trkpt lat="34.82057533439168" lon="113.65827573232701">
        <ele>89.28920430410653</ele>
        <time>2026-09-29T23:21:35Z</time>
      </trkpt>
      <trkpt lat="34.820444344481984" lon="113.65836791900645">
        <ele>88.49699543043971</ele>
        <time>2026-09-29T23:21:44Z</time>
      </trkpt>
      <trkpt lat="34.82034390958337" lon="113.65845574134632">
        <ele>88.64155419077724</ele>
        <time>2026-09-29T23:22:02Z</time>
      </trkpt>
      <trkpt lat="34.82024500123462" lon="113.65839958756338">
        <ele>85.962158203125</ele>
        <time>2026-09-29T23:22:06Z</time>
      </trkpt>
      <trkpt lat="34.819946910483935" lon="113.65852103109764">
        <ele>87.47810200694948</ele>
        <time>2026-09-29T23:22:22Z</time>
      </trkpt>
      <trkpt lat="34.81965325879698" lon="113.65863753683452">
        <ele>87.61836371384561</ele>
        <time>2026-09-29T23:22:40Z</time>
      </trkpt>
      <trkpt lat="34.81943922350083" lon="113.65870871204106">
        <ele>89.49506330583245</ele>
        <time>2026-09-29T23:22:52Z</time>
      </trkpt>
      <trkpt lat="34.81915086389799" lon="113.65883984259482">
        <ele>89.16319563426077</ele>
        <time>2026-09-29T23:23:08Z</time>
      </trkpt>
      <trkpt lat="34.81888065758079" lon="113.65895479144237">
        <ele>88.4564851615578</ele>
        <time>2026-09-29T23:23:20Z</time>
      </trkpt>
      <trkpt lat="34.81858745688059" lon="113.65908866833557">
        <ele>88.46517138462514</ele>
        <time>2026-09-29T23:23:35Z</time>
      </trkpt>
      <trkpt lat="34.81831480687246" lon="113.65921068218418">
        <ele>88.50581958517432</ele>
        <time>2026-09-29T23:23:50Z</time>
      </trkpt>
      <trkpt lat="34.81803780956661" lon="113.6593005640328">
        <ele>86.67272158432752</ele>
        <time>2026-09-29T23:24:05Z</time>
      </trkpt>
      <trkpt lat="34.81777781174943" lon="113.65941988009219">
        <ele>85.90332612395287</ele>
        <time>2026-09-29T23:24:20Z</time>
      </trkpt>
      <trkpt lat="34.81750915122774" lon="113.65953764027424">
        <ele>86.74568404257298</ele>
        <time>2026-09-29T23:24:35Z</time>
      </trkpt>
      <trkpt lat="34.8172448466116" lon="113.65965193883326">
        <ele>85.93126969132572</ele>
        <time>2026-09-29T23:24:50Z</time>
      </trkpt>
      <trkpt lat="34.816950186972754" lon="113.65976812693">
        <ele>87.151572316885</ele>
        <time>2026-09-29T23:25:05Z</time>
      </trkpt>
      <trkpt lat="34.81668892318315" lon="113.65986981314978">
        <ele>85.9968043435365</ele>
        <time>2026-09-29T23:25:18Z</time>
      </trkpt>
      <trkpt lat="34.8163979255741" lon="113.65998349320722">
        <ele>86.34162555541843</ele>
        <time>2026-09-29T23:25:33Z</time>
      </trkpt>
      <trkpt lat="34.81630073021112" lon="113.66003972396535">
        <ele>85.76544954348356</ele>
        <time>2026-09-29T23:25:39Z</time>
      </trkpt>
      <trkpt lat="34.816262602748225" lon="113.66000043700382">
        <ele>87.6595768602565</ele>
        <time>2026-09-29T23:25:45Z</time>
      </trkpt>
      <trkpt lat="34.816270934144654" lon="113.65994641092097">
        <ele>88.82969114370644</ele>
        <time>2026-09-29T23:25:48Z</time>
      </trkpt>
      <trkpt lat="34.81616728791866" lon="113.65976073305903">
        <ele>92.5546481339261</ele>
        <time>2026-09-29T23:26:00Z</time>
      </trkpt>
      <trkpt lat="34.816145095538324" lon="113.65983761283626">
        <ele>94.34079769346863</ele>
        <time>2026-09-29T23:26:06Z</time>
      </trkpt>
      <trkpt lat="34.81614771236786" lon="113.65991470861945">
        <ele>94.1555767916143</ele>
        <time>2026-09-29T23:26:09Z</time>
      </trkpt>
      <trkpt lat="34.81622268622972" lon="113.66025236580457">
        <ele>90.86490824632347</ele>
        <time>2026-09-29T23:26:24Z</time>
      </trkpt>
      <trkpt lat="34.816308246854774" lon="113.66062194636241">
        <ele>89.6982168611139</ele>
        <time>2026-09-29T23:26:39Z</time>
      </trkpt>
      <trkpt lat="34.816358889781384" lon="113.66075034258279">
        <ele>90.31673782598227</ele>
        <time>2026-09-29T23:26:45Z</time>
      </trkpt>
      <trkpt lat="34.81652482023137" lon="113.66067832180164">
        <ele>90.50433334056288</ele>
        <time>2026-09-29T23:26:54Z</time>
      </trkpt>
      <trkpt lat="34.81657147769564" lon="113.66063411435148">
        <ele>90.20997663214803</ele>
        <time>2026-09-29T23:26:57Z</time>
      </trkpt>
      <trkpt lat="34.8166329696721" lon="113.66048381122778">
        <ele>90.20104113314301</ele>
        <time>2026-09-29T23:27:06Z</time>
      </trkpt>
      <trkpt lat="34.81678252368037" lon="113.66040709620526">
        <ele>90.985445195809</ele>
        <time>2026-09-29T23:27:15Z</time>
      </trkpt>
      <trkpt lat="34.816837200692724" lon="113.66034881525603">
        <ele>90.40418695658445</ele>
        <time>2026-09-29T23:27:19Z</time>
      </trkpt>
      <trkpt lat="34.81704476600748" lon="113.66026790195177">
        <ele>91.34835207462311</ele>
        <time>2026-09-29T23:27:31Z</time>
      </trkpt>
      <trkpt lat="34.81711625763117" lon="113.66028038837561">
        <ele>90.91904684342444</ele>
        <time>2026-09-29T23:27:35Z</time>
      </trkpt>
      <trkpt lat="34.817218006058766" lon="113.66017856278613">
        <ele>89.63123929128051</ele>
        <time>2026-09-29T23:27:42Z</time>
      </trkpt>
      <trkpt lat="34.817501125877506" lon="113.66014928021062">
        <ele>89.78712806291878</ele>
        <time>2026-09-29T23:27:57Z</time>
      </trkpt>
      <trkpt lat="34.8176685671614" lon="113.66012601393493">
        <ele>89.88100457377732</ele>
        <time>2026-09-29T23:28:06Z</time>
      </trkpt>
      <trkpt lat="34.81773022574972" lon="113.6601352252122">
        <ele>89.47687441762537</ele>
        <time>2026-09-29T23:28:09Z</time>
      </trkpt>
      <trkpt lat="34.81783015362465" lon="113.66007592654077">
        <ele>88.44043008703738</ele>
        <time>2026-09-29T23:28:15Z</time>
      </trkpt>
      <trkpt lat="34.81798129616925" lon="113.65983884054374">
        <ele>89.02055781055242</ele>
        <time>2026-09-29T23:28:27Z</time>
      </trkpt>
      <trkpt lat="34.81809543437436" lon="113.65978981673531">
        <ele>89.85546571854502</ele>
        <time>2026-09-29T23:28:33Z</time>
      </trkpt>
      <trkpt lat="34.81813899221903" lon="113.65975291166596">
        <ele>90.11938313953578</ele>
        <time>2026-09-29T23:28:36Z</time>
      </trkpt>
      <trkpt lat="34.81826144758059" lon="113.65970778962435">
        <ele>89.71294759679586</ele>
        <time>2026-09-29T23:28:42Z</time>
      </trkpt>
      <trkpt lat="34.8184370276032" lon="113.65967824890683">
        <ele>89.85331722721457</ele>
        <time>2026-09-29T23:28:51Z</time>
      </trkpt>
      <trkpt lat="34.81855169311581" lon="113.65958365666177">
        <ele>90.69565898552537</ele>
        <time>2026-09-29T23:28:57Z</time>
      </trkpt>
      <trkpt lat="34.81866303551045" lon="113.65952770656685">
        <ele>90.8786702901125</ele>
        <time>2026-09-29T23:29:03Z</time>
      </trkpt>
      <trkpt lat="34.818708386479535" lon="113.65948526638336">
        <ele>90.64706421643496</ele>
        <time>2026-09-29T23:29:06Z</time>
      </trkpt>
      <trkpt lat="34.81888438555781" lon="113.6594618399891">
        <ele>90.38421824015677</ele>
        <time>2026-09-29T23:29:15Z</time>
      </trkpt>
      <trkpt lat="34.81899116554168" lon="113.65939506749851">
        <ele>90.58916747849435</ele>
        <time>2026-09-29T23:29:21Z</time>
      </trkpt>
      <trkpt lat="34.81914118454254" lon="113.65934558912564">
        <ele>89.3461521808058</ele>
        <time>2026-09-29T23:29:29Z</time>
      </trkpt>
      <trkpt lat="34.81926287219924" lon="113.65924754910472">
        <ele>90.20791334845126</ele>
        <time>2026-09-29T23:29:37Z</time>
      </trkpt>
      <trkpt lat="34.81934487589023" lon="113.65924039380279">
        <ele>89.60855599306524</ele>
        <time>2026-09-29T23:29:41Z</time>
      </trkpt>
      <trkpt lat="34.81939828850703" lon="113.65920591838422">
        <ele>89.08552403748035</ele>
        <time>2026-09-29T23:29:45Z</time>
      </trkpt>
      <trkpt lat="34.81953857815383" lon="113.65918991021728">
        <ele>89.53064924478531</ele>
        <time>2026-09-29T23:29:53Z</time>
      </trkpt>
      <trkpt lat="34.81958993389083" lon="113.65914782451931">
        <ele>88.72348545119166</ele>
        <time>2026-09-29T23:29:56Z</time>
      </trkpt>
      <trkpt lat="34.8197613394665" lon="113.65908073102605">
        <ele>88.20382319111377</ele>
        <time>2026-09-29T23:30:05Z</time>
      </trkpt>
      <trkpt lat="34.81997168411399" lon="113.65896941561431">
        <ele>87.81028966791928</ele>
        <time>2026-09-29T23:30:17Z</time>
      </trkpt>
      <trkpt lat="34.820023716043124" lon="113.65896183648192">
        <ele>88.18969347886741</ele>
        <time>2026-09-29T23:30:20Z</time>
      </trkpt>
      <trkpt lat="34.820113583471404" lon="113.65890897596208">
        <ele>88.3484261399135</ele>
        <time>2026-09-29T23:30:26Z</time>
      </trkpt>
      <trkpt lat="34.82022215830488" lon="113.65890499569444">
        <ele>88.85797027405351</ele>
        <time>2026-09-29T23:30:32Z</time>
      </trkpt>
      <trkpt lat="34.82027852608183" lon="113.65888086445618">
        <ele>88.10565974097699</ele>
        <time>2026-09-29T23:30:35Z</time>
      </trkpt>
      <trkpt lat="34.82032700106569" lon="113.65889736718785">
        <ele>89.57576770801097</ele>
        <time>2026-09-29T23:30:38Z</time>
      </trkpt>
      <trkpt lat="34.820380835798815" lon="113.65899945659056">
        <ele>91.57619383838028</ele>
        <time>2026-09-29T23:30:47Z</time>
      </trkpt>
      <trkpt lat="34.82035003428176" lon="113.65909470289625">
        <ele>90.44589829258621</ele>
        <time>2026-09-29T23:30:50Z</time>
      </trkpt>
      <trkpt lat="34.82039538677228" lon="113.65915790553127">
        <ele>91.2690847357735</ele>
        <time>2026-09-29T23:30:53Z</time>
      </trkpt>
      <trkpt lat="34.82045616903451" lon="113.659167590584">
        <ele>91.72625165898353</ele>
        <time>2026-09-29T23:30:56Z</time>
      </trkpt>
      <trkpt lat="34.820620773743556" lon="113.65907085389524">
        <ele>90.7402509637177</ele>
        <time>2026-09-29T23:31:05Z</time>
      </trkpt>
      <trkpt lat="34.82070557316639" lon="113.6589533411445">
        <ele>91.52459888439626</ele>
        <time>2026-09-29T23:31:11Z</time>
      </trkpt>
      <trkpt lat="34.82083630764596" lon="113.65893233190666">
        <ele>90.93554711155593</ele>
        <time>2026-09-29T23:31:17Z</time>
      </trkpt>
      <trkpt lat="34.82094528458912" lon="113.65887490788508">
        <ele>91.77452653925866</ele>
        <time>2026-09-29T23:31:23Z</time>
      </trkpt>
      <trkpt lat="34.82101474822153" lon="113.65886943087968">
        <ele>91.07061950210482</ele>
        <time>2026-09-29T23:31:26Z</time>
      </trkpt>
      <trkpt lat="34.82108806881138" lon="113.65882867350088">
        <ele>91.15309428051114</ele>
        <time>2026-09-29T23:31:30Z</time>
      </trkpt>
      <trkpt lat="34.82119912065801" lon="113.65879663363424">
        <ele>92.20628986880183</ele>
        <time>2026-09-29T23:31:34Z</time>
      </trkpt>
      <trkpt lat="34.82126684906087" lon="113.658744499338">
        <ele>92.33800749387592</ele>
        <time>2026-09-29T23:31:38Z</time>
      </trkpt>
      <trkpt lat="34.821450484973596" lon="113.65875116856479">
        <ele>92.38020449038595</ele>
        <time>2026-09-29T23:31:46Z</time>
      </trkpt>
      <trkpt lat="34.821639988619914" lon="113.6586689709678">
        <ele>90.48491938970983</ele>
        <time>2026-09-29T23:31:54Z</time>
      </trkpt>
      <trkpt lat="34.82172647466989" lon="113.65866489737856">
        <ele>90.07530290074646</ele>
        <time>2026-09-29T23:31:58Z</time>
      </trkpt>
      <trkpt lat="34.82193980731419" lon="113.65856912823598">
        <ele>90.20219857431948</ele>
        <time>2026-09-29T23:32:09Z</time>
      </trkpt>
      <trkpt lat="34.82199671992405" lon="113.65852687155943">
        <ele>90.24813487567008</ele>
        <time>2026-09-29T23:32:12Z</time>
      </trkpt>
      <trkpt lat="34.822165932277564" lon="113.65847963677045">
        <ele>88.6651269365102</ele>
        <time>2026-09-29T23:32:21Z</time>
      </trkpt>
      <trkpt lat="34.82231228792139" lon="113.65841119643295">
        <ele>89.21111938171089</ele>
        <time>2026-09-29T23:32:27Z</time>
      </trkpt>
      <trkpt lat="34.82238370808837" lon="113.65839966675031">
        <ele>89.4974384503439</ele>
        <time>2026-09-29T23:32:30Z</time>
      </trkpt>
      <trkpt lat="34.82244079080121" lon="113.65836251365926">
        <ele>88.89981130231172</ele>
        <time>2026-09-29T23:32:33Z</time>
      </trkpt>
      <trkpt lat="34.8225165725594" lon="113.65835811579493">
        <ele>88.6454208875075</ele>
        <time>2026-09-29T23:32:36Z</time>
      </trkpt>
      <trkpt lat="34.82258253511727" lon="113.65829558057212">
        <ele>87.92308080848306</ele>
        <time>2026-09-29T23:32:39Z</time>
      </trkpt>
      <trkpt lat="34.82284312822598" lon="113.65820791453666">
        <ele>87.49396469444036</ele>
        <time>2026-09-29T23:32:48Z</time>
      </trkpt>
      <trkpt lat="34.82299664505445" lon="113.65813236805069">
        <ele>88.82714565470815</ele>
        <time>2026-09-29T23:32:54Z</time>
      </trkpt>
      <trkpt lat="34.82307956992176" lon="113.65811341188773">
        <ele>90.41185164451599</ele>
        <time>2026-09-29T23:32:57Z</time>
      </trkpt>
      <trkpt lat="34.82315571841564" lon="113.65812428142864">
        <ele>89.60026441235095</ele>
        <time>2026-09-29T23:33:00Z</time>
      </trkpt>
      <trkpt lat="34.82333752731711" lon="113.65802062121185">
        <ele>89.98941211681813</ele>
        <time>2026-09-29T23:33:09Z</time>
      </trkpt>
      <trkpt lat="34.82364893218581" lon="113.65790233974658">
        <ele>89.71900482848287</ele>
        <time>2026-09-29T23:33:21Z</time>
      </trkpt>
      <trkpt lat="34.82392451340573" lon="113.65781730268392">
        <ele>89.3064019586891</ele>
        <time>2026-09-29T23:33:33Z</time>
      </trkpt>
      <trkpt lat="34.824014167988906" lon="113.6578200362949">
        <ele>90.08591019175947</ele>
        <time>2026-09-29T23:33:37Z</time>
      </trkpt>
      <trkpt lat="34.82409724177896" lon="113.657748341914">
        <ele>89.1343860886991</ele>
        <time>2026-09-29T23:33:41Z</time>
      </trkpt>
      <trkpt lat="34.824161723096225" lon="113.65764900046717">
        <ele>89.845618782565</ele>
        <time>2026-09-29T23:33:45Z</time>
      </trkpt>
      <trkpt lat="34.82426455707003" lon="113.65762039544187">
        <ele>90.50475918315351</ele>
        <time>2026-09-29T23:33:49Z</time>
      </trkpt>
      <trkpt lat="34.82435036503164" lon="113.65756039131927">
        <ele>90.1846504053101</ele>
        <time>2026-09-29T23:33:53Z</time>
      </trkpt>
      <trkpt lat="34.824544462887346" lon="113.6575340307589">
        <ele>88.87772963754833</ele>
        <time>2026-09-29T23:34:01Z</time>
      </trkpt>
      <trkpt lat="34.824641568413426" lon="113.65750187309924">
        <ele>89.33258624188602</ele>
        <time>2026-09-29T23:34:05Z</time>
      </trkpt>
      <trkpt lat="34.824851583755574" lon="113.65737662565863">
        <ele>88.92515589483082</ele>
        <time>2026-09-29T23:34:15Z</time>
      </trkpt>
      <trkpt lat="34.8250671023693" lon="113.65732421367755">
        <ele>89.44253905676305</ele>
        <time>2026-09-29T23:34:24Z</time>
      </trkpt>
      <trkpt lat="34.825137221168944" lon="113.65732432961875">
        <ele>89.44490104354918</ele>
        <time>2026-09-29T23:34:27Z</time>
      </trkpt>
      <trkpt lat="34.82520618903198" lon="113.65729061509599">
        <ele>88.86360733397305</ele>
        <time>2026-09-29T23:34:30Z</time>
      </trkpt>
      <trkpt lat="34.82526648824197" lon="113.65723007577353">
        <ele>89.32142481394112</ele>
        <time>2026-09-29T23:34:33Z</time>
      </trkpt>
      <trkpt lat="34.82542211105318" lon="113.65721074789487">
        <ele>89.06458113063127</ele>
        <time>2026-09-29T23:34:39Z</time>
      </trkpt>
      <trkpt lat="34.825640057593475" lon="113.65708335059868">
        <ele>87.09815470408648</ele>
        <time>2026-09-29T23:34:48Z</time>
      </trkpt>
      <trkpt lat="34.82571437080043" lon="113.65706550369448">
        <ele>86.83109257929027</ele>
        <time>2026-09-29T23:34:51Z</time>
      </trkpt>
      <trkpt lat="34.82578775155443" lon="113.65700725250642">
        <ele>87.28381755016744</ele>
        <time>2026-09-29T23:34:54Z</time>
      </trkpt>
      <trkpt lat="34.82595005078973" lon="113.65700171160216">
        <ele>87.99149152263999</ele>
        <time>2026-09-29T23:35:00Z</time>
      </trkpt>
      <trkpt lat="34.82601002451086" lon="113.65696831442668">
        <ele>86.61339771654457</ele>
        <time>2026-09-29T23:35:03Z</time>
      </trkpt>
      <trkpt lat="34.82607822252334" lon="113.65695978061515">
        <ele>86.49847923498601</ele>
        <time>2026-09-29T23:35:06Z</time>
      </trkpt>
      <trkpt lat="34.826233627032515" lon="113.65687800162273">
        <ele>86.16253335867077</ele>
        <time>2026-09-29T23:35:12Z</time>
      </trkpt>
      <trkpt lat="34.826307132321745" lon="113.65685686696031">
        <ele>87.44807909429073</ele>
        <time>2026-09-29T23:35:15Z</time>
      </trkpt>
      <trkpt lat="34.826362711493225" lon="113.6568104741084">
        <ele>87.08259969111532</ele>
        <time>2026-09-29T23:35:18Z</time>
      </trkpt>
      <trkpt lat="34.826432460493365" lon="113.65665102613127">
        <ele>88.00617695041001</ele>
        <time>2026-09-29T23:35:24Z</time>
      </trkpt>
      <trkpt lat="34.82648675993024" lon="113.65659455189558">
        <ele>87.73636610992253</ele>
        <time>2026-09-29T23:35:27Z</time>
      </trkpt>
      <trkpt lat="34.82655679595754" lon="113.656579120311">
        <ele>88.39450389053673</ele>
        <time>2026-09-29T23:35:30Z</time>
      </trkpt>
      <trkpt lat="34.826631632440666" lon="113.65653757336672">
        <ele>87.88798579294235</ele>
        <time>2026-09-29T23:35:33Z</time>
      </trkpt>
      <trkpt lat="34.826964297298794" lon="113.65650984772479">
        <ele>88.17118631862104</ele>
        <time>2026-09-29T23:35:47Z</time>
      </trkpt>
      <trkpt lat="34.82708211656754" lon="113.65650105982863">
        <ele>89.99963003396988</ele>
        <time>2026-09-29T23:35:51Z</time>
      </trkpt>
      <trkpt lat="34.82719141089491" lon="113.65651777830513">
        <ele>89.584785470739</ele>
        <time>2026-09-29T23:35:55Z</time>
      </trkpt>
      <trkpt lat="34.82738043011614" lon="113.65642476490525">
        <ele>89.97315098531544</ele>
        <time>2026-09-29T23:36:03Z</time>
      </trkpt>
      <trkpt lat="34.827704194788815" lon="113.65630088223233">
        <ele>90.72153490688652</ele>
        <time>2026-09-29T23:36:16Z</time>
      </trkpt>
      <trkpt lat="34.82777137336716" lon="113.656268345945">
        <ele>90.40544979274273</ele>
        <time>2026-09-29T23:36:19Z</time>
      </trkpt>
      <trkpt lat="34.828074550559116" lon="113.65618827704886">
        <ele>91.81031813286245</ele>
        <time>2026-09-29T23:36:31Z</time>
      </trkpt>
      <trkpt lat="34.828192265334835" lon="113.65615243051302">
        <ele>91.48066368419677</ele>
        <time>2026-09-29T23:36:37Z</time>
      </trkpt>
      <trkpt lat="34.82833646727899" lon="113.6560614834218">
        <ele>91.14584043156356</ele>
        <time>2026-09-29T23:36:43Z</time>
      </trkpt>
      <trkpt lat="34.82853469787675" lon="113.6559922303806">
        <ele>92.16771065164357</ele>
        <time>2026-09-29T23:36:52Z</time>
      </trkpt>
      <trkpt lat="34.82859957839622" lon="113.65599098294648">
        <ele>91.6309480778873</ele>
        <time>2026-09-29T23:36:55Z</time>
      </trkpt>
      <trkpt lat="34.8286651085185" lon="113.65594282400265">
        <ele>90.6783587448299</ele>
        <time>2026-09-29T23:36:58Z</time>
      </trkpt>
      <trkpt lat="34.828815236396615" lon="113.65591795117118">
        <ele>91.33468132931739</ele>
        <time>2026-09-29T23:37:04Z</time>
      </trkpt>
      <trkpt lat="34.82893748424634" lon="113.6558506263497">
        <ele>91.23748801555485</ele>
        <time>2026-09-29T23:37:10Z</time>
      </trkpt>
      <trkpt lat="34.829013328233025" lon="113.65582865157802">
        <ele>92.58138151466846</ele>
        <time>2026-09-29T23:37:13Z</time>
      </trkpt>
      <trkpt lat="34.82907623491341" lon="113.65583423378132">
        <ele>93.08189798146486</ele>
        <time>2026-09-29T23:37:16Z</time>
      </trkpt>
      <trkpt lat="34.82908020319561" lon="113.65591341529672">
        <ele>90.91214581858367</ele>
        <time>2026-09-29T23:37:19Z</time>
      </trkpt>
      <trkpt lat="34.82912654005771" lon="113.65591908933702">
        <ele>91.77808852493763</ele>
        <time>2026-09-29T23:37:22Z</time>
      </trkpt>
      <trkpt lat="34.82916669364265" lon="113.65587128433933">
        <ele>92.50299910176545</ele>
        <time>2026-09-29T23:37:25Z</time>
      </trkpt>
      <trkpt lat="34.829251221382435" lon="113.65583950818083">
        <ele>94.15655386634171</ele>
        <time>2026-09-29T23:37:31Z</time>
      </trkpt>
    </trkseg>
  </trk>
</gpx>