<?xml version="1.0" encoding="UTF-8"?>
<gpx xmlns="http://www.topografix.com/GPX/1/1" xmlns:gpxtpx="http://www.garmin.com/xmlschemas/TrackPointExtension/v1" xmlns:xsi="http://www.w3.org/2001/XMLSchema-instance" xsi:schemaLocation="http://www.topografix.com/GPX/1/1 http://www.topografix.com/GPX/1/1/gpx.xsd" version="1.1" creator="gpx.py -- https://github.com/tkrajina/gpxpy">
  <trk>
    <name>gpx from keep</name>
    <type>Walk</type>
    <trkseg>
      <trkpt lat="34.82603352348473" lon="113.65573639271084">
        <ele>94.28910257201642</ele>
        <time>2026-08-16T15:39:30Z</time>
      </trkpt>
      <trkpt lat="34.82619748065827" lon="113.65577248523276">
        <ele>94.00571788381785</ele>
        <time>2026-08-16T15:39:50Z</time>
      </trkpt>
      <trkpt lat="34.8262548819522" lon="113.65580845818069">
        <ele>93.98003034852445</ele>
        <time>2026-08-16T15:39:54Z</time>
      </trkpt>
      <trkpt lat="34.82654060975461" lon="113.65568256460742">
        <ele>96.65430362243205</ele>
        <time>2026-08-16T15:40:17Z</time>
      </trkpt>
      <trkpt lat="34.82686501786899" lon="113.65557378180665">
        <ele>98.03996214270592</ele>
        <time>2026-08-16T15:40:41Z</time>
      </trkpt>
      <trkpt lat="34.82712694027932" lon="113.65546823508855">
        <ele>96.46092837583274</ele>
        <time>2026-08-16T15:41:02Z</time>
      </trkpt>
      <trkpt lat="34.8273960722825" lon="113.65535373470283">
        <ele>95.92958579026163</ele>
        <time>2026-08-16T15:41:23Z</time>
      </trkpt>
      <trkpt lat="34.827729186545774" lon="113.65519675426519">
        <ele>95.65496754553169</ele>
        <time>2026-08-16T15:41:48Z</time>
      </trkpt>
      <trkpt lat="34.827923471754474" lon="113.65513294316945">
        <ele>95.55823727790266</ele>
        <time>2026-08-16T15:42:03Z</time>
      </trkpt>
      <trkpt lat="34.82820509016746" lon="113.6550111189261">
        <ele>93.38449317775667</ele>
        <time>2026-08-16T15:42:24Z</time>
      </trkpt>
      <trkpt lat="34.82848912486713" lon="113.65489167093465">
        <ele>92.19865640345961</ele>
        <time>2026-08-16T15:42:45Z</time>
      </trkpt>
      <trkpt lat="34.82876788296349" lon="113.65475421928699">
        <ele>90.38605510536581</ele>
        <time>2026-08-16T15:43:06Z</time>
      </trkpt>
      <trkpt lat="34.82904772196799" lon="113.65465386137524">
        <ele>93.33272387366742</ele>
        <time>2026-08-16T15:43:27Z</time>
      </trkpt>
      <trkpt lat="34.82930239915722" lon="113.65453736753217">
        <ele>91.72729584015906</ele>
        <time>2026-08-16T15:43:46Z</time>
      </trkpt>
      <trkpt lat="34.82963591817268" lon="113.6544014496741">
        <ele>91.9544216459617</ele>
        <time>2026-08-16T15:44:10Z</time>
      </trkpt>
      <trkpt lat="34.82983501400454" lon="113.65433136085333">
        <ele>91.86027141101658</ele>
        <time>2026-08-16T15:44:25Z</time>
      </trkpt>
      <trkpt lat="34.829911048081385" lon="113.65433624552918">
        <ele>93.0350366262719</ele>
        <time>2026-08-16T15:44:34Z</time>
      </trkpt>
      <trkpt lat="34.82992278449278" lon="113.65441239411794">
        <ele>93.11529723834246</ele>
        <time>2026-08-16T15:44:40Z</time>
      </trkpt>
      <trkpt lat="34.829903074850925" lon="113.65446375880346">
        <ele>92.42225067131221</ele>
        <time>2026-08-16T15:44:43Z</time>
      </trkpt>
      <trkpt lat="34.82991138161459" lon="113.65465902603391">
        <ele>93.2559608835727</ele>
        <time>2026-08-16T15:44:55Z</time>
      </trkpt>
      <trkpt lat="34.82987155086284" lon="113.65500188720884">
        <ele>91.74223132804036</ele>
        <time>2026-08-16T15:45:16Z</time>
      </trkpt>
      <trkpt lat="34.82983830490409" lon="113.65536967525922">
        <ele>91.36029352154583</ele>
        <time>2026-08-16T15:45:38Z</time>
      </trkpt>
      <trkpt lat="34.82983858053744" lon="113.6555724520617">
        <ele>91.36634568031877</ele>
        <time>2026-08-16T15:45:50Z</time>
      </trkpt>
      <trkpt lat="34.82986144433386" lon="113.6556263902042">
        <ele>91.60763795208186</ele>
        <time>2026-08-16T15:45:58Z</time>
      </trkpt>
      <trkpt lat="34.829832241012944" lon="113.65568768057402">
        <ele>93.27352034207433</ele>
        <time>2026-08-16T15:46:22Z</time>
      </trkpt>
      <trkpt lat="34.829827824414664" lon="113.65574697268839">
        <ele>95.67449318990111</ele>
        <time>2026-08-16T15:46:37Z</time>
      </trkpt>
      <trkpt lat="34.82983411820675" lon="113.65610680647539">
        <ele>94.53522979374975</ele>
        <time>2026-08-16T15:46:58Z</time>
      </trkpt>
      <trkpt lat="34.82982380506352" lon="113.65646062279076">
        <ele>95.98312950786203</ele>
        <time>2026-08-16T15:47:22Z</time>
      </trkpt>
      <trkpt lat="34.8297638192378" lon="113.65681524889258">
        <ele>93.65534526854753</ele>
        <time>2026-08-16T15:47:44Z</time>
      </trkpt>
      <trkpt lat="34.829734276581284" lon="113.65717034270044">
        <ele>92.99508832581341</ele>
        <time>2026-08-16T15:48:08Z</time>
      </trkpt>
      <trkpt lat="34.82971315900231" lon="113.65745132903055">
        <ele>90.9565168088302</ele>
        <time>2026-08-16T15:48:26Z</time>
      </trkpt>
      <trkpt lat="34.82968044177369" lon="113.65750365356726">
        <ele>90.32563383411616</ele>
        <time>2026-08-16T15:48:29Z</time>
      </trkpt>
      <trkpt lat="34.82965371813295" lon="113.65773753177626">
        <ele>89.77345939539373</ele>
        <time>2026-08-16T15:48:44Z</time>
      </trkpt>
      <trkpt lat="34.82962943354389" lon="113.65782125056126">
        <ele>90.40944268926978</ele>
        <time>2026-08-16T15:48:50Z</time>
      </trkpt>
      <trkpt lat="34.82964127273423" lon="113.65788380163754">
        <ele>88.80861869081855</ele>
        <time>2026-08-16T15:48:59Z</time>
      </trkpt>
      <trkpt lat="34.82968610917912" lon="113.65789619216432">
        <ele>88.96205825731158</ele>
        <time>2026-08-16T15:49:05Z</time>
      </trkpt>
      <trkpt lat="34.82973806611651" lon="113.65786874091063">
        <ele>85.24070540629327</ele>
        <time>2026-08-16T15:49:17Z</time>
      </trkpt>
      <trkpt lat="34.829698968728906" lon="113.65789947612289">
        <ele>84.8776918835938</ele>
        <time>2026-08-16T15:49:32Z</time>
      </trkpt>
      <trkpt lat="34.82973820245633" lon="113.65794015962649">
        <ele>84.49124200548977</ele>
        <time>2026-08-16T15:49:51Z</time>
      </trkpt>
      <trkpt lat="34.82979441551853" lon="113.65793218220092">
        <ele>84.610266469419</ele>
        <time>2026-08-16T15:50:01Z</time>
      </trkpt>
      <trkpt lat="34.82972143993119" lon="113.65793285331773">
        <ele>84.6633648565039</ele>
        <time>2026-08-16T15:50:10Z</time>
      </trkpt>
      <trkpt lat="34.829666714371385" lon="113.65796463205758">
        <ele>83.29315225128084</ele>
        <time>2026-08-16T15:50:16Z</time>
      </trkpt>
      <trkpt lat="34.829596712509996" lon="113.6579551411698">
        <ele>84.1358859539032</ele>
        <time>2026-08-16T15:50:19Z</time>
      </trkpt>
      <trkpt lat="34.82946821244106" lon="113.65801195864962">
        <ele>85.52400348894298</ele>
        <time>2026-08-16T15:50:31Z</time>
      </trkpt>
      <trkpt lat="34.82932450491415" lon="113.65802018066145">
        <ele>86.87401881627738</ele>
        <time>2026-08-16T15:50:43Z</time>
      </trkpt>
      <trkpt lat="34.82926571327714" lon="113.658068053702">
        <ele>88.49543668981642</ele>
        <time>2026-08-16T15:50:49Z</time>
      </trkpt>
      <trkpt lat="34.829229587833936" lon="113.65814496089962">
        <ele>86.75416040886194</ele>
        <time>2026-08-16T15:50:58Z</time>
      </trkpt>
      <trkpt lat="34.829214100818" lon="113.65849945472885">
        <ele>88.63173732720315</ele>
        <time>2026-08-16T15:51:19Z</time>
      </trkpt>
      <trkpt lat="34.82920561935319" lon="113.65874829512121">
        <ele>87.13727248366922</ele>
        <time>2026-08-16T15:51:34Z</time>
      </trkpt>
      <trkpt lat="34.82918868510686" lon="113.65885830354954">
        <ele>88.57848388887942</ele>
        <time>2026-08-16T15:51:40Z</time>
      </trkpt>
      <trkpt lat="34.82907560982085" lon="113.65885476394543">
        <ele>90.1398737533018</ele>
        <time>2026-08-16T15:51:52Z</time>
      </trkpt>
      <trkpt lat="34.82907560982085" lon="113.65885476394543">
        <ele>90.1398737533018</ele>
        <time>2026-08-16T15:51:57Z</time>
      </trkpt>
    </trkseg>
  </trk>
</gpx>