<?xml version="1.0" encoding="UTF-8"?>
<gpx xmlns="http://www.topografix.com/GPX/1/1" xmlns:gpxtpx="http://www.garmin.com/xmlschemas/TrackPointExtension/v1" xmlns:xsi="http://www.w3.org/2001/XMLSchema-instance" xsi:schemaLocation="http://www.topografix.com/GPX/1/1 http://www.topografix.com/GPX/1/1/gpx.xsd" version="1.1" creator="gpx.py -- https://github.com/tkrajina/gpxpy">
  <trk>
    <name>gpx from keep</name>
    <type>Run</type>
    <trkseg>
      <trkpt lat="34.829852565920916" lon="113.6565938113207">
        <ele>92.42779541015625</ele>
        <time>2026-09-08T03:05:01Z</time>
      </trkpt>
      <trkpt lat="34.82979113165838" lon="113.65651494281941">
        <ele>91.9356689453125</ele>
        <time>2026-09-08T03:05:05Z</time>
      </trkpt>
      <trkpt lat="34.82984474810467" lon="113.65609557615366">
        <ele>92.89014774281532</ele>
        <time>2026-09-08T03:05:19Z</time>
      </trkpt>
      <trkpt lat="34.829858676292574" lon="113.65604133125528">
        <ele>90.13142699096352</ele>
        <time>2026-09-08T03:05:23Z</time>
      </trkpt>
      <trkpt lat="34.83003108840492" lon="113.65598753806718">
        <ele>89.45915472973138</ele>
        <time>2026-09-08T03:06:07Z</time>
      </trkpt>
      <trkpt lat="34.830228853814305" lon="113.65589501446414">
        <ele>89.53053483366966</ele>
        <time>2026-09-08T03:06:15Z</time>
      </trkpt>
      <trkpt lat="34.830302674968785" lon="113.65587699439726">
        <ele>88.70811874885112</ele>
        <time>2026-09-08T03:06:19Z</time>
      </trkpt>
      <trkpt lat="34.83035787396346" lon="113.65591244327238">
        <ele>88.31451694481075</ele>
        <time>2026-09-08T03:06:22Z</time>
      </trkpt>
      <trkpt lat="34.83042348393044" lon="113.65606785672435">
        <ele>87.53438977338374</ele>
        <time>2026-09-08T03:06:29Z</time>
      </trkpt>
      <trkpt lat="34.830527568762314" lon="113.65619779418502">
        <ele>86.69201377499849</ele>
        <time>2026-09-08T03:06:36Z</time>
      </trkpt>
      <trkpt lat="34.83067840112164" lon="113.6562524396955">
        <ele>88.5847776606679</ele>
        <time>2026-09-08T03:06:43Z</time>
      </trkpt>
      <trkpt lat="34.83073906192568" lon="113.65629314538526">
        <ele>88.22911989316344</ele>
        <time>2026-09-08T03:06:46Z</time>
      </trkpt>
      <trkpt lat="34.83088846201002" lon="113.65648316830836">
        <ele>86.72207465115935</ele>
        <time>2026-09-08T03:06:57Z</time>
      </trkpt>
      <trkpt lat="34.830977660652465" lon="113.65648175618875">
        <ele>89.85526612494141</ele>
        <time>2026-09-08T03:07:01Z</time>
      </trkpt>
      <trkpt lat="34.831107951849845" lon="113.656381100996">
        <ele>89.62501720990986</ele>
        <time>2026-09-08T03:07:08Z</time>
      </trkpt>
      <trkpt lat="34.83133059509521" lon="113.65637326705024">
        <ele>90.5921063600108</ele>
        <time>2026-09-08T03:07:20Z</time>
      </trkpt>
      <trkpt lat="34.831410056183216" lon="113.65633040422368">
        <ele>90.55177008733153</ele>
        <time>2026-09-08T03:07:23Z</time>
      </trkpt>
      <trkpt lat="34.83155141834731" lon="113.65629817221671">
        <ele>90.09869576245546</ele>
        <time>2026-09-08T03:07:29Z</time>
      </trkpt>
      <trkpt lat="34.831721251845316" lon="113.65615737339014">
        <ele>90.20930565334857</ele>
        <time>2026-09-08T03:07:38Z</time>
      </trkpt>
      <trkpt lat="34.83178089027802" lon="113.65616159761684">
        <ele>90.4115407736972</ele>
        <time>2026-09-08T03:07:41Z</time>
      </trkpt>
      <trkpt lat="34.83189129074358" lon="113.65608747756025">
        <ele>89.00057429168373</ele>
        <time>2026-09-08T03:07:47Z</time>
      </trkpt>
      <trkpt lat="34.83195442765816" lon="113.65606957465072">
        <ele>89.99280815012753</ele>
        <time>2026-09-08T03:07:50Z</time>
      </trkpt>
      <trkpt lat="34.83226713718712" lon="113.6561301505345">
        <ele>89.4672224028036</ele>
        <time>2026-09-08T03:08:05Z</time>
      </trkpt>
      <trkpt lat="34.832443818150786" lon="113.65609251807096">
        <ele>89.72559503745288</ele>
        <time>2026-09-08T03:08:14Z</time>
      </trkpt>
      <trkpt lat="34.832547690057055" lon="113.65600698190286">
        <ele>90.21845291275531</ele>
        <time>2026-09-08T03:08:20Z</time>
      </trkpt>
      <trkpt lat="34.83267052115152" lon="113.65586497516833">
        <ele>89.82784210052341</ele>
        <time>2026-09-08T03:08:29Z</time>
      </trkpt>
      <trkpt lat="34.832726788864036" lon="113.65585858225046">
        <ele>89.79608687199652</ele>
        <time>2026-09-08T03:08:32Z</time>
      </trkpt>
      <trkpt lat="34.83279347612935" lon="113.65590771062118">
        <ele>89.29019493237138</ele>
        <time>2026-09-08T03:08:35Z</time>
      </trkpt>
      <trkpt lat="34.833024930899555" lon="113.65619000332923">
        <ele>91.04509083461016</ele>
        <time>2026-09-08T03:08:50Z</time>
      </trkpt>
      <trkpt lat="34.833220060462615" lon="113.65631139580401">
        <ele>89.56935022771358</ele>
        <time>2026-09-08T03:09:02Z</time>
      </trkpt>
      <trkpt lat="34.833506989689845" lon="113.65634986962023">
        <ele>89.04482993111014</ele>
        <time>2026-09-08T03:09:15Z</time>
      </trkpt>
      <trkpt lat="34.83359479500555" lon="113.65635440949441">
        <ele>88.72944999672472</ele>
        <time>2026-09-08T03:09:19Z</time>
      </trkpt>
      <trkpt lat="34.833843221689186" lon="113.65622345235971">
        <ele>90.22768747154623</ele>
        <time>2026-09-08T03:09:31Z</time>
      </trkpt>
      <trkpt lat="34.83398205005346" lon="113.65613560319002">
        <ele>91.23401037696749</ele>
        <time>2026-09-08T03:09:39Z</time>
      </trkpt>
      <trkpt lat="34.8341583804749" lon="113.6559594218697">
        <ele>90.27202670369297</ele>
        <time>2026-09-08T03:09:49Z</time>
      </trkpt>
      <trkpt lat="34.834229815257395" lon="113.65583359314313">
        <ele>89.82715665176511</ele>
        <time>2026-09-08T03:09:55Z</time>
      </trkpt>
      <trkpt lat="34.83428254590019" lon="113.65562477177747">
        <ele>89.20024682115763</ele>
        <time>2026-09-08T03:10:04Z</time>
      </trkpt>
      <trkpt lat="34.83427451473148" lon="113.65534425580125">
        <ele>88.93290695361793</ele>
        <time>2026-09-08T03:10:16Z</time>
      </trkpt>
      <trkpt lat="34.83418346173822" lon="113.65513804032808">
        <ele>87.79760058689862</ele>
        <time>2026-09-08T03:10:25Z</time>
      </trkpt>
      <trkpt lat="34.83414959786993" lon="113.65509353348679">
        <ele>88.14732781611383</ele>
        <time>2026-09-08T03:10:28Z</time>
      </trkpt>
      <trkpt lat="34.83410038747793" lon="113.65508907407677">
        <ele>87.61577964480966</ele>
        <time>2026-09-08T03:10:31Z</time>
      </trkpt>
      <trkpt lat="34.834040917843545" lon="113.65505260286032">
        <ele>87.97279141377658</ele>
        <time>2026-09-08T03:10:34Z</time>
      </trkpt>
      <trkpt lat="34.83401548837467" lon="113.65499023043431">
        <ele>87.56089435052127</ele>
        <time>2026-09-08T03:10:37Z</time>
      </trkpt>
      <trkpt lat="34.83384520712518" lon="113.65486284657405">
        <ele>88.24025472067297</ele>
        <time>2026-09-08T03:10:46Z</time>
      </trkpt>
      <trkpt lat="34.83357864737226" lon="113.65482423860712">
        <ele>87.5023979768157</ele>
        <time>2026-09-08T03:10:58Z</time>
      </trkpt>
      <trkpt lat="34.83340156032452" lon="113.65487724066874">
        <ele>87.84527284931391</ele>
        <time>2026-09-08T03:11:07Z</time>
      </trkpt>
      <trkpt lat="34.83334154577502" lon="113.65491412985763">
        <ele>87.29361272417009</ele>
        <time>2026-09-08T03:11:10Z</time>
      </trkpt>
      <trkpt lat="34.83324778720741" lon="113.65510170376838">
        <ele>87.70075274631381</ele>
        <time>2026-09-08T03:11:19Z</time>
      </trkpt>
      <trkpt lat="34.833177889627535" lon="113.65517967593628">
        <ele>87.94978412427008</ele>
        <time>2026-09-08T03:11:23Z</time>
      </trkpt>
      <trkpt lat="34.83294860823442" lon="113.65531991352448">
        <ele>89.66934873536229</ele>
        <time>2026-09-08T03:11:35Z</time>
      </trkpt>
      <trkpt lat="34.83275842013837" lon="113.65526210584872">
        <ele>89.43076900206506</ele>
        <time>2026-09-08T03:11:43Z</time>
      </trkpt>
      <trkpt lat="34.832605178322744" lon="113.65514722693774">
        <ele>88.82500183396041</ele>
        <time>2026-09-08T03:11:53Z</time>
      </trkpt>
      <trkpt lat="34.832495266189134" lon="113.65512844003918">
        <ele>86.62956369202584</ele>
        <time>2026-09-08T03:11:59Z</time>
      </trkpt>
      <trkpt lat="34.83237234807288" lon="113.6551770650148">
        <ele>87.34200377110392</ele>
        <time>2026-09-08T03:12:05Z</time>
      </trkpt>
      <trkpt lat="34.83231596386451" lon="113.65522688856106">
        <ele>88.35342153161764</ele>
        <time>2026-09-08T03:12:08Z</time>
      </trkpt>
      <trkpt lat="34.83227951003838" lon="113.65528795227523">
        <ele>89.96507521905005</ele>
        <time>2026-09-08T03:12:11Z</time>
      </trkpt>
      <trkpt lat="34.83224873963032" lon="113.65546205300107">
        <ele>88.4074085149914</ele>
        <time>2026-09-08T03:12:20Z</time>
      </trkpt>
      <trkpt lat="34.83218106948146" lon="113.65559467358962">
        <ele>88.50137143395841</ele>
        <time>2026-09-08T03:12:26Z</time>
      </trkpt>
      <trkpt lat="34.83197895677859" lon="113.65574508541415">
        <ele>88.52283580228686</ele>
        <time>2026-09-08T03:12:38Z</time>
      </trkpt>
      <trkpt lat="34.83194287821052" lon="113.65595170423414">
        <ele>88.88674448709935</ele>
        <time>2026-09-08T03:12:47Z</time>
      </trkpt>
      <trkpt lat="34.83167567309345" lon="113.6561319533588">
        <ele>88.25571211148053</ele>
        <time>2026-09-08T03:13:02Z</time>
      </trkpt>
      <trkpt lat="34.83162893103802" lon="113.65614625361583">
        <ele>88.6200366448611</ele>
        <time>2026-09-08T03:13:05Z</time>
      </trkpt>
      <trkpt lat="34.831431711524885" lon="113.65627302944229">
        <ele>89.16200147103518</ele>
        <time>2026-09-08T03:13:17Z</time>
      </trkpt>
      <trkpt lat="34.83138027025782" lon="113.65627932228846">
        <ele>89.0021488564089</ele>
        <time>2026-09-08T03:13:20Z</time>
      </trkpt>
      <trkpt lat="34.83127991935066" lon="113.65621821176293">
        <ele>87.86505568493158</ele>
        <time>2026-09-08T03:13:27Z</time>
      </trkpt>
      <trkpt lat="34.831136949839056" lon="113.65621041912058">
        <ele>85.36307832971215</ele>
        <time>2026-09-08T03:13:35Z</time>
      </trkpt>
      <trkpt lat="34.830960105860605" lon="113.65617176041495">
        <ele>86.02271506749094</ele>
        <time>2026-09-08T03:13:43Z</time>
      </trkpt>
      <trkpt lat="34.83074138282648" lon="113.65626268620602">
        <ele>88.0513072097674</ele>
        <time>2026-09-08T03:13:55Z</time>
      </trkpt>
      <trkpt lat="34.83054339279953" lon="113.65624581921382">
        <ele>86.94510727748275</ele>
        <time>2026-09-08T03:14:07Z</time>
      </trkpt>
      <trkpt lat="34.83047677256505" lon="113.65617759532432">
        <ele>86.30114996153861</ele>
        <time>2026-09-08T03:14:13Z</time>
      </trkpt>
      <trkpt lat="34.830337040829065" lon="113.65592249564259">
        <ele>85.75595942791551</ele>
        <time>2026-09-08T03:14:25Z</time>
      </trkpt>
      <trkpt lat="34.830337040829065" lon="113.65592249564259">
        <ele>85.75595942791551</ele>
        <time>2026-09-08T03:14:28Z</time>
      </trkpt>
      <trkpt lat="34.83026338895422" lon="113.65578983969698">
        <ele>87.55164848640561</ele>
        <time>2026-09-08T03:15:12Z</time>
      </trkpt>
      <trkpt lat="34.83033972560425" lon="113.65545565087879">
        <ele>87.98983226064593</ele>
        <time>2026-09-08T03:15:24Z</time>
      </trkpt>
      <trkpt lat="34.83037835310077" lon="113.65531187209514">
        <ele>89.69985022675246</ele>
        <time>2026-09-08T03:15:30Z</time>
      </trkpt>
      <trkpt lat="34.830350545999764" lon="113.65525653511209">
        <ele>89.24146512616426</ele>
        <time>2026-09-08T03:15:34Z</time>
      </trkpt>
      <trkpt lat="34.83037572183117" lon="113.6548973055961">
        <ele>88.75522219855338</ele>
        <time>2026-09-08T03:15:48Z</time>
      </trkpt>
      <trkpt lat="34.830395135995616" lon="113.65482889402834">
        <ele>89.08950869180262</ele>
        <time>2026-09-08T03:15:51Z</time>
      </trkpt>
      <trkpt lat="34.83038755004467" lon="113.65466964390151">
        <ele>90.2269795993343</ele>
        <time>2026-09-08T03:15:57Z</time>
      </trkpt>
      <trkpt lat="34.830418564467635" lon="113.65427995167269">
        <ele>88.52058761101216</ele>
        <time>2026-09-08T03:16:12Z</time>
      </trkpt>
      <trkpt lat="34.830441572925345" lon="113.65408567460811">
        <ele>88.65827486012131</ele>
        <time>2026-09-08T03:16:18Z</time>
      </trkpt>
      <trkpt lat="34.830488776278166" lon="113.65402350595024">
        <ele>88.47911302186549</ele>
        <time>2026-09-08T03:16:21Z</time>
      </trkpt>
      <trkpt lat="34.8305470545179" lon="113.65386506113853">
        <ele>88.88022929243743</ele>
        <time>2026-09-08T03:16:27Z</time>
      </trkpt>
      <trkpt lat="34.83059655135613" lon="113.65379318864419">
        <ele>87.07206110935658</ele>
        <time>2026-09-08T03:16:30Z</time>
      </trkpt>
      <trkpt lat="34.8308314004155" lon="113.65380054500255">
        <ele>88.2584324311465</ele>
        <time>2026-09-08T03:16:39Z</time>
      </trkpt>
      <trkpt lat="34.83096050818218" lon="113.65371534364256">
        <ele>89.4517235076055</ele>
        <time>2026-09-08T03:16:45Z</time>
      </trkpt>
      <trkpt lat="34.83104973913625" lon="113.653696936952">
        <ele>90.74437231384218</ele>
        <time>2026-09-08T03:16:48Z</time>
      </trkpt>
      <trkpt lat="34.83119185175976" lon="113.65359829795544">
        <ele>90.5117471953854</ele>
        <time>2026-09-08T03:16:54Z</time>
      </trkpt>
      <trkpt lat="34.831421842625055" lon="113.65350981435044">
        <ele>89.46155036147684</ele>
        <time>2026-09-08T03:17:03Z</time>
      </trkpt>
      <trkpt lat="34.83163625936483" lon="113.65352735863695">
        <ele>89.69048583228141</ele>
        <time>2026-09-08T03:17:12Z</time>
      </trkpt>
      <trkpt lat="34.831834787419645" lon="113.65352933186686">
        <ele>91.17356816772372</ele>
        <time>2026-09-08T03:17:21Z</time>
      </trkpt>
      <trkpt lat="34.8320556518021" lon="113.65345289609837">
        <ele>89.57868543826044</ele>
        <time>2026-09-08T03:17:30Z</time>
      </trkpt>
      <trkpt lat="34.83210607899598" lon="113.65339121764373">
        <ele>90.07548926584423</ele>
        <time>2026-09-08T03:17:33Z</time>
      </trkpt>
      <trkpt lat="34.832069916837895" lon="113.65321201034965">
        <ele>87.5386986033991</ele>
        <time>2026-09-08T03:17:40Z</time>
      </trkpt>
      <trkpt lat="34.83216369950368" lon="113.65315027856863">
        <ele>87.7701261434704</ele>
        <time>2026-09-08T03:17:44Z</time>
      </trkpt>
      <trkpt lat="34.83243938660029" lon="113.65313113398373">
        <ele>89.75210495386273</ele>
        <time>2026-09-08T03:17:55Z</time>
      </trkpt>
      <trkpt lat="34.83269361248772" lon="113.65299540923695">
        <ele>88.07938051316887</ele>
        <time>2026-09-08T03:18:07Z</time>
      </trkpt>
      <trkpt lat="34.83297332081124" lon="113.6528470959011">
        <ele>89.04358872678131</ele>
        <time>2026-09-08T03:18:19Z</time>
      </trkpt>
      <trkpt lat="34.83326005267311" lon="113.65277002205485">
        <ele>89.5636040540412</ele>
        <time>2026-09-08T03:18:31Z</time>
      </trkpt>
      <trkpt lat="34.833418524093474" lon="113.65276714774895">
        <ele>89.37783326208591</ele>
        <time>2026-09-08T03:18:37Z</time>
      </trkpt>
      <trkpt lat="34.83361558593378" lon="113.65265248135131">
        <ele>90.29995822533965</ele>
        <time>2026-09-08T03:18:46Z</time>
      </trkpt>
      <trkpt lat="34.83391411819682" lon="113.65258449026105">
        <ele>90.24088164884597</ele>
        <time>2026-09-08T03:19:01Z</time>
      </trkpt>
      <trkpt lat="34.8342417111381" lon="113.65249204921051">
        <ele>90.41438887268305</ele>
        <time>2026-09-08T03:19:16Z</time>
      </trkpt>
      <trkpt lat="34.834557122427086" lon="113.65236193535657">
        <ele>89.85421736724675</ele>
        <time>2026-09-08T03:19:31Z</time>
      </trkpt>
      <trkpt lat="34.83493034810406" lon="113.65220495856897">
        <ele>90.80314871948212</ele>
        <time>2026-09-08T03:19:47Z</time>
      </trkpt>
      <trkpt lat="34.83503740518102" lon="113.6521705173452">
        <ele>90.3562310244888</ele>
        <time>2026-09-08T03:19:51Z</time>
      </trkpt>
      <trkpt lat="34.83531507447661" lon="113.652046366202">
        <ele>90.29623649735004</ele>
        <time>2026-09-08T03:20:05Z</time>
      </trkpt>
      <trkpt lat="34.83559490269927" lon="113.6519209983556">
        <ele>90.19184534344822</ele>
        <time>2026-09-08T03:20:17Z</time>
      </trkpt>
      <trkpt lat="34.835697796584014" lon="113.65185405659564">
        <ele>90.83801694400609</ele>
        <time>2026-09-08T03:20:23Z</time>
      </trkpt>
      <trkpt lat="34.835552571670114" lon="113.65154735217283">
        <ele>87.89418151602149</ele>
        <time>2026-09-08T03:20:41Z</time>
      </trkpt>
      <trkpt lat="34.83558377357995" lon="113.65145358608032">
        <ele>88.10372112784535</ele>
        <time>2026-09-08T03:20:44Z</time>
      </trkpt>
      <trkpt lat="34.83554591752006" lon="113.6513483606747">
        <ele>87.55620637442917</ele>
        <time>2026-09-08T03:20:50Z</time>
      </trkpt>
      <trkpt lat="34.83539528625267" lon="113.65135222490099">
        <ele>89.39241524692625</ele>
        <time>2026-09-08T03:20:59Z</time>
      </trkpt>
      <trkpt lat="34.835320121900665" lon="113.6512311525735">
        <ele>87.00946233607829</ele>
        <time>2026-09-08T03:21:05Z</time>
      </trkpt>
      <trkpt lat="34.83503769817042" lon="113.65131755671261">
        <ele>85.22933013923466</ele>
        <time>2026-09-08T03:21:17Z</time>
      </trkpt>
      <trkpt lat="34.834840302782624" lon="113.65138890068614">
        <ele>85.6347998296842</ele>
        <time>2026-09-08T03:21:26Z</time>
      </trkpt>
      <trkpt lat="34.83479454302577" lon="113.65143125441814">
        <ele>85.31141707114875</ele>
        <time>2026-09-08T03:21:29Z</time>
      </trkpt>
      <trkpt lat="34.834507674930265" lon="113.65153403814314">
        <ele>88.47862248774618</ele>
        <time>2026-09-08T03:21:41Z</time>
      </trkpt>
      <trkpt lat="34.83434271212225" lon="113.65157460049596">
        <ele>88.05591244343668</ele>
        <time>2026-09-08T03:21:47Z</time>
      </trkpt>
      <trkpt lat="34.834062506744054" lon="113.65168037025059">
        <ele>88.44330364372581</ele>
        <time>2026-09-08T03:21:58Z</time>
      </trkpt>
      <trkpt lat="34.83377539536666" lon="113.6518089059236">
        <ele>87.98029734008014</ele>
        <time>2026-09-08T03:22:09Z</time>
      </trkpt>
      <trkpt lat="34.833671543971235" lon="113.65184682102196">
        <ele>87.09354799427092</ele>
        <time>2026-09-08T03:22:12Z</time>
      </trkpt>
      <trkpt lat="34.83340544874899" lon="113.65198945844531">
        <ele>87.88668694067746</ele>
        <time>2026-09-08T03:22:27Z</time>
      </trkpt>
      <trkpt lat="34.83326661687917" lon="113.65202415981341">
        <ele>87.36108269263059</ele>
        <time>2026-09-08T03:22:33Z</time>
      </trkpt>
      <trkpt lat="34.83302127039705" lon="113.65213102972709">
        <ele>87.28840910736471</ele>
        <time>2026-09-08T03:22:45Z</time>
      </trkpt>
      <trkpt lat="34.83275194811408" lon="113.65222893430125">
        <ele>86.94353846646845</ele>
        <time>2026-09-08T03:23:00Z</time>
      </trkpt>
      <trkpt lat="34.832596607855464" lon="113.65229438173928">
        <ele>87.34220824483782</ele>
        <time>2026-09-08T03:23:09Z</time>
      </trkpt>
      <trkpt lat="34.83251745553243" lon="113.65234644596235">
        <ele>87.33817424904555</ele>
        <time>2026-09-08T03:23:12Z</time>
      </trkpt>
      <trkpt lat="34.83235651033378" lon="113.652521919263">
        <ele>87.49945648014545</ele>
        <time>2026-09-08T03:23:21Z</time>
      </trkpt>
      <trkpt lat="34.83221999659814" lon="113.65255703042467">
        <ele>87.72512670885772</ele>
        <time>2026-09-08T03:23:27Z</time>
      </trkpt>
      <trkpt lat="34.83198851578382" lon="113.65268850050568">
        <ele>89.06057221535593</ele>
        <time>2026-09-08T03:23:39Z</time>
      </trkpt>
      <trkpt lat="34.83184365643795" lon="113.65273230682303">
        <ele>90.50853989366442</ele>
        <time>2026-09-08T03:23:45Z</time>
      </trkpt>
      <trkpt lat="34.83179682975831" lon="113.65278369791119">
        <ele>89.94356195256114</ele>
        <time>2026-09-08T03:23:48Z</time>
      </trkpt>
      <trkpt lat="34.831687921216165" lon="113.65279411269736">
        <ele>89.57238916121423</ele>
        <time>2026-09-08T03:23:54Z</time>
      </trkpt>
      <trkpt lat="34.83164330230145" lon="113.65281948136783">
        <ele>89.47511611133814</ele>
        <time>2026-09-08T03:23:58Z</time>
      </trkpt>
      <trkpt lat="34.83164330230145" lon="113.65281948136783">
        <ele>89.47511611133814</ele>
        <time>2026-09-08T03:23:59Z</time>
      </trkpt>
    </trkseg>
  </trk>
</gpx>