<?xml version="1.0" encoding="UTF-8"?>
<gpx xmlns="http://www.topografix.com/GPX/1/1" xmlns:gpxtpx="http://www.garmin.com/xmlschemas/TrackPointExtension/v1" xmlns:xsi="http://www.w3.org/2001/XMLSchema-instance" xsi:schemaLocation="http://www.topografix.com/GPX/1/1 http://www.topografix.com/GPX/1/1/gpx.xsd" version="1.1" creator="gpx.py -- https://github.com/tkrajina/gpxpy">
  <trk>
    <name>gpx from keep</name>
    <type>Ride</type>
    <trkseg>
      <trkpt lat="34.838976576391794" lon="113.64910489062345">
        <ele>90.57832147367299</ele>
        <time>2026-08-30T13:26:51Z</time>
      </trkpt>
      <trkpt lat="34.83904240723256" lon="113.64915206245176">
        <ele>96.14009431935847</ele>
        <time>2026-08-30T13:26:56Z</time>
      </trkpt>
      <trkpt lat="34.83909009016283" lon="113.64924268900148">
        <ele>96.38630761951208</ele>
        <time>2026-08-30T13:26:59Z</time>
      </trkpt>
      <trkpt lat="34.83910938451507" lon="113.64933173718582">
        <ele>96.68903513252735</ele>
        <time>2026-08-30T13:27:02Z</time>
      </trkpt>
      <trkpt lat="34.83911192431583" lon="113.64943822726131">
        <ele>90.99837526958436</ele>
        <time>2026-08-30T13:27:05Z</time>
      </trkpt>
      <trkpt lat="34.83913782800962" lon="113.64952558236895">
        <ele>90.99109076615423</ele>
        <time>2026-08-30T13:27:08Z</time>
      </trkpt>
      <trkpt lat="34.83913583296943" lon="113.64962296564433">
        <ele>90.40522455610335</ele>
        <time>2026-08-30T13:27:13Z</time>
      </trkpt>
      <trkpt lat="34.83909307549296" lon="113.64969623003101">
        <ele>90.3703235462308</ele>
        <time>2026-08-30T13:27:18Z</time>
      </trkpt>
      <trkpt lat="34.83876540117555" lon="113.64995850542817">
        <ele>88.12402924522758</ele>
        <time>2026-08-30T13:27:31Z</time>
      </trkpt>
      <trkpt lat="34.8382937059606" lon="113.6501656000501">
        <ele>87.15385764930397</ele>
        <time>2026-08-30T13:27:41Z</time>
      </trkpt>
      <trkpt lat="34.83809343288846" lon="113.6502733824799">
        <ele>87.85839031636715</ele>
        <time>2026-08-30T13:27:45Z</time>
      </trkpt>
      <trkpt lat="34.83802385379309" lon="113.65036839646935">
        <ele>87.64710880815983</ele>
        <time>2026-08-30T13:27:47Z</time>
      </trkpt>
      <trkpt lat="34.83794156975906" lon="113.65043466847318">
        <ele>87.72359096631408</ele>
        <time>2026-08-30T13:27:49Z</time>
      </trkpt>
      <trkpt lat="34.83776759908632" lon="113.65047973149676">
        <ele>88.75944612082094</ele>
        <time>2026-08-30T13:27:53Z</time>
      </trkpt>
      <trkpt lat="34.83760603174074" lon="113.65056288272079">
        <ele>88.63535649422556</ele>
        <time>2026-08-30T13:27:57Z</time>
      </trkpt>
      <trkpt lat="34.837496063403904" lon="113.65057027331076">
        <ele>88.59458883106709</ele>
        <time>2026-08-30T13:28:00Z</time>
      </trkpt>
      <trkpt lat="34.83738256856018" lon="113.65054408019499">
        <ele>88.45492149237543</ele>
        <time>2026-08-30T13:28:02Z</time>
      </trkpt>
      <trkpt lat="34.83725104401146" lon="113.6505385983209">
        <ele>87.85918308328837</ele>
        <time>2026-08-30T13:28:04Z</time>
      </trkpt>
      <trkpt lat="34.8370116998054" lon="113.65059984367137">
        <ele>86.08033039327711</ele>
        <time>2026-08-30T13:28:08Z</time>
      </trkpt>
      <trkpt lat="34.83653449225603" lon="113.65085298577073">
        <ele>85.41625124961138</ele>
        <time>2026-08-30T13:28:18Z</time>
      </trkpt>
      <trkpt lat="34.83610088593389" lon="113.65104696316538">
        <ele>85.18241555523127</ele>
        <time>2026-08-30T13:28:28Z</time>
      </trkpt>
      <trkpt lat="34.83562578776364" lon="113.65125110227434">
        <ele>86.419926433824</ele>
        <time>2026-08-30T13:28:38Z</time>
      </trkpt>
      <trkpt lat="34.83554739989994" lon="113.65126361938057">
        <ele>85.45847214292735</ele>
        <time>2026-08-30T13:28:40Z</time>
      </trkpt>
      <trkpt lat="34.83542082443285" lon="113.65133334120443">
        <ele>85.91998302098364</ele>
        <time>2026-08-30T13:28:44Z</time>
      </trkpt>
      <trkpt lat="34.83534646972282" lon="113.65130464584483">
        <ele>86.5022105248645</ele>
        <time>2026-08-30T13:28:50Z</time>
      </trkpt>
      <trkpt lat="34.83530717745836" lon="113.65121536521211">
        <ele>88.05541399307549</ele>
        <time>2026-08-30T13:28:57Z</time>
      </trkpt>
      <trkpt lat="34.83513912846787" lon="113.65124007792899">
        <ele>86.6130695277825</ele>
        <time>2026-08-30T13:29:03Z</time>
      </trkpt>
      <trkpt lat="34.834747661651825" lon="113.65139164365141">
        <ele>87.56816419493407</ele>
        <time>2026-08-30T13:29:16Z</time>
      </trkpt>
      <trkpt lat="34.834712671041224" lon="113.65147792139709">
        <ele>88.02755780797452</ele>
        <time>2026-08-30T13:29:20Z</time>
      </trkpt>
      <trkpt lat="34.83469696497831" lon="113.65157619135556">
        <ele>87.41443064250052</ele>
        <time>2026-08-30T13:29:25Z</time>
      </trkpt>
      <trkpt lat="34.834278665769695" lon="113.65177358104036">
        <ele>86.15833511482924</ele>
        <time>2026-08-30T13:29:38Z</time>
      </trkpt>
      <trkpt lat="34.83386122137273" lon="113.65194338172446">
        <ele>85.17031811084598</ele>
        <time>2026-08-30T13:29:50Z</time>
      </trkpt>
      <trkpt lat="34.83361712005663" lon="113.6520389973548">
        <ele>84.57519138045609</ele>
        <time>2026-08-30T13:29:56Z</time>
      </trkpt>
      <trkpt lat="34.833562831935396" lon="113.65210518757937">
        <ele>84.48604038078338</ele>
        <time>2026-08-30T13:30:01Z</time>
      </trkpt>
      <trkpt lat="34.8335968608472" lon="113.65244272189514">
        <ele>86.7556266374886</ele>
        <time>2026-08-30T13:30:11Z</time>
      </trkpt>
      <trkpt lat="34.833533892183944" lon="113.65264018713647">
        <ele>86.65553307998925</ele>
        <time>2026-08-30T13:30:19Z</time>
      </trkpt>
      <trkpt lat="34.83344692529104" lon="113.65271889733486">
        <ele>86.37505209352821</ele>
        <time>2026-08-30T13:30:23Z</time>
      </trkpt>
      <trkpt lat="34.83318474969116" lon="113.6528619059692">
        <ele>85.53984755836427</ele>
        <time>2026-08-30T13:30:35Z</time>
      </trkpt>
      <trkpt lat="34.83311874337882" lon="113.65291428209382">
        <ele>86.14189750514925</ele>
        <time>2026-08-30T13:30:39Z</time>
      </trkpt>
      <trkpt lat="34.833082658372675" lon="113.6531177498488">
        <ele>85.62705873697996</ele>
        <time>2026-08-30T13:30:48Z</time>
      </trkpt>
      <trkpt lat="34.83303022822323" lon="113.65319846894556">
        <ele>86.06150920502841</ele>
        <time>2026-08-30T13:30:53Z</time>
      </trkpt>
      <trkpt lat="34.832903250983314" lon="113.65332087488612">
        <ele>87.39124901499599</ele>
        <time>2026-08-30T13:30:59Z</time>
      </trkpt>
      <trkpt lat="34.83277294982061" lon="113.65348015544326">
        <ele>87.86671009287238</ele>
        <time>2026-08-30T13:31:07Z</time>
      </trkpt>
      <trkpt lat="34.832781204284494" lon="113.6536310781418">
        <ele>86.40826344769448</ele>
        <time>2026-08-30T13:31:15Z</time>
      </trkpt>
      <trkpt lat="34.83282343347372" lon="113.6537321970537">
        <ele>88.82313164696097</ele>
        <time>2026-08-30T13:31:19Z</time>
      </trkpt>
      <trkpt lat="34.83284303305957" lon="113.65383197325156">
        <ele>86.98574992828071</ele>
        <time>2026-08-30T13:31:23Z</time>
      </trkpt>
      <trkpt lat="34.832817054679005" lon="113.6542418672018">
        <ele>87.08392639178783</ele>
        <time>2026-08-30T13:31:35Z</time>
      </trkpt>
      <trkpt lat="34.832958541718575" lon="113.65411300739561">
        <ele>88.60799706541002</ele>
        <time>2026-08-30T13:31:48Z</time>
      </trkpt>
      <trkpt lat="34.83303277541714" lon="113.65414995443939">
        <ele>91.26934283878654</ele>
        <time>2026-08-30T13:31:54Z</time>
      </trkpt>
      <trkpt lat="34.83301768982589" lon="113.65423732046132">
        <ele>91.0327476169914</ele>
        <time>2026-08-30T13:31:57Z</time>
      </trkpt>
      <trkpt lat="34.83293616648167" lon="113.65428852766672">
        <ele>90.17923330608755</ele>
        <time>2026-08-30T13:32:00Z</time>
      </trkpt>
      <trkpt lat="34.83290127934991" lon="113.65440062327404">
        <ele>89.60348922014236</ele>
        <time>2026-08-30T13:32:03Z</time>
      </trkpt>
      <trkpt lat="34.83281460405222" lon="113.65445689179222">
        <ele>89.19746330007911</ele>
        <time>2026-08-30T13:32:06Z</time>
      </trkpt>
      <trkpt lat="34.83273485226581" lon="113.6544658583803">
        <ele>88.70430812891573</ele>
        <time>2026-08-30T13:32:09Z</time>
      </trkpt>
      <trkpt lat="34.832581037481745" lon="113.65454331361626">
        <ele>87.75273717753589</ele>
        <time>2026-08-30T13:32:17Z</time>
      </trkpt>
      <trkpt lat="34.83210488677486" lon="113.65467227111529">
        <ele>84.66611137334257</ele>
        <time>2026-08-30T13:32:32Z</time>
      </trkpt>
      <trkpt lat="34.8319158359238" lon="113.65473377945901">
        <ele>85.67106287740171</ele>
        <time>2026-08-30T13:32:39Z</time>
      </trkpt>
      <trkpt lat="34.831523386774116" lon="113.6549976989643">
        <ele>87.11776165477931</ele>
        <time>2026-08-30T13:32:52Z</time>
      </trkpt>
      <trkpt lat="34.8312168635313" lon="113.65505775073416">
        <ele>87.35265162587166</ele>
        <time>2026-08-30T13:33:03Z</time>
      </trkpt>
      <trkpt lat="34.83081268289587" lon="113.65523823856446">
        <ele>87.89653511159122</ele>
        <time>2026-08-30T13:33:19Z</time>
      </trkpt>
      <trkpt lat="34.83065320177083" lon="113.65526061376448">
        <ele>87.15178753249347</ele>
        <time>2026-08-30T13:33:28Z</time>
      </trkpt>
      <trkpt lat="34.830503265020674" lon="113.65535490668981">
        <ele>86.91986844595522</ele>
        <time>2026-08-30T13:33:34Z</time>
      </trkpt>
      <trkpt lat="34.830334252521894" lon="113.65543614833538">
        <ele>85.38125205412507</ele>
        <time>2026-08-30T13:33:39Z</time>
      </trkpt>
      <trkpt lat="34.83028021352797" lon="113.65572621571381">
        <ele>85.41724160965532</ele>
        <time>2026-08-30T13:33:48Z</time>
      </trkpt>
      <trkpt lat="34.83022168318766" lon="113.6558050345118">
        <ele>84.69825155567378</ele>
        <time>2026-08-30T13:33:54Z</time>
      </trkpt>
      <trkpt lat="34.830208497161" lon="113.65589394750205">
        <ele>83.60581284482032</ele>
        <time>2026-08-30T13:34:05Z</time>
      </trkpt>
      <trkpt lat="34.83006021363013" lon="113.65596809423022">
        <ele>86.52155567891896</ele>
        <time>2026-08-30T13:34:47Z</time>
      </trkpt>
      <trkpt lat="34.829814472981404" lon="113.65604394750221">
        <ele>86.24866509158164</ele>
        <time>2026-08-30T13:35:02Z</time>
      </trkpt>
      <trkpt lat="34.829766663796164" lon="113.65641661218712">
        <ele>87.30502694286406</ele>
        <time>2026-08-30T13:35:15Z</time>
      </trkpt>
      <trkpt lat="34.8296828540649" lon="113.65665710889473">
        <ele>87.486518134363</ele>
        <time>2026-08-30T13:35:21Z</time>
      </trkpt>
      <trkpt lat="34.829712450025305" lon="113.65680532517995">
        <ele>88.73528172448277</ele>
        <time>2026-08-30T13:35:25Z</time>
      </trkpt>
      <trkpt lat="34.82970650759866" lon="113.6572252372576">
        <ele>89.74985899869353</ele>
        <time>2026-08-30T13:35:38Z</time>
      </trkpt>
      <trkpt lat="34.82964140614146" lon="113.6574346032374">
        <ele>88.77440023422241</ele>
        <time>2026-08-30T13:35:44Z</time>
      </trkpt>
      <trkpt lat="34.829657749967005" lon="113.65754679765688">
        <ele>89.18194197583944</ele>
        <time>2026-08-30T13:35:47Z</time>
      </trkpt>
      <trkpt lat="34.82963424032419" lon="113.6577850229011">
        <ele>85.93929177895188</ele>
        <time>2026-08-30T13:35:55Z</time>
      </trkpt>
      <trkpt lat="34.829664055570724" lon="113.65786522072841">
        <ele>86.37178389634937</ele>
        <time>2026-08-30T13:35:59Z</time>
      </trkpt>
      <trkpt lat="34.82974841755209" lon="113.65790990054262">
        <ele>89.0393773810938</ele>
        <time>2026-08-30T13:36:13Z</time>
      </trkpt>
    </trkseg>
  </trk>
</gpx>