<?xml version="1.0" encoding="UTF-8"?>
<gpx xmlns="http://www.topografix.com/GPX/1/1" xmlns:gpxtpx="http://www.garmin.com/xmlschemas/TrackPointExtension/v1" xmlns:xsi="http://www.w3.org/2001/XMLSchema-instance" xsi:schemaLocation="http://www.topografix.com/GPX/1/1 http://www.topografix.com/GPX/1/1/gpx.xsd" version="1.1" creator="gpx.py -- https://github.com/tkrajina/gpxpy">
  <trk>
    <name>gpx from keep</name>
    <type>Run</type>
    <trkseg>
      <trkpt lat="34.830375029969524" lon="113.65998343141254">
        <ele>104.419677734375</ele>
        <time>2026-09-28T23:54:01Z</time>
      </trkpt>
      <trkpt lat="34.83044526276634" lon="113.66000758863393">
        <ele>100.34416310489178</ele>
        <time>2026-09-28T23:54:09Z</time>
      </trkpt>
      <trkpt lat="34.83055251727035" lon="113.6599629019951">
        <ele>101.33099889941514</ele>
        <time>2026-09-28T23:54:13Z</time>
      </trkpt>
      <trkpt lat="34.830844565633306" lon="113.65996804484054">
        <ele>104.12480495963246</ele>
        <time>2026-09-28T23:54:26Z</time>
      </trkpt>
      <trkpt lat="34.83089748371484" lon="113.65999962499319">
        <ele>104.49233577307314</ele>
        <time>2026-09-28T23:54:29Z</time>
      </trkpt>
      <trkpt lat="34.83118289623433" lon="113.66002127054705">
        <ele>95.75379074644297</ele>
        <time>2026-09-28T23:54:41Z</time>
      </trkpt>
      <trkpt lat="34.831491680643694" lon="113.6599988574771">
        <ele>98.23446616902947</ele>
        <time>2026-09-28T23:54:56Z</time>
      </trkpt>
      <trkpt lat="34.831762849735654" lon="113.65997269022657">
        <ele>99.1243450595066</ele>
        <time>2026-09-28T23:55:08Z</time>
      </trkpt>
      <trkpt lat="34.831895319073006" lon="113.65989225475136">
        <ele>98.25276325363666</ele>
        <time>2026-09-28T23:55:14Z</time>
      </trkpt>
      <trkpt lat="34.83196355364671" lon="113.65991888042912">
        <ele>97.49827178008854</ele>
        <time>2026-09-28T23:55:17Z</time>
      </trkpt>
      <trkpt lat="34.83202670288102" lon="113.65989179698305">
        <ele>96.12364041432738</ele>
        <time>2026-09-28T23:55:20Z</time>
      </trkpt>
      <trkpt lat="34.83208454189424" lon="113.65982744498885">
        <ele>94.46796430554241</ele>
        <time>2026-09-28T23:55:23Z</time>
      </trkpt>
      <trkpt lat="34.8320985129361" lon="113.65958141826347">
        <ele>92.40411490388215</ele>
        <time>2026-09-28T23:55:32Z</time>
      </trkpt>
      <trkpt lat="34.83214250726199" lon="113.65951123532741">
        <ele>92.79307471495122</ele>
        <time>2026-09-28T23:55:35Z</time>
      </trkpt>
      <trkpt lat="34.83214332405856" lon="113.65929487116625">
        <ele>91.62265745550394</ele>
        <time>2026-09-28T23:55:44Z</time>
      </trkpt>
      <trkpt lat="34.83216103879002" lon="113.65913189257586">
        <ele>91.54222416318953</ele>
        <time>2026-09-28T23:55:50Z</time>
      </trkpt>
      <trkpt lat="34.832125921890295" lon="113.65890784972066">
        <ele>91.16440204530954</ele>
        <time>2026-09-28T23:55:59Z</time>
      </trkpt>
      <trkpt lat="34.832166133066494" lon="113.65882282952005">
        <ele>89.44694908987731</ele>
        <time>2026-09-28T23:56:02Z</time>
      </trkpt>
      <trkpt lat="34.83218071920441" lon="113.65863760018075">
        <ele>90.05060526914895</ele>
        <time>2026-09-28T23:56:09Z</time>
      </trkpt>
      <trkpt lat="34.83215872957056" lon="113.6583474094533">
        <ele>89.6218983149156</ele>
        <time>2026-09-28T23:56:21Z</time>
      </trkpt>
      <trkpt lat="34.83218713119166" lon="113.65820247579823">
        <ele>88.43974558543414</ele>
        <time>2026-09-28T23:56:27Z</time>
      </trkpt>
      <trkpt lat="34.83218720978193" lon="113.65783666514731">
        <ele>88.97100376803428</ele>
        <time>2026-09-28T23:56:39Z</time>
      </trkpt>
      <trkpt lat="34.832185050171404" lon="113.6577689590538">
        <ele>88.18795915320516</ele>
        <time>2026-09-28T23:56:42Z</time>
      </trkpt>
      <trkpt lat="34.83220823657373" lon="113.65769005306412">
        <ele>89.20878176018596</ele>
        <time>2026-09-28T23:56:45Z</time>
      </trkpt>
      <trkpt lat="34.832206659757" lon="113.65760517440418">
        <ele>89.86486843787134</ele>
        <time>2026-09-28T23:56:48Z</time>
      </trkpt>
      <trkpt lat="34.83222914215241" lon="113.657524513366">
        <ele>89.54292604420334</ele>
        <time>2026-09-28T23:56:51Z</time>
      </trkpt>
      <trkpt lat="34.832205200466646" lon="113.65757626605743">
        <ele>86.91180618386716</ele>
        <time>2026-09-28T23:56:54Z</time>
      </trkpt>
      <trkpt lat="34.83218937158636" lon="113.65750022932423">
        <ele>87.72716194484383</ele>
        <time>2026-09-28T23:56:57Z</time>
      </trkpt>
      <trkpt lat="34.83224775093316" lon="113.65734586977962">
        <ele>87.68746970966458</ele>
        <time>2026-09-28T23:57:03Z</time>
      </trkpt>
      <trkpt lat="34.83227240924356" lon="113.65713366428339">
        <ele>88.10861656162888</ele>
        <time>2026-09-28T23:57:12Z</time>
      </trkpt>
      <trkpt lat="34.832256182811335" lon="113.6570503170944">
        <ele>88.4352333592251</ele>
        <time>2026-09-28T23:57:15Z</time>
      </trkpt>
      <trkpt lat="34.832182944598" lon="113.65699724973442">
        <ele>88.49357790872455</ele>
        <time>2026-09-28T23:57:21Z</time>
      </trkpt>
      <trkpt lat="34.83200798905957" lon="113.65703547899663">
        <ele>89.15389416366816</ele>
        <time>2026-09-28T23:57:30Z</time>
      </trkpt>
      <trkpt lat="34.831762933906695" lon="113.6570282131162">
        <ele>88.68762853834778</ele>
        <time>2026-09-28T23:57:42Z</time>
      </trkpt>
      <trkpt lat="34.83171109591944" lon="113.65704526995249">
        <ele>88.58556236233562</ele>
        <time>2026-09-28T23:57:45Z</time>
      </trkpt>
      <trkpt lat="34.83150864238937" lon="113.65701567508044">
        <ele>87.72550080996007</ele>
        <time>2026-09-28T23:57:54Z</time>
      </trkpt>
      <trkpt lat="34.831260214995986" lon="113.65707415477772">
        <ele>87.84998453781009</ele>
        <time>2026-09-28T23:58:06Z</time>
      </trkpt>
      <trkpt lat="34.83114151747493" lon="113.657044672852">
        <ele>87.94592077191919</ele>
        <time>2026-09-28T23:58:12Z</time>
      </trkpt>
      <trkpt lat="34.83101575157456" lon="113.65704831938223">
        <ele>87.82542078848928</ele>
        <time>2026-09-28T23:58:19Z</time>
      </trkpt>
      <trkpt lat="34.83084771532152" lon="113.65701391277311">
        <ele>87.23728476837277</ele>
        <time>2026-09-28T23:58:27Z</time>
      </trkpt>
      <trkpt lat="34.83054905072104" lon="113.65704615406992">
        <ele>86.7132055060938</ele>
        <time>2026-09-28T23:58:42Z</time>
      </trkpt>
      <trkpt lat="34.8303746621157" lon="113.65702651088762">
        <ele>86.72776724491268</ele>
        <time>2026-09-28T23:58:51Z</time>
      </trkpt>
      <trkpt lat="34.830251705951326" lon="113.65702492823691">
        <ele>86.8073474066332</ele>
        <time>2026-09-28T23:58:57Z</time>
      </trkpt>
      <trkpt lat="34.83022586999741" lon="113.65693874140052">
        <ele>85.9233433175832</ele>
        <time>2026-09-28T23:59:03Z</time>
      </trkpt>
      <trkpt lat="34.83023598667792" lon="113.65677649127076">
        <ele>87.01908752322197</ele>
        <time>2026-09-28T23:59:09Z</time>
      </trkpt>
      <trkpt lat="34.83028111750614" lon="113.65672233577241">
        <ele>87.44001022726297</ele>
        <time>2026-09-28T23:59:12Z</time>
      </trkpt>
      <trkpt lat="34.83032190400573" lon="113.65676290141857">
        <ele>88.48990848939866</ele>
        <time>2026-09-28T23:59:15Z</time>
      </trkpt>
      <trkpt lat="34.83049158014574" lon="113.65666502482077">
        <ele>89.7618304528296</ele>
        <time>2026-09-28T23:59:24Z</time>
      </trkpt>
      <trkpt lat="34.83052546095217" lon="113.65662004690762">
        <ele>89.53762705344707</ele>
        <time>2026-09-28T23:59:27Z</time>
      </trkpt>
      <trkpt lat="34.83059853814591" lon="113.65645110431227">
        <ele>90.64481855556369</ele>
        <time>2026-09-28T23:59:36Z</time>
      </trkpt>
      <trkpt lat="34.83063962343657" lon="113.65639182550153">
        <ele>89.61317400913686</ele>
        <time>2026-09-28T23:59:39Z</time>
      </trkpt>
      <trkpt lat="34.83074944997989" lon="113.6563283226343">
        <ele>89.87118484079838</ele>
        <time>2026-09-28T23:59:45Z</time>
      </trkpt>
      <trkpt lat="34.830759405026534" lon="113.65627160788374">
        <ele>90.17590278666466</ele>
        <time>2026-09-28T23:59:48Z</time>
      </trkpt>
      <trkpt lat="34.83080193886454" lon="113.65621593393155">
        <ele>90.24490827601403</ele>
        <time>2026-09-28T23:59:51Z</time>
      </trkpt>
      <trkpt lat="34.8309052958811" lon="113.65614393472994">
        <ele>89.26204666960984</ele>
        <time>2026-09-28T23:59:57Z</time>
      </trkpt>
      <trkpt lat="34.83103826963002" lon="113.656138919002">
        <ele>89.92493359837681</ele>
        <time>2026-09-29T00:00:03Z</time>
      </trkpt>
      <trkpt lat="34.83130174845928" lon="113.6562109739665">
        <ele>90.86944442335516</ele>
        <time>2026-09-29T00:00:18Z</time>
      </trkpt>
      <trkpt lat="34.831381945755005" lon="113.656252158181">
        <ele>90.46071328502148</ele>
        <time>2026-09-29T00:00:22Z</time>
      </trkpt>
      <trkpt lat="34.83147048429826" lon="113.656241172688">
        <ele>89.91940132528543</ele>
        <time>2026-09-29T00:00:26Z</time>
      </trkpt>
      <trkpt lat="34.831533236336625" lon="113.65619801311547">
        <ele>92.13471208326519</ele>
        <time>2026-09-29T00:00:30Z</time>
      </trkpt>
      <trkpt lat="34.83161454607967" lon="113.65617713851441">
        <ele>91.3852691045031</ele>
        <time>2026-09-29T00:00:34Z</time>
      </trkpt>
      <trkpt lat="34.83187662066089" lon="113.6559628205928">
        <ele>91.65522998478264</ele>
        <time>2026-09-29T00:00:50Z</time>
      </trkpt>
      <trkpt lat="34.83197437458578" lon="113.65594432317637">
        <ele>91.24644413217902</ele>
        <time>2026-09-29T00:00:56Z</time>
      </trkpt>
      <trkpt lat="34.83203342556659" lon="113.65597825680892">
        <ele>91.33708830364048</ele>
        <time>2026-09-29T00:00:59Z</time>
      </trkpt>
      <trkpt lat="34.83210337619757" lon="113.65607354661367">
        <ele>91.61494481191039</ele>
        <time>2026-09-29T00:01:05Z</time>
      </trkpt>
      <trkpt lat="34.832274212841305" lon="113.65613038785229">
        <ele>91.50531212426722</ele>
        <time>2026-09-29T00:01:14Z</time>
      </trkpt>
      <trkpt lat="34.83234828828025" lon="113.65613147052426">
        <ele>91.16616883780807</ele>
        <time>2026-09-29T00:01:17Z</time>
      </trkpt>
      <trkpt lat="34.832506205420835" lon="113.65606835744421">
        <ele>90.74006607476622</ele>
        <time>2026-09-29T00:01:26Z</time>
      </trkpt>
      <trkpt lat="34.832665052373066" lon="113.65586585530457">
        <ele>91.28282614704221</ele>
        <time>2026-09-29T00:01:38Z</time>
      </trkpt>
      <trkpt lat="34.83271157684578" lon="113.65583896829942">
        <ele>91.20640108734369</ele>
        <time>2026-09-29T00:01:41Z</time>
      </trkpt>
      <trkpt lat="34.832788517194395" lon="113.65584353150173">
        <ele>91.55637589469552</ele>
        <time>2026-09-29T00:01:44Z</time>
      </trkpt>
      <trkpt lat="34.832826349483916" lon="113.65588181355014">
        <ele>91.45550925191492</ele>
        <time>2026-09-29T00:01:47Z</time>
      </trkpt>
      <trkpt lat="34.83288245113076" lon="113.65601899390956">
        <ele>92.81438606511801</ele>
        <time>2026-09-29T00:01:53Z</time>
      </trkpt>
      <trkpt lat="34.83305529065149" lon="113.65620779733347">
        <ele>92.27545911259949</ele>
        <time>2026-09-29T00:02:05Z</time>
      </trkpt>
      <trkpt lat="34.83316393516855" lon="113.6562799993961">
        <ele>91.5879007326439</ele>
        <time>2026-09-29T00:02:11Z</time>
      </trkpt>
      <trkpt lat="34.83322152533849" lon="113.65628596823268">
        <ele>91.82004001550376</ele>
        <time>2026-09-29T00:02:14Z</time>
      </trkpt>
      <trkpt lat="34.83328807485096" lon="113.65633076042695">
        <ele>90.88955640606582</ele>
        <time>2026-09-29T00:02:17Z</time>
      </trkpt>
      <trkpt lat="34.83356146645292" lon="113.65633969101667">
        <ele>89.39835501089692</ele>
        <time>2026-09-29T00:02:30Z</time>
      </trkpt>
      <trkpt lat="34.83372849301498" lon="113.65627870936113">
        <ele>89.24105952121317</ele>
        <time>2026-09-29T00:02:38Z</time>
      </trkpt>
      <trkpt lat="34.83400128392015" lon="113.65610723715778">
        <ele>90.3101239670068</ele>
        <time>2026-09-29T00:02:51Z</time>
      </trkpt>
      <trkpt lat="34.83411774595475" lon="113.65600529795732">
        <ele>90.13405067753047</ele>
        <time>2026-09-29T00:02:57Z</time>
      </trkpt>
      <trkpt lat="34.83427505780156" lon="113.65567751638942">
        <ele>89.26993233337998</ele>
        <time>2026-09-29T00:03:12Z</time>
      </trkpt>
      <trkpt lat="34.83429496191327" lon="113.65559402955563">
        <ele>88.94418398663402</ele>
        <time>2026-09-29T00:03:15Z</time>
      </trkpt>
      <trkpt lat="34.83423166211426" lon="113.65525650054738">
        <ele>88.89606012962759</ele>
        <time>2026-09-29T00:03:30Z</time>
      </trkpt>
      <trkpt lat="34.83417658642459" lon="113.65513039092565">
        <ele>88.26017895154655</ele>
        <time>2026-09-29T00:03:36Z</time>
      </trkpt>
      <trkpt lat="34.83413870645712" lon="113.65508118683734">
        <ele>89.47819284908473</ele>
        <time>2026-09-29T00:03:39Z</time>
      </trkpt>
      <trkpt lat="34.834047461234455" lon="113.65505571124663">
        <ele>89.18331039510667</ele>
        <time>2026-09-29T00:03:45Z</time>
      </trkpt>
      <trkpt lat="34.83389278731184" lon="113.65487365241154">
        <ele>88.00643728207797</ele>
        <time>2026-09-29T00:03:57Z</time>
      </trkpt>
      <trkpt lat="34.83360694335323" lon="113.65481268997947">
        <ele>91.50690478086472</ele>
        <time>2026-09-29T00:04:12Z</time>
      </trkpt>
      <trkpt lat="34.83355593569693" lon="113.65481011206592">
        <ele>91.19090029969811</ele>
        <time>2026-09-29T00:04:15Z</time>
      </trkpt>
      <trkpt lat="34.833443449619" lon="113.6548527377409">
        <ele>90.06435946282</ele>
        <time>2026-09-29T00:04:21Z</time>
      </trkpt>
      <trkpt lat="34.83331240995012" lon="113.65496262330676">
        <ele>90.5891577238217</ele>
        <time>2026-09-29T00:04:30Z</time>
      </trkpt>
      <trkpt lat="34.833278268176635" lon="113.65505689988109">
        <ele>91.49296052381396</ele>
        <time>2026-09-29T00:04:34Z</time>
      </trkpt>
      <trkpt lat="34.83312054668328" lon="113.65524666366929">
        <ele>91.90661215316504</ele>
        <time>2026-09-29T00:04:46Z</time>
      </trkpt>
      <trkpt lat="34.83298033747788" lon="113.65529554493742">
        <ele>90.46090806741267</ele>
        <time>2026-09-29T00:04:54Z</time>
      </trkpt>
      <trkpt lat="34.83284144108972" lon="113.6552810161151">
        <ele>90.47398223541677</ele>
        <time>2026-09-29T00:05:00Z</time>
      </trkpt>
      <trkpt lat="34.83272052051106" lon="113.65522282539692">
        <ele>90.14145570620894</ele>
        <time>2026-09-29T00:05:06Z</time>
      </trkpt>
      <trkpt lat="34.83261048256358" lon="113.65513084722154">
        <ele>90.56418538559228</ele>
        <time>2026-09-29T00:05:12Z</time>
      </trkpt>
      <trkpt lat="34.8324946837723" lon="113.65508941631421">
        <ele>90.1689592981711</ele>
        <time>2026-09-29T00:05:18Z</time>
      </trkpt>
      <trkpt lat="34.832366460337695" lon="113.6551391800422">
        <ele>90.01505318842828</ele>
        <time>2026-09-29T00:05:24Z</time>
      </trkpt>
      <trkpt lat="34.83227308572583" lon="113.65521574252678">
        <ele>91.23983273655176</ele>
        <time>2026-09-29T00:05:30Z</time>
      </trkpt>
      <trkpt lat="34.832245538098555" lon="113.6552802827483">
        <ele>91.12182538490742</ele>
        <time>2026-09-29T00:05:33Z</time>
      </trkpt>
      <trkpt lat="34.832238356291676" lon="113.65542985346681">
        <ele>91.55136794876307</ele>
        <time>2026-09-29T00:05:39Z</time>
      </trkpt>
      <trkpt lat="34.83220420275819" lon="113.65558259323998">
        <ele>91.79953282233328</ele>
        <time>2026-09-29T00:05:45Z</time>
      </trkpt>
      <trkpt lat="34.83216594044365" lon="113.65563675537868">
        <ele>90.64901352394372</ele>
        <time>2026-09-29T00:05:48Z</time>
      </trkpt>
      <trkpt lat="34.83209902816736" lon="113.65566623429838">
        <ele>90.68791236449033</ele>
        <time>2026-09-29T00:05:51Z</time>
      </trkpt>
      <trkpt lat="34.832025631403994" lon="113.65567466160529">
        <ele>90.58337918296456</ele>
        <time>2026-09-29T00:05:54Z</time>
      </trkpt>
      <trkpt lat="34.831975754018934" lon="113.65572272544753">
        <ele>90.746322250925</ele>
        <time>2026-09-29T00:05:57Z</time>
      </trkpt>
      <trkpt lat="34.831937701928645" lon="113.65579986886934">
        <ele>91.59704556223005</ele>
        <time>2026-09-29T00:06:00Z</time>
      </trkpt>
      <trkpt lat="34.8319553221388" lon="113.65593622725483">
        <ele>92.66986729297787</ele>
        <time>2026-09-29T00:06:06Z</time>
      </trkpt>
      <trkpt lat="34.83190430165301" lon="113.6559712802539">
        <ele>91.29369981586933</ele>
        <time>2026-09-29T00:06:09Z</time>
      </trkpt>
      <trkpt lat="34.83184172278769" lon="113.65596563694422">
        <ele>90.49961449671537</ele>
        <time>2026-09-29T00:06:12Z</time>
      </trkpt>
      <trkpt lat="34.83182612574039" lon="113.65582612639857">
        <ele>89.61903580836952</ele>
        <time>2026-09-29T00:06:18Z</time>
      </trkpt>
      <trkpt lat="34.83185255597267" lon="113.65574209720947">
        <ele>90.17903791088611</ele>
        <time>2026-09-29T00:06:21Z</time>
      </trkpt>
      <trkpt lat="34.83187604442122" lon="113.65554726110807">
        <ele>90.9000587221235</ele>
        <time>2026-09-29T00:06:30Z</time>
      </trkpt>
      <trkpt lat="34.83191351931631" lon="113.65541054794832">
        <ele>91.11748341005296</ele>
        <time>2026-09-29T00:06:36Z</time>
      </trkpt>
      <trkpt lat="34.83189196178238" lon="113.65532575549007">
        <ele>90.9940456468612</ele>
        <time>2026-09-29T00:06:40Z</time>
      </trkpt>
      <trkpt lat="34.831914240241645" lon="113.65523590935966">
        <ele>90.49947675596923</ele>
        <time>2026-09-29T00:06:44Z</time>
      </trkpt>
      <trkpt lat="34.83187703862798" lon="113.65516756642181">
        <ele>88.66246249061078</ele>
        <time>2026-09-29T00:06:48Z</time>
      </trkpt>
      <trkpt lat="34.831798030717415" lon="113.6551623216503">
        <ele>88.29853103775531</ele>
        <time>2026-09-29T00:06:52Z</time>
      </trkpt>
      <trkpt lat="34.831533835257495" lon="113.65529836066594">
        <ele>85.4939491879195</ele>
        <time>2026-09-29T00:07:07Z</time>
      </trkpt>
      <trkpt lat="34.83126969930671" lon="113.6553991550452">
        <ele>86.33211194723845</ele>
        <time>2026-09-29T00:07:22Z</time>
      </trkpt>
      <trkpt lat="34.83100830771738" lon="113.65552192161293">
        <ele>86.05625961441547</ele>
        <time>2026-09-29T00:07:37Z</time>
      </trkpt>
      <trkpt lat="34.83073829996485" lon="113.65565410046415">
        <ele>87.63337769638747</ele>
        <time>2026-09-29T00:07:52Z</time>
      </trkpt>
      <trkpt lat="34.83062863864251" lon="113.65567427346312">
        <ele>86.7527159769088</ele>
        <time>2026-09-29T00:07:58Z</time>
      </trkpt>
      <trkpt lat="34.83037324429913" lon="113.65580449294137">
        <ele>87.0808006292209</ele>
        <time>2026-09-29T00:08:13Z</time>
      </trkpt>
      <trkpt lat="34.83027663515726" lon="113.65588223068706">
        <ele>87.2365208324045</ele>
        <time>2026-09-29T00:08:19Z</time>
      </trkpt>
      <trkpt lat="34.83024940531007" lon="113.65593743519086">
        <ele>89.14759580139071</ele>
        <time>2026-09-29T00:08:22Z</time>
      </trkpt>
      <trkpt lat="34.830253689026996" lon="113.65620555175126">
        <ele>89.95193068962544</ele>
        <time>2026-09-29T00:08:34Z</time>
      </trkpt>
      <trkpt lat="34.83023376426518" lon="113.6562824577286">
        <ele>89.31893418263644</ele>
        <time>2026-09-29T00:08:37Z</time>
      </trkpt>
      <trkpt lat="34.830232150748856" lon="113.65652073772252">
        <ele>89.70290243532509</ele>
        <time>2026-09-29T00:08:47Z</time>
      </trkpt>
      <trkpt lat="34.83020263808246" lon="113.65672367407495">
        <ele>89.77242627181113</ele>
        <time>2026-09-29T00:08:55Z</time>
      </trkpt>
      <trkpt lat="34.83022350668253" lon="113.65679013497581">
        <ele>91.14997883420438</ele>
        <time>2026-09-29T00:08:59Z</time>
      </trkpt>
      <trkpt lat="34.83022884185086" lon="113.65707165752178">
        <ele>90.0442584073171</ele>
        <time>2026-09-29T00:09:11Z</time>
      </trkpt>
      <trkpt lat="34.83020746658932" lon="113.657262379653">
        <ele>91.00377796776593</ele>
        <time>2026-09-29T00:09:20Z</time>
      </trkpt>
      <trkpt lat="34.830213478732446" lon="113.65739532050661">
        <ele>90.38700368907303</ele>
        <time>2026-09-29T00:09:26Z</time>
      </trkpt>
      <trkpt lat="34.83018553773039" lon="113.65746231703818">
        <ele>90.52432595193386</ele>
        <time>2026-09-29T00:09:29Z</time>
      </trkpt>
      <trkpt lat="34.83020380994144" lon="113.65762479968">
        <ele>90.59836770407856</ele>
        <time>2026-09-29T00:09:35Z</time>
      </trkpt>
      <trkpt lat="34.830176404953896" lon="113.65796047651892">
        <ele>92.64547219779342</ele>
        <time>2026-09-29T00:09:50Z</time>
      </trkpt>
      <trkpt lat="34.83017026552472" lon="113.65810519029415">
        <ele>92.76153244730085</ele>
        <time>2026-09-29T00:09:56Z</time>
      </trkpt>
      <trkpt lat="34.83004097708417" lon="113.65841032763701">
        <ele>91.16856748983264</ele>
        <time>2026-09-29T00:10:08Z</time>
      </trkpt>
      <trkpt lat="34.82999770705224" lon="113.65847693880677">
        <ele>91.42784559074789</ele>
        <time>2026-09-29T00:10:11Z</time>
      </trkpt>
      <trkpt lat="34.829941315944446" lon="113.65849338804044">
        <ele>90.5013556778431</ele>
        <time>2026-09-29T00:10:14Z</time>
      </trkpt>
      <trkpt lat="34.8298561340048" lon="113.65845665578297">
        <ele>89.6454014191404</ele>
        <time>2026-09-29T00:10:20Z</time>
      </trkpt>
      <trkpt lat="34.82981354414731" lon="113.65848782693199">
        <ele>88.70793237257749</ele>
        <time>2026-09-29T00:10:23Z</time>
      </trkpt>
      <trkpt lat="34.82972245045389" lon="113.65847933299824">
        <ele>90.52211490552872</ele>
        <time>2026-09-29T00:10:29Z</time>
      </trkpt>
      <trkpt lat="34.82968648875986" lon="113.65839795123243">
        <ele>91.3486203989014</ele>
        <time>2026-09-29T00:10:35Z</time>
      </trkpt>
      <trkpt lat="34.82968614960754" lon="113.6582868930806">
        <ele>91.60157935880125</ele>
        <time>2026-09-29T00:10:41Z</time>
      </trkpt>
    </trkseg>
  </trk>
</gpx>