<?xml version="1.0" encoding="UTF-8"?>
<gpx xmlns="http://www.topografix.com/GPX/1/1" xmlns:gpxtpx="http://www.garmin.com/xmlschemas/TrackPointExtension/v1" xmlns:xsi="http://www.w3.org/2001/XMLSchema-instance" xsi:schemaLocation="http://www.topografix.com/GPX/1/1 http://www.topografix.com/GPX/1/1/gpx.xsd" version="1.1" creator="gpx.py -- https://github.com/tkrajina/gpxpy">
  <trk>
    <name>gpx from keep</name>
    <type>Walk</type>
    <trkseg>
      <trkpt lat="34.83888644128975" lon="113.64886446944506">
        <ele>88.30386005342007</ele>
        <time>2026-08-18T13:28:56Z</time>
      </trkpt>
      <trkpt lat="34.83888557521713" lon="113.64904809974095">
        <ele>89.77222170121968</ele>
        <time>2026-08-18T13:29:08Z</time>
      </trkpt>
      <trkpt lat="34.8389754387554" lon="113.6491058535592">
        <ele>88.10455372463912</ele>
        <time>2026-08-18T13:29:14Z</time>
      </trkpt>
      <trkpt lat="34.83902121686512" lon="113.64909524088483">
        <ele>87.66633748356253</ele>
        <time>2026-08-18T13:29:17Z</time>
      </trkpt>
      <trkpt lat="34.839061270013474" lon="113.64913832249685">
        <ele>88.40509376022965</ele>
        <time>2026-08-18T13:29:29Z</time>
      </trkpt>
      <trkpt lat="34.839090059609916" lon="113.64931138342533">
        <ele>86.98463833145797</ele>
        <time>2026-08-18T13:29:38Z</time>
      </trkpt>
      <trkpt lat="34.839161843954045" lon="113.64957733787627">
        <ele>87.1611534608528</ele>
        <time>2026-08-18T13:29:53Z</time>
      </trkpt>
      <trkpt lat="34.839016883035555" lon="113.64977269751171">
        <ele>86.47073565423489</ele>
        <time>2026-08-18T13:30:08Z</time>
      </trkpt>
      <trkpt lat="34.838712852726594" lon="113.64996512499724">
        <ele>86.87510309927166</ele>
        <time>2026-08-18T13:30:32Z</time>
      </trkpt>
      <trkpt lat="34.83842373344768" lon="113.65007827200947">
        <ele>89.01173189561814</ele>
        <time>2026-08-18T13:30:54Z</time>
      </trkpt>
      <trkpt lat="34.83814664881868" lon="113.65017595013165">
        <ele>87.33544518239796</ele>
        <time>2026-08-18T13:31:14Z</time>
      </trkpt>
      <trkpt lat="34.837970157336244" lon="113.65037195499353">
        <ele>87.79494129866362</ele>
        <time>2026-08-18T13:31:30Z</time>
      </trkpt>
      <trkpt lat="34.83769010409757" lon="113.65050550184633">
        <ele>87.10433525964618</ele>
        <time>2026-08-18T13:31:51Z</time>
      </trkpt>
      <trkpt lat="34.837558395118066" lon="113.65054909874274">
        <ele>89.05776086822152</ele>
        <time>2026-08-18T13:32:00Z</time>
      </trkpt>
      <trkpt lat="34.83729222296053" lon="113.6505215452228">
        <ele>87.11060157138854</ele>
        <time>2026-08-18T13:32:18Z</time>
      </trkpt>
      <trkpt lat="34.836976768085734" lon="113.65059170969715">
        <ele>87.81541855446994</ele>
        <time>2026-08-18T13:32:39Z</time>
      </trkpt>
      <trkpt lat="34.83673365785088" lon="113.650740101866">
        <ele>89.62119529675692</ele>
        <time>2026-08-18T13:32:57Z</time>
      </trkpt>
      <trkpt lat="34.83655892092976" lon="113.65083295646295">
        <ele>89.86599335912615</ele>
        <time>2026-08-18T13:33:09Z</time>
      </trkpt>
      <trkpt lat="34.836447589315554" lon="113.65091686818575">
        <ele>89.39210608042777</ele>
        <time>2026-08-18T13:33:17Z</time>
      </trkpt>
      <trkpt lat="34.83613586062751" lon="113.65104740490949">
        <ele>88.40393216069788</ele>
        <time>2026-08-18T13:33:38Z</time>
      </trkpt>
      <trkpt lat="34.836044409729965" lon="113.6510707240609">
        <ele>87.50890812184662</ele>
        <time>2026-08-18T13:33:44Z</time>
      </trkpt>
      <trkpt lat="34.83592448912731" lon="113.65113396139552">
        <ele>89.31412403099239</ele>
        <time>2026-08-18T13:33:53Z</time>
      </trkpt>
      <trkpt lat="34.83565151116135" lon="113.65121924279735">
        <ele>86.36941383779049</ele>
        <time>2026-08-18T13:34:11Z</time>
      </trkpt>
      <trkpt lat="34.83555803118157" lon="113.65124299576917">
        <ele>87.06406470295042</ele>
        <time>2026-08-18T13:34:17Z</time>
      </trkpt>
      <trkpt lat="34.835391331544926" lon="113.6513302548814">
        <ele>87.54311078973114</ele>
        <time>2026-08-18T13:34:29Z</time>
      </trkpt>
      <trkpt lat="34.835344328421684" lon="113.65130946160079">
        <ele>87.33902821969241</ele>
        <time>2026-08-18T13:34:32Z</time>
      </trkpt>
      <trkpt lat="34.83532297809206" lon="113.6512506425912">
        <ele>87.54166374728084</ele>
        <time>2026-08-18T13:34:35Z</time>
      </trkpt>
      <trkpt lat="34.83524345886937" lon="113.65119896267798">
        <ele>86.46106488630176</ele>
        <time>2026-08-18T13:34:44Z</time>
      </trkpt>
      <trkpt lat="34.834953055007894" lon="113.65129954182454">
        <ele>85.56945687904954</ele>
        <time>2026-08-18T13:35:02Z</time>
      </trkpt>
      <trkpt lat="34.83466977316666" lon="113.6514064172796">
        <ele>86.3353064423427</ele>
        <time>2026-08-18T13:35:22Z</time>
      </trkpt>
      <trkpt lat="34.8345417248989" lon="113.65149371671379">
        <ele>87.05535623338073</ele>
        <time>2026-08-18T13:35:32Z</time>
      </trkpt>
      <trkpt lat="34.83433407553404" lon="113.65155107106561">
        <ele>86.09898689668626</ele>
        <time>2026-08-18T13:35:47Z</time>
      </trkpt>
      <trkpt lat="34.8340566656423" lon="113.6516752413546">
        <ele>86.47692540194839</ele>
        <time>2026-08-18T13:36:08Z</time>
      </trkpt>
      <trkpt lat="34.833856366290505" lon="113.65176375422088">
        <ele>86.72669381275773</ele>
        <time>2026-08-18T13:36:23Z</time>
      </trkpt>
      <trkpt lat="34.833771720238936" lon="113.65177624237768">
        <ele>88.58528209291399</ele>
        <time>2026-08-18T13:36:29Z</time>
      </trkpt>
      <trkpt lat="34.83353463603954" lon="113.651875230574">
        <ele>88.86777345836163</ele>
        <time>2026-08-18T13:36:47Z</time>
      </trkpt>
      <trkpt lat="34.83345708586434" lon="113.6519349331058">
        <ele>88.53046661056578</ele>
        <time>2026-08-18T13:36:53Z</time>
      </trkpt>
      <trkpt lat="34.833405293767704" lon="113.6519450208462">
        <ele>89.22723740432411</ele>
        <time>2026-08-18T13:36:59Z</time>
      </trkpt>
      <trkpt lat="34.833348354889246" lon="113.65194605270547">
        <ele>87.29719206597656</ele>
        <time>2026-08-18T13:37:27Z</time>
      </trkpt>
      <trkpt lat="34.83309544869031" lon="113.65206312021739">
        <ele>89.8484817724675</ele>
        <time>2026-08-18T13:37:45Z</time>
      </trkpt>
      <trkpt lat="34.83283720811922" lon="113.65216436033738">
        <ele>89.8110705530271</ele>
        <time>2026-08-18T13:38:06Z</time>
      </trkpt>
      <trkpt lat="34.83282853373912" lon="113.6522212744558">
        <ele>89.60136305168271</ele>
        <time>2026-08-18T13:38:09Z</time>
      </trkpt>
      <trkpt lat="34.8328820007392" lon="113.65231724091097">
        <ele>89.25749720539898</ele>
        <time>2026-08-18T13:38:15Z</time>
      </trkpt>
      <trkpt lat="34.832744542716334" lon="113.65239015016839">
        <ele>87.91087844502181</ele>
        <time>2026-08-18T13:38:27Z</time>
      </trkpt>
      <trkpt lat="34.832452246388954" lon="113.65250965916036">
        <ele>89.39168044645339</ele>
        <time>2026-08-18T13:38:57Z</time>
      </trkpt>
      <trkpt lat="34.832394109093826" lon="113.65252395249365">
        <ele>89.63677575532347</ele>
        <time>2026-08-18T13:39:03Z</time>
      </trkpt>
      <trkpt lat="34.83211528663905" lon="113.65266055280381">
        <ele>90.03795863967389</ele>
        <time>2026-08-18T13:39:55Z</time>
      </trkpt>
      <trkpt lat="34.831811321500204" lon="113.65276808259303">
        <ele>88.75865783728659</ele>
        <time>2026-08-18T13:40:16Z</time>
      </trkpt>
      <trkpt lat="34.831500287122616" lon="113.652897959839">
        <ele>90.47024340368807</ele>
        <time>2026-08-18T13:40:37Z</time>
      </trkpt>
      <trkpt lat="34.831304305814044" lon="113.65298053937597">
        <ele>91.04616541787982</ele>
        <time>2026-08-18T13:40:52Z</time>
      </trkpt>
      <trkpt lat="34.831228758441966" lon="113.6529841582891">
        <ele>89.1917233504355</ele>
        <time>2026-08-18T13:40:58Z</time>
      </trkpt>
      <trkpt lat="34.831102761757506" lon="113.65305869416476">
        <ele>89.3446856494993</ele>
        <time>2026-08-18T13:41:10Z</time>
      </trkpt>
      <trkpt lat="34.83079458340543" lon="113.65316302497416">
        <ele>88.70286883227527</ele>
        <time>2026-08-18T13:41:56Z</time>
      </trkpt>
      <trkpt lat="34.83065865694067" lon="113.65315268674433">
        <ele>89.00128824263811</ele>
        <time>2026-08-18T13:42:08Z</time>
      </trkpt>
      <trkpt lat="34.83057257655849" lon="113.65312301423022">
        <ele>89.21898276824504</ele>
        <time>2026-08-18T13:42:14Z</time>
      </trkpt>
      <trkpt lat="34.83053688416926" lon="113.65315651299161">
        <ele>88.85581016726792</ele>
        <time>2026-08-18T13:42:17Z</time>
      </trkpt>
      <trkpt lat="34.83048625586715" lon="113.65331279712703">
        <ele>90.58943958301097</ele>
        <time>2026-08-18T13:42:26Z</time>
      </trkpt>
      <trkpt lat="34.8304824428703" lon="113.6534021307524">
        <ele>88.9298488246277</ele>
        <time>2026-08-18T13:42:32Z</time>
      </trkpt>
      <trkpt lat="34.8304856434379" lon="113.65365148279281">
        <ele>88.38892010319978</ele>
        <time>2026-08-18T13:42:47Z</time>
      </trkpt>
      <trkpt lat="34.83043901040896" lon="113.65394859302444">
        <ele>89.52373323217034</ele>
        <time>2026-08-18T13:43:02Z</time>
      </trkpt>
      <trkpt lat="34.83043413279535" lon="113.65421167847921">
        <ele>89.64911443553865</ele>
        <time>2026-08-18T13:43:17Z</time>
      </trkpt>
      <trkpt lat="34.83038757227905" lon="113.65457680057506">
        <ele>89.97849066089839</ele>
        <time>2026-08-18T13:43:38Z</time>
      </trkpt>
      <trkpt lat="34.83036909949641" lon="113.65494903020303">
        <ele>88.9154736129567</ele>
        <time>2026-08-18T13:44:00Z</time>
      </trkpt>
      <trkpt lat="34.83036473160434" lon="113.65515662806627">
        <ele>90.20539816562086</ele>
        <time>2026-08-18T13:44:12Z</time>
      </trkpt>
      <trkpt lat="34.83030958590355" lon="113.65551365663657">
        <ele>88.98647322691977</ele>
        <time>2026-08-18T13:44:30Z</time>
      </trkpt>
      <trkpt lat="34.830281616227275" lon="113.65576569301273">
        <ele>89.27101331297308</ele>
        <time>2026-08-18T13:44:42Z</time>
      </trkpt>
      <trkpt lat="34.83029319425157" lon="113.6558591259956">
        <ele>89.58829740155488</ele>
        <time>2026-08-18T13:44:48Z</time>
      </trkpt>
      <trkpt lat="34.83024686878712" lon="113.65601307527966">
        <ele>89.23846754897386</ele>
        <time>2026-08-18T13:45:03Z</time>
      </trkpt>
      <trkpt lat="34.83024084209368" lon="113.6559584426354">
        <ele>88.82607767079026</ele>
        <time>2026-08-18T13:45:09Z</time>
      </trkpt>
      <trkpt lat="34.83019781709959" lon="113.65592320062775">
        <ele>92.22908615320921</ele>
        <time>2026-08-18T13:46:01Z</time>
      </trkpt>
      <trkpt lat="34.82992339971007" lon="113.65601779183082">
        <ele>91.1385024599731</ele>
        <time>2026-08-18T13:46:19Z</time>
      </trkpt>
      <trkpt lat="34.82985085558356" lon="113.65608823592962">
        <ele>90.3698125788942</ele>
        <time>2026-08-18T13:46:25Z</time>
      </trkpt>
      <trkpt lat="34.82982290924381" lon="113.6561431664009">
        <ele>90.5617426848039</ele>
        <time>2026-08-18T13:46:28Z</time>
      </trkpt>
      <trkpt lat="34.829798656637145" lon="113.65625096664253">
        <ele>89.760218991898</ele>
        <time>2026-08-18T13:46:34Z</time>
      </trkpt>
      <trkpt lat="34.8297778780308" lon="113.65648458775232">
        <ele>87.82892846222967</ele>
        <time>2026-08-18T13:46:46Z</time>
      </trkpt>
      <trkpt lat="34.82973291980064" lon="113.65667809064288">
        <ele>89.79001430235803</ele>
        <time>2026-08-18T13:46:55Z</time>
      </trkpt>
      <trkpt lat="34.829733170485284" lon="113.65695344059544">
        <ele>91.7387146614492</ele>
        <time>2026-08-18T13:47:10Z</time>
      </trkpt>
      <trkpt lat="34.82974614433251" lon="113.65701642127134">
        <ele>91.73980691190809</ele>
        <time>2026-08-18T13:47:13Z</time>
      </trkpt>
      <trkpt lat="34.829740949500675" lon="113.65712948198387">
        <ele>91.53337735962123</ele>
        <time>2026-08-18T13:47:19Z</time>
      </trkpt>
      <trkpt lat="34.82968375880215" lon="113.65731143091993">
        <ele>90.89971387572587</ele>
        <time>2026-08-18T13:47:28Z</time>
      </trkpt>
      <trkpt lat="34.8296485000328" lon="113.65750349134792">
        <ele>90.56811246089637</ele>
        <time>2026-08-18T13:47:37Z</time>
      </trkpt>
      <trkpt lat="34.82965969706032" lon="113.65775633561428">
        <ele>88.8614870691672</ele>
        <time>2026-08-18T13:47:50Z</time>
      </trkpt>
      <trkpt lat="34.82964157771943" lon="113.65792682877236">
        <ele>89.39462589100003</ele>
        <time>2026-08-18T13:47:59Z</time>
      </trkpt>
      <trkpt lat="34.829602942334525" lon="113.65799895301217">
        <ele>90.41829076129943</ele>
        <time>2026-08-18T13:48:05Z</time>
      </trkpt>
      <trkpt lat="34.82949522093047" lon="113.65796331010144">
        <ele>91.34319313149899</ele>
        <time>2026-08-18T13:48:11Z</time>
      </trkpt>
      <trkpt lat="34.829418970238194" lon="113.65795828837331">
        <ele>89.36825887020677</ele>
        <time>2026-08-18T13:48:17Z</time>
      </trkpt>
      <trkpt lat="34.82928513623984" lon="113.65803386798605">
        <ele>89.54957314673811</ele>
        <time>2026-08-18T13:48:26Z</time>
      </trkpt>
      <trkpt lat="34.829238000205585" lon="113.65827200936461">
        <ele>89.6082879351452</ele>
        <time>2026-08-18T13:48:38Z</time>
      </trkpt>
      <trkpt lat="34.829232260179744" lon="113.65863979373415">
        <ele>89.12016619369388</ele>
        <time>2026-08-18T13:48:56Z</time>
      </trkpt>
      <trkpt lat="34.829234227776254" lon="113.6587594268844">
        <ele>88.41935186926275</ele>
        <time>2026-08-18T13:49:02Z</time>
      </trkpt>
      <trkpt lat="34.82921476458879" lon="113.65887142981862">
        <ele>87.6424458483234</ele>
        <time>2026-08-18T13:49:08Z</time>
      </trkpt>
      <trkpt lat="34.82916830784013" lon="113.65888996074399">
        <ele>85.56112776044756</ele>
        <time>2026-08-18T13:49:14Z</time>
      </trkpt>
      <trkpt lat="34.8291177836174" lon="113.65887727881822">
        <ele>86.32267070747912</ele>
        <time>2026-08-18T13:49:20Z</time>
      </trkpt>
    </trkseg>
  </trk>
</gpx>