<?xml version="1.0" encoding="UTF-8"?>
<gpx xmlns="http://www.topografix.com/GPX/1/1" xmlns:gpxtpx="http://www.garmin.com/xmlschemas/TrackPointExtension/v1" xmlns:xsi="http://www.w3.org/2001/XMLSchema-instance" xsi:schemaLocation="http://www.topografix.com/GPX/1/1 http://www.topografix.com/GPX/1/1/gpx.xsd" version="1.1" creator="gpx.py -- https://github.com/tkrajina/gpxpy">
  <trk>
    <name>gpx from keep</name>
    <type>Run</type>
    <trkseg>
      <trkpt lat="34.82945567259346" lon="113.65816213757086">
        <ele>91.7845458984375</ele>
        <time>2026-09-13T00:22:23Z</time>
      </trkpt>
      <trkpt lat="34.829614481510774" lon="113.65816396631703">
        <ele>93.19970641564578</ele>
        <time>2026-09-13T00:22:31Z</time>
      </trkpt>
      <trkpt lat="34.82969279306511" lon="113.6582494519408">
        <ele>91.97192609589547</ele>
        <time>2026-09-13T00:22:35Z</time>
      </trkpt>
      <trkpt lat="34.82971360060383" lon="113.65836312009158">
        <ele>92.91887799743563</ele>
        <time>2026-09-13T00:22:39Z</time>
      </trkpt>
      <trkpt lat="34.8297023683758" lon="113.65843271163858">
        <ele>92.4562819218263</ele>
        <time>2026-09-13T00:22:42Z</time>
      </trkpt>
      <trkpt lat="34.82972453590618" lon="113.65849661660006">
        <ele>92.46573959942907</ele>
        <time>2026-09-13T00:22:45Z</time>
      </trkpt>
      <trkpt lat="34.82978419465148" lon="113.65850627038033">
        <ele>90.94038103055209</ele>
        <time>2026-09-13T00:22:51Z</time>
      </trkpt>
      <trkpt lat="34.82978419465148" lon="113.65850627038033">
        <ele>90.94038103055209</ele>
        <time>2026-09-13T00:22:52Z</time>
      </trkpt>
      <trkpt lat="34.82984987739415" lon="113.65849042610353">
        <ele>86.81437128968537</ele>
        <time>2026-09-13T00:23:12Z</time>
      </trkpt>
      <trkpt lat="34.83005791260741" lon="113.65849533945268">
        <ele>88.7920312974602</ele>
        <time>2026-09-13T00:23:21Z</time>
      </trkpt>
      <trkpt lat="34.83012016293737" lon="113.65847922471767">
        <ele>88.90036251302809</ele>
        <time>2026-09-13T00:23:24Z</time>
      </trkpt>
      <trkpt lat="34.83015945928061" lon="113.65842814394995">
        <ele>89.85451861284673</ele>
        <time>2026-09-13T00:23:27Z</time>
      </trkpt>
      <trkpt lat="34.83028437849939" lon="113.65842128973017">
        <ele>87.9082539146766</ele>
        <time>2026-09-13T00:23:33Z</time>
      </trkpt>
      <trkpt lat="34.83040913469976" lon="113.65836542408435">
        <ele>91.22087030485272</ele>
        <time>2026-09-13T00:23:42Z</time>
      </trkpt>
      <trkpt lat="34.83056338915577" lon="113.65824023626845">
        <ele>91.6960489070043</ele>
        <time>2026-09-13T00:23:57Z</time>
      </trkpt>
      <trkpt lat="34.83065698859052" lon="113.65834190900996">
        <ele>91.79262240044773</ele>
        <time>2026-09-13T00:24:03Z</time>
      </trkpt>
      <trkpt lat="34.83064535064673" lon="113.65840475690014">
        <ele>91.59680177643895</ele>
        <time>2026-09-13T00:24:06Z</time>
      </trkpt>
      <trkpt lat="34.83072860296248" lon="113.65855382711739">
        <ele>91.34446322079748</ele>
        <time>2026-09-13T00:24:09Z</time>
      </trkpt>
      <trkpt lat="34.83080022566781" lon="113.6586213778821">
        <ele>91.23590681422502</ele>
        <time>2026-09-13T00:24:12Z</time>
      </trkpt>
      <trkpt lat="34.83082287393441" lon="113.65867799792859">
        <ele>91.77224971260875</ele>
        <time>2026-09-13T00:24:15Z</time>
      </trkpt>
      <trkpt lat="34.83088026652412" lon="113.65873210039366">
        <ele>90.89432477299124</ele>
        <time>2026-09-13T00:24:18Z</time>
      </trkpt>
      <trkpt lat="34.830918814443415" lon="113.65884086643125">
        <ele>88.87310280837119</ele>
        <time>2026-09-13T00:24:21Z</time>
      </trkpt>
      <trkpt lat="34.830913718693445" lon="113.65892445525067">
        <ele>89.48388640210032</ele>
        <time>2026-09-13T00:24:24Z</time>
      </trkpt>
      <trkpt lat="34.830954723777964" lon="113.65909704546137">
        <ele>91.36634607147425</ele>
        <time>2026-09-13T00:24:31Z</time>
      </trkpt>
      <trkpt lat="34.831015053194804" lon="113.65912523205786">
        <ele>92.30232719704509</ele>
        <time>2026-09-13T00:24:34Z</time>
      </trkpt>
      <trkpt lat="34.83120672789797" lon="113.65912740095479">
        <ele>92.6844855574891</ele>
        <time>2026-09-13T00:24:43Z</time>
      </trkpt>
      <trkpt lat="34.83126270239602" lon="113.65910374836034">
        <ele>90.67119928263128</ele>
        <time>2026-09-13T00:24:46Z</time>
      </trkpt>
      <trkpt lat="34.83144183024889" lon="113.65888783629212">
        <ele>91.71383716352284</ele>
        <time>2026-09-13T00:24:58Z</time>
      </trkpt>
      <trkpt lat="34.83154368725238" lon="113.65881604637188">
        <ele>90.6413839571178</ele>
        <time>2026-09-13T00:25:04Z</time>
      </trkpt>
      <trkpt lat="34.83166232492879" lon="113.65884142241292">
        <ele>89.70146183948964</ele>
        <time>2026-09-13T00:25:10Z</time>
      </trkpt>
      <trkpt lat="34.83173381528796" lon="113.65883252518869">
        <ele>90.23687384277582</ele>
        <time>2026-09-13T00:25:13Z</time>
      </trkpt>
      <trkpt lat="34.831903005555496" lon="113.65876607724653">
        <ele>88.38333150651306</ele>
        <time>2026-09-13T00:25:22Z</time>
      </trkpt>
      <trkpt lat="34.83197862506222" lon="113.65865079787534">
        <ele>88.39073979854584</ele>
        <time>2026-09-13T00:25:28Z</time>
      </trkpt>
      <trkpt lat="34.83211998998041" lon="113.6585161310129">
        <ele>89.38153613358736</ele>
        <time>2026-09-13T00:25:37Z</time>
      </trkpt>
      <trkpt lat="34.83214535159116" lon="113.65846028484512">
        <ele>88.90747579373419</ele>
        <time>2026-09-13T00:25:40Z</time>
      </trkpt>
      <trkpt lat="34.83218009743048" lon="113.65815782162063">
        <ele>87.89925894606858</ele>
        <time>2026-09-13T00:25:52Z</time>
      </trkpt>
      <trkpt lat="34.83216772091295" lon="113.65809011762869">
        <ele>86.70551863405854</ele>
        <time>2026-09-13T00:25:55Z</time>
      </trkpt>
      <trkpt lat="34.83216166861634" lon="113.65780240505889">
        <ele>85.41000687424093</ele>
        <time>2026-09-13T00:26:07Z</time>
      </trkpt>
      <trkpt lat="34.83214457014768" lon="113.65771755411146">
        <ele>86.59531188476831</ele>
        <time>2026-09-13T00:26:10Z</time>
      </trkpt>
      <trkpt lat="34.83223281321034" lon="113.65749768254946">
        <ele>87.44406480807811</ele>
        <time>2026-09-13T00:26:19Z</time>
      </trkpt>
      <trkpt lat="34.83222967107022" lon="113.65734979478214">
        <ele>87.27436934132129</ele>
        <time>2026-09-13T00:26:25Z</time>
      </trkpt>
      <trkpt lat="34.832261023247526" lon="113.65725773562818">
        <ele>89.46352333109826</ele>
        <time>2026-09-13T00:26:28Z</time>
      </trkpt>
      <trkpt lat="34.83225151671828" lon="113.65719911461423">
        <ele>90.83473389782012</ele>
        <time>2026-09-13T00:26:31Z</time>
      </trkpt>
      <trkpt lat="34.83227216210292" lon="113.65682724783105">
        <ele>88.84348866343498</ele>
        <time>2026-09-13T00:26:46Z</time>
      </trkpt>
      <trkpt lat="34.83227064239116" lon="113.65673997172522">
        <ele>88.12592245358974</ele>
        <time>2026-09-13T00:26:50Z</time>
      </trkpt>
      <trkpt lat="34.83235471442186" lon="113.65672320158879">
        <ele>88.88156364485621</ele>
        <time>2026-09-13T00:26:54Z</time>
      </trkpt>
      <trkpt lat="34.83265133394225" lon="113.6567357371888">
        <ele>91.08699458930641</ele>
        <time>2026-09-13T00:27:09Z</time>
      </trkpt>
      <trkpt lat="34.83270140153562" lon="113.65674445395774">
        <ele>89.87139230780303</ele>
        <time>2026-09-13T00:27:12Z</time>
      </trkpt>
      <trkpt lat="34.83279770593047" lon="113.65672780747319">
        <ele>90.2348894411698</ele>
        <time>2026-09-13T00:27:18Z</time>
      </trkpt>
      <trkpt lat="34.83290634502503" lon="113.65675215937826">
        <ele>90.55155137367547</ele>
        <time>2026-09-13T00:27:24Z</time>
      </trkpt>
      <trkpt lat="34.83319788734723" lon="113.65673685822908">
        <ele>88.08527972362936</ele>
        <time>2026-09-13T00:27:42Z</time>
      </trkpt>
      <trkpt lat="34.83323843403132" lon="113.6567054108902">
        <ele>88.09963828511536</ele>
        <time>2026-09-13T00:27:45Z</time>
      </trkpt>
      <trkpt lat="34.833249121283544" lon="113.65638977648213">
        <ele>89.6247972138226</ele>
        <time>2026-09-13T00:28:00Z</time>
      </trkpt>
      <trkpt lat="34.83327998426955" lon="113.65632932881792">
        <ele>89.35953163262457</ele>
        <time>2026-09-13T00:28:03Z</time>
      </trkpt>
      <trkpt lat="34.833333020084496" lon="113.65631508365837">
        <ele>89.16207461059093</ele>
        <time>2026-09-13T00:28:06Z</time>
      </trkpt>
      <trkpt lat="34.83357412938655" lon="113.65632516214023">
        <ele>88.40895866323262</ele>
        <time>2026-09-13T00:28:18Z</time>
      </trkpt>
      <trkpt lat="34.83377992211602" lon="113.65623794642661">
        <ele>88.66313180048019</ele>
        <time>2026-09-13T00:28:30Z</time>
      </trkpt>
      <trkpt lat="34.83383940548876" lon="113.65623014167947">
        <ele>88.89045295771211</ele>
        <time>2026-09-13T00:28:33Z</time>
      </trkpt>
      <trkpt lat="34.83406916984418" lon="113.65607021976051">
        <ele>88.16388822719455</ele>
        <time>2026-09-13T00:28:47Z</time>
      </trkpt>
      <trkpt lat="34.834139144045444" lon="113.65599905367752">
        <ele>89.18269421346486</ele>
        <time>2026-09-13T00:28:51Z</time>
      </trkpt>
      <trkpt lat="34.834242747437926" lon="113.6557595601792">
        <ele>89.67656240519136</ele>
        <time>2026-09-13T00:29:03Z</time>
      </trkpt>
      <trkpt lat="34.834283464182846" lon="113.65554480644607">
        <ele>89.13568342663348</ele>
        <time>2026-09-13T00:29:12Z</time>
      </trkpt>
      <trkpt lat="34.834254769973825" lon="113.65534066204127">
        <ele>87.83025882951915</ele>
        <time>2026-09-13T00:29:21Z</time>
      </trkpt>
      <trkpt lat="34.83417387372061" lon="113.65513415913384">
        <ele>89.47135670203716</ele>
        <time>2026-09-13T00:29:30Z</time>
      </trkpt>
      <trkpt lat="34.83417563598786" lon="113.65493807855664">
        <ele>87.99356711562723</ele>
        <time>2026-09-13T00:29:39Z</time>
      </trkpt>
      <trkpt lat="34.83412023604936" lon="113.65490153553789">
        <ele>87.82943427283317</ele>
        <time>2026-09-13T00:29:42Z</time>
      </trkpt>
      <trkpt lat="34.834051005721776" lon="113.65489581697248">
        <ele>88.65147593431175</ele>
        <time>2026-09-13T00:29:45Z</time>
      </trkpt>
      <trkpt lat="34.83399210722241" lon="113.65491638555966">
        <ele>87.87543728109449</ele>
        <time>2026-09-13T00:29:48Z</time>
      </trkpt>
      <trkpt lat="34.83393433951226" lon="113.65490665149757">
        <ele>87.18012268748134</ele>
        <time>2026-09-13T00:29:51Z</time>
      </trkpt>
      <trkpt lat="34.83383543831125" lon="113.65482944668787">
        <ele>87.35349947959185</ele>
        <time>2026-09-13T00:29:57Z</time>
      </trkpt>
      <trkpt lat="34.83380087258452" lon="113.65476582321406">
        <ele>87.42042379360646</ele>
        <time>2026-09-13T00:30:00Z</time>
      </trkpt>
      <trkpt lat="34.83363253435701" lon="113.65467620162019">
        <ele>87.29338838346303</ele>
        <time>2026-09-13T00:30:09Z</time>
      </trkpt>
      <trkpt lat="34.833538784518446" lon="113.65455292134342">
        <ele>87.07903775759041</ele>
        <time>2026-09-13T00:30:18Z</time>
      </trkpt>
      <trkpt lat="34.8335636540804" lon="113.65447695654755">
        <ele>88.11344988737255</ele>
        <time>2026-09-13T00:30:21Z</time>
      </trkpt>
      <trkpt lat="34.83367159869113" lon="113.65439852898496">
        <ele>88.68969678878784</ele>
        <time>2026-09-13T00:30:27Z</time>
      </trkpt>
      <trkpt lat="34.83368534682082" lon="113.65434373998787">
        <ele>88.72145821526647</ele>
        <time>2026-09-13T00:30:33Z</time>
      </trkpt>
      <trkpt lat="34.83365597069281" lon="113.65426561487001">
        <ele>87.13070700969547</ele>
        <time>2026-09-13T00:30:36Z</time>
      </trkpt>
      <trkpt lat="34.833649743741034" lon="113.65419646477402">
        <ele>87.28659536875784</ele>
        <time>2026-09-13T00:30:39Z</time>
      </trkpt>
      <trkpt lat="34.83370533928676" lon="113.65407542178106">
        <ele>87.69041306339204</ele>
        <time>2026-09-13T00:30:45Z</time>
      </trkpt>
      <trkpt lat="34.83375486483129" lon="113.65402778262555">
        <ele>87.3543286724016</ele>
        <time>2026-09-13T00:30:49Z</time>
      </trkpt>
      <trkpt lat="34.83383283863797" lon="113.65400704764654">
        <ele>87.16020219400525</ele>
        <time>2026-09-13T00:30:53Z</time>
      </trkpt>
      <trkpt lat="34.833838377902104" lon="113.65392769990828">
        <ele>88.08635729085654</ele>
        <time>2026-09-13T00:30:57Z</time>
      </trkpt>
      <trkpt lat="34.833871843123966" lon="113.65383892016023">
        <ele>88.6714130602777</ele>
        <time>2026-09-13T00:31:01Z</time>
      </trkpt>
      <trkpt lat="34.833971515047566" lon="113.65376229718072">
        <ele>88.48963043000549</ele>
        <time>2026-09-13T00:31:08Z</time>
      </trkpt>
      <trkpt lat="34.83390709329109" lon="113.6537671105213">
        <ele>87.30077387951314</ele>
        <time>2026-09-13T00:31:14Z</time>
      </trkpt>
      <trkpt lat="34.83375861437901" lon="113.65392166154909">
        <ele>86.71814120840281</ele>
        <time>2026-09-13T00:31:23Z</time>
      </trkpt>
      <trkpt lat="34.833467192498844" lon="113.65396181749296">
        <ele>86.98701647296548</ele>
        <time>2026-09-13T00:31:38Z</time>
      </trkpt>
      <trkpt lat="34.83317529620729" lon="113.65403278367405">
        <ele>86.22112755849957</ele>
        <time>2026-09-13T00:31:53Z</time>
      </trkpt>
      <trkpt lat="34.832998782681834" lon="113.65408498801527">
        <ele>87.55828391388059</ele>
        <time>2026-09-13T00:32:02Z</time>
      </trkpt>
      <trkpt lat="34.83287839053083" lon="113.65420043884602">
        <ele>87.95585050806403</ele>
        <time>2026-09-13T00:32:11Z</time>
      </trkpt>
      <trkpt lat="34.83288165417598" lon="113.6542754042982">
        <ele>88.70042731519789</ele>
        <time>2026-09-13T00:32:14Z</time>
      </trkpt>
      <trkpt lat="34.83282567842101" lon="113.65429861342858">
        <ele>88.25912160985172</ele>
        <time>2026-09-13T00:32:20Z</time>
      </trkpt>
      <trkpt lat="34.83284003991016" lon="113.65393388803398">
        <ele>90.30947612505406</ele>
        <time>2026-09-13T00:32:35Z</time>
      </trkpt>
      <trkpt lat="34.83285618729098" lon="113.65380553947287">
        <ele>90.38273882493377</ele>
        <time>2026-09-13T00:32:41Z</time>
      </trkpt>
      <trkpt lat="34.83284791422996" lon="113.65372995313308">
        <ele>90.54536177963018</ele>
        <time>2026-09-13T00:32:44Z</time>
      </trkpt>
      <trkpt lat="34.83276046317502" lon="113.65357548896858">
        <ele>90.76579791121185</ele>
        <time>2026-09-13T00:32:53Z</time>
      </trkpt>
      <trkpt lat="34.83276550716378" lon="113.65349516445313">
        <ele>89.87303934432566</ele>
        <time>2026-09-13T00:32:57Z</time>
      </trkpt>
      <trkpt lat="34.832885518825435" lon="113.65337037701126">
        <ele>88.63800127711147</ele>
        <time>2026-09-13T00:33:05Z</time>
      </trkpt>
      <trkpt lat="34.8329496141976" lon="113.65332797945739">
        <ele>89.48130324948579</ele>
        <time>2026-09-13T00:33:09Z</time>
      </trkpt>
      <trkpt lat="34.83298829656596" lon="113.65326256417352">
        <ele>89.5354274213314</ele>
        <time>2026-09-13T00:33:13Z</time>
      </trkpt>
      <trkpt lat="34.833054811071534" lon="113.6532074435346">
        <ele>89.13911927025765</ele>
        <time>2026-09-13T00:33:17Z</time>
      </trkpt>
      <trkpt lat="34.83309375640739" lon="113.65313837255138">
        <ele>89.68016708642244</ele>
        <time>2026-09-13T00:33:21Z</time>
      </trkpt>
      <trkpt lat="34.83308627611405" lon="113.65299920883382">
        <ele>89.76060873549432</ele>
        <time>2026-09-13T00:33:27Z</time>
      </trkpt>
      <trkpt lat="34.833114286307094" lon="113.65291858988508">
        <ele>89.47832671459764</ele>
        <time>2026-09-13T00:33:30Z</time>
      </trkpt>
      <trkpt lat="34.83314651179188" lon="113.65287996878907">
        <ele>90.23607770726085</ele>
        <time>2026-09-13T00:33:33Z</time>
      </trkpt>
      <trkpt lat="34.833363104415895" lon="113.65280581706341">
        <ele>87.65883224457502</ele>
        <time>2026-09-13T00:33:45Z</time>
      </trkpt>
      <trkpt lat="34.83355819094051" lon="113.65266388176812">
        <ele>87.99182139150798</ele>
        <time>2026-09-13T00:33:57Z</time>
      </trkpt>
      <trkpt lat="34.83385152309231" lon="113.6525812785752">
        <ele>89.74546537268907</ele>
        <time>2026-09-13T00:34:12Z</time>
      </trkpt>
      <trkpt lat="34.83414280878673" lon="113.65249309512812">
        <ele>89.42102879751474</ele>
        <time>2026-09-13T00:34:27Z</time>
      </trkpt>
      <trkpt lat="34.83443030681076" lon="113.6524084617667">
        <ele>89.99832122027874</ele>
        <time>2026-09-13T00:34:42Z</time>
      </trkpt>
      <trkpt lat="34.834586963945114" lon="113.65233813279076">
        <ele>90.18661408592016</ele>
        <time>2026-09-13T00:34:51Z</time>
      </trkpt>
      <trkpt lat="34.83488863660944" lon="113.65220755988142">
        <ele>88.58478629775345</ele>
        <time>2026-09-13T00:35:09Z</time>
      </trkpt>
      <trkpt lat="34.83520315821892" lon="113.65208278476618">
        <ele>89.1576306372881</ele>
        <time>2026-09-13T00:35:26Z</time>
      </trkpt>
      <trkpt lat="34.835375353766466" lon="113.65201782569305">
        <ele>88.83366664964706</ele>
        <time>2026-09-13T00:35:35Z</time>
      </trkpt>
      <trkpt lat="34.83542106675322" lon="113.65197028644931">
        <ele>89.47215701173991</ele>
        <time>2026-09-13T00:35:38Z</time>
      </trkpt>
      <trkpt lat="34.83535992032748" lon="113.65193169252875">
        <ele>88.25678379461169</ele>
        <time>2026-09-13T00:35:41Z</time>
      </trkpt>
      <trkpt lat="34.83529333217204" lon="113.651914242714">
        <ele>88.13403565622866</ele>
        <time>2026-09-13T00:35:44Z</time>
      </trkpt>
      <trkpt lat="34.83527918827303" lon="113.65185817860214">
        <ele>88.86166268214583</ele>
        <time>2026-09-13T00:35:47Z</time>
      </trkpt>
      <trkpt lat="34.83534041854586" lon="113.65167915882769">
        <ele>88.71386694535613</ele>
        <time>2026-09-13T00:35:56Z</time>
      </trkpt>
      <trkpt lat="34.83544872776681" lon="113.65161595871875">
        <ele>88.79471596237272</ele>
        <time>2026-09-13T00:36:02Z</time>
      </trkpt>
      <trkpt lat="34.83556523239546" lon="113.6516164444277">
        <ele>89.05382820311934</ele>
        <time>2026-09-13T00:36:08Z</time>
      </trkpt>
      <trkpt lat="34.83561177428838" lon="113.65158837832843">
        <ele>89.48400097247213</ele>
        <time>2026-09-13T00:36:11Z</time>
      </trkpt>
      <trkpt lat="34.83556511972739" lon="113.65145627843556">
        <ele>88.7261974196881</ele>
        <time>2026-09-13T00:36:17Z</time>
      </trkpt>
      <trkpt lat="34.835554638585094" lon="113.65136694086571">
        <ele>87.26605997048318</ele>
        <time>2026-09-13T00:36:20Z</time>
      </trkpt>
      <trkpt lat="34.83556459960153" lon="113.65130645798465">
        <ele>86.44350340496749</ele>
        <time>2026-09-13T00:36:23Z</time>
      </trkpt>
      <trkpt lat="34.835599100718646" lon="113.65123772219025">
        <ele>87.79178827255964</ele>
        <time>2026-09-13T00:36:26Z</time>
      </trkpt>
      <trkpt lat="34.8357139598659" lon="113.65120023074277">
        <ele>87.25112331937999</ele>
        <time>2026-09-13T00:36:32Z</time>
      </trkpt>
      <trkpt lat="34.835823278438575" lon="113.65114980385576">
        <ele>87.67025827616453</ele>
        <time>2026-09-13T00:36:38Z</time>
      </trkpt>
      <trkpt lat="34.83605599636713" lon="113.6510917078747">
        <ele>86.6715474165976</ele>
        <time>2026-09-13T00:36:50Z</time>
      </trkpt>
      <trkpt lat="34.836359541539615" lon="113.65094655733675">
        <ele>85.73289551027119</ele>
        <time>2026-09-13T00:37:07Z</time>
      </trkpt>
      <trkpt lat="34.83664019355535" lon="113.65080351594857">
        <ele>86.50175032671541</ele>
        <time>2026-09-13T00:37:22Z</time>
      </trkpt>
      <trkpt lat="34.83689897921129" lon="113.65067247453815">
        <ele>84.93722202628851</ele>
        <time>2026-09-13T00:37:41Z</time>
      </trkpt>
      <trkpt lat="34.83716195985215" lon="113.65058561295668">
        <ele>86.85592953208834</ele>
        <time>2026-09-13T00:37:56Z</time>
      </trkpt>
      <trkpt lat="34.83733327560353" lon="113.65055508151904">
        <ele>87.07924269046634</ele>
        <time>2026-09-13T00:38:05Z</time>
      </trkpt>
      <trkpt lat="34.83754308298862" lon="113.65058467000563">
        <ele>86.62141748517752</ele>
        <time>2026-09-13T00:38:17Z</time>
      </trkpt>
      <trkpt lat="34.83765979211422" lon="113.65057724468517">
        <ele>88.21824176236987</ele>
        <time>2026-09-13T00:38:23Z</time>
      </trkpt>
      <trkpt lat="34.83791056455534" lon="113.65045346279369">
        <ele>86.41568444855511</ele>
        <time>2026-09-13T00:38:38Z</time>
      </trkpt>
      <trkpt lat="34.837998890915685" lon="113.6504021499431">
        <ele>85.68260913249105</ele>
        <time>2026-09-13T00:38:44Z</time>
      </trkpt>
      <trkpt lat="34.83822242362758" lon="113.65013728650732">
        <ele>86.91182304453105</ele>
        <time>2026-09-13T00:39:02Z</time>
      </trkpt>
      <trkpt lat="34.83827925904864" lon="113.6501074194805">
        <ele>87.83434446528554</ele>
        <time>2026-09-13T00:39:05Z</time>
      </trkpt>
      <trkpt lat="34.838498660264015" lon="113.65007456548253">
        <ele>86.24168755766004</ele>
        <time>2026-09-13T00:39:18Z</time>
      </trkpt>
      <trkpt lat="34.83879829742458" lon="113.64994739507324">
        <ele>87.31854716036469</ele>
        <time>2026-09-13T00:39:36Z</time>
      </trkpt>
      <trkpt lat="34.83889424168278" lon="113.64988746836501">
        <ele>88.10219917353243</ele>
        <time>2026-09-13T00:39:42Z</time>
      </trkpt>
      <trkpt lat="34.83893448882743" lon="113.64991779907">
        <ele>88.1513382922858</ele>
        <time>2026-09-13T00:39:45Z</time>
      </trkpt>
      <trkpt lat="34.83896906509689" lon="113.6501080837884">
        <ele>88.39335457794368</ele>
        <time>2026-09-13T00:39:54Z</time>
      </trkpt>
      <trkpt lat="34.83887543607968" lon="113.65034413435755">
        <ele>87.92492785304785</ele>
        <time>2026-09-13T00:40:06Z</time>
      </trkpt>
      <trkpt lat="34.83888483163593" lon="113.65040124141223">
        <ele>87.16703343670815</ele>
        <time>2026-09-13T00:40:09Z</time>
      </trkpt>
      <trkpt lat="34.838971242717655" lon="113.65048231703767">
        <ele>87.57902211137116</ele>
        <time>2026-09-13T00:40:15Z</time>
      </trkpt>
      <trkpt lat="34.83904315373078" lon="113.65048108185802">
        <ele>86.85829691775143</ele>
        <time>2026-09-13T00:40:21Z</time>
      </trkpt>
      <trkpt lat="34.83916859923958" lon="113.65040296297497">
        <ele>86.67099590227008</ele>
        <time>2026-09-13T00:40:30Z</time>
      </trkpt>
      <trkpt lat="34.83926725697677" lon="113.65039562723993">
        <ele>88.25642860773951</ele>
        <time>2026-09-13T00:40:36Z</time>
      </trkpt>
      <trkpt lat="34.839367862840824" lon="113.65045102001964">
        <ele>89.26619114167988</ele>
        <time>2026-09-13T00:40:42Z</time>
      </trkpt>
      <trkpt lat="34.83947184760833" lon="113.65057100673513">
        <ele>88.7685547079891</ele>
        <time>2026-09-13T00:40:51Z</time>
      </trkpt>
      <trkpt lat="34.839614412770615" lon="113.65059303304085">
        <ele>88.42147093452513</ele>
        <time>2026-09-13T00:41:00Z</time>
      </trkpt>
      <trkpt lat="34.83981869837991" lon="113.65054655920451">
        <ele>89.41062149312347</ele>
        <time>2026-09-13T00:41:12Z</time>
      </trkpt>
      <trkpt lat="34.8398604707722" lon="113.65065288786568">
        <ele>88.06030338536948</ele>
        <time>2026-09-13T00:41:19Z</time>
      </trkpt>
      <trkpt lat="34.83995086871892" lon="113.65065316082632">
        <ele>87.05127801932395</ele>
        <time>2026-09-13T00:41:25Z</time>
      </trkpt>
      <trkpt lat="34.84000042633571" lon="113.65063541012506">
        <ele>86.76748541370034</ele>
        <time>2026-09-13T00:41:28Z</time>
      </trkpt>
      <trkpt lat="34.840092625398476" lon="113.65045522394352">
        <ele>86.95858348999172</ele>
        <time>2026-09-13T00:41:37Z</time>
      </trkpt>
      <trkpt lat="34.84010585820211" lon="113.6504016685555">
        <ele>86.76164794992656</ele>
        <time>2026-09-13T00:41:40Z</time>
      </trkpt>
      <trkpt lat="34.84008997879037" lon="113.65034329025649">
        <ele>85.22783588804305</ele>
        <time>2026-09-13T00:41:43Z</time>
      </trkpt>
      <trkpt lat="34.84010435569517" lon="113.6502015756739">
        <ele>85.57996987551451</ele>
        <time>2026-09-13T00:41:52Z</time>
      </trkpt>
      <trkpt lat="34.840206997637694" lon="113.6501220946664">
        <ele>84.797875569202</ele>
        <time>2026-09-13T00:41:55Z</time>
      </trkpt>
      <trkpt lat="34.84022988580301" lon="113.65013553775147">
        <ele>84.55192742031068</ele>
        <time>2026-09-13T00:42:04Z</time>
      </trkpt>
      <trkpt lat="34.84057717030201" lon="113.6501062617044">
        <ele>86.70784498937428</ele>
        <time>2026-09-13T00:42:07Z</time>
      </trkpt>
      <trkpt lat="34.84065085070536" lon="113.6500830341581">
        <ele>87.23201907426119</ele>
        <time>2026-09-13T00:42:10Z</time>
      </trkpt>
      <trkpt lat="34.840735041829376" lon="113.64998774552578">
        <ele>85.93930370174348</ele>
        <time>2026-09-13T00:42:16Z</time>
      </trkpt>
      <trkpt lat="34.84097055204987" lon="113.64991440634492">
        <ele>85.47760913521051</ele>
        <time>2026-09-13T00:42:28Z</time>
      </trkpt>
      <trkpt lat="34.84102540935305" lon="113.6499112063593">
        <ele>85.24037677887827</ele>
        <time>2026-09-13T00:42:31Z</time>
      </trkpt>
      <trkpt lat="34.841071674677394" lon="113.64987293853162">
        <ele>85.13262529671192</ele>
        <time>2026-09-13T00:42:34Z</time>
      </trkpt>
      <trkpt lat="34.841346760266475" lon="113.64977800634261">
        <ele>84.61178196966648</ele>
        <time>2026-09-13T00:42:49Z</time>
      </trkpt>
      <trkpt lat="34.84162026924366" lon="113.64968131467845">
        <ele>85.53680125623941</ele>
        <time>2026-09-13T00:43:04Z</time>
      </trkpt>
      <trkpt lat="34.84178119402328" lon="113.64959550056388">
        <ele>86.04601690359414</ele>
        <time>2026-09-13T00:43:13Z</time>
      </trkpt>
      <trkpt lat="34.841856774945796" lon="113.64957716070633">
        <ele>86.4947629738599</ele>
        <time>2026-09-13T00:43:16Z</time>
      </trkpt>
      <trkpt lat="34.841901413177965" lon="113.64954316498559">
        <ele>87.76655630487949</ele>
        <time>2026-09-13T00:43:19Z</time>
      </trkpt>
      <trkpt lat="34.841959490239304" lon="113.6495421729014">
        <ele>87.41255855001509</ele>
        <time>2026-09-13T00:43:26Z</time>
      </trkpt>
      <trkpt lat="34.84208685127164" lon="113.64947112245996">
        <ele>85.87864866387099</ele>
        <time>2026-09-13T00:43:35Z</time>
      </trkpt>
      <trkpt lat="34.842211480939426" lon="113.64938252113339">
        <ele>82.89184124860913</ele>
        <time>2026-09-13T00:43:41Z</time>
      </trkpt>
      <trkpt lat="34.84232628036946" lon="113.64935896531783">
        <ele>82.59506435878575</ele>
        <time>2026-09-13T00:43:47Z</time>
      </trkpt>
      <trkpt lat="34.842425962242224" lon="113.64930857685067">
        <ele>82.47599652223289</ele>
        <time>2026-09-13T00:43:53Z</time>
      </trkpt>
      <trkpt lat="34.84268984560807" lon="113.6491862384712">
        <ele>82.96137567330152</ele>
        <time>2026-09-13T00:44:08Z</time>
      </trkpt>
      <trkpt lat="34.84295079720279" lon="113.64905008473053">
        <ele>83.29784802626818</ele>
        <time>2026-09-13T00:44:23Z</time>
      </trkpt>
      <trkpt lat="34.8430975235162" lon="113.648993143965">
        <ele>84.96339633595198</ele>
        <time>2026-09-13T00:44:29Z</time>
      </trkpt>
      <trkpt lat="34.84315037817533" lon="113.64894998303018">
        <ele>86.19275852385908</ele>
        <time>2026-09-13T00:44:32Z</time>
      </trkpt>
      <trkpt lat="34.84317531257922" lon="113.64883640893181">
        <ele>87.186265014112</ele>
        <time>2026-09-13T00:44:38Z</time>
      </trkpt>
      <trkpt lat="34.843253962612785" lon="113.64875991023162">
        <ele>86.38223852217197</ele>
        <time>2026-09-13T00:44:44Z</time>
      </trkpt>
      <trkpt lat="34.84330518155916" lon="113.64873921351578">
        <ele>86.46652877423912</ele>
        <time>2026-09-13T00:44:47Z</time>
      </trkpt>
      <trkpt lat="34.84335143106822" lon="113.64874329383116">
        <ele>86.53744793497026</ele>
        <time>2026-09-13T00:44:50Z</time>
      </trkpt>
      <trkpt lat="34.843375055142644" lon="113.64880778263033">
        <ele>87.46469890233129</ele>
        <time>2026-09-13T00:44:53Z</time>
      </trkpt>
      <trkpt lat="34.8433809276576" lon="113.64920541948112">
        <ele>89.25027728639543</ele>
        <time>2026-09-13T00:45:11Z</time>
      </trkpt>
      <trkpt lat="34.84337915000094" lon="113.64956859765711">
        <ele>89.28533083572984</ele>
        <time>2026-09-13T00:45:26Z</time>
      </trkpt>
      <trkpt lat="34.84338543988668" lon="113.649656277581">
        <ele>90.19803839176893</ele>
        <time>2026-09-13T00:45:29Z</time>
      </trkpt>
      <trkpt lat="34.84334618767953" lon="113.64972223179353">
        <ele>89.81500914040953</ele>
        <time>2026-09-13T00:45:33Z</time>
      </trkpt>
      <trkpt lat="34.84317053121881" lon="113.64976998778015">
        <ele>88.29616129677743</ele>
        <time>2026-09-13T00:45:41Z</time>
      </trkpt>
      <trkpt lat="34.842889793710725" lon="113.64990764250263">
        <ele>87.95144939236343</ele>
        <time>2026-09-13T00:45:55Z</time>
      </trkpt>
      <trkpt lat="34.84259552676715" lon="113.65002793720446">
        <ele>88.79144884832203</ele>
        <time>2026-09-13T00:46:10Z</time>
      </trkpt>
      <trkpt lat="34.842303898862795" lon="113.65013686822887">
        <ele>88.50897498521954</ele>
        <time>2026-09-13T00:46:25Z</time>
      </trkpt>
      <trkpt lat="34.84201776076973" lon="113.65026194572776">
        <ele>87.23458312172443</ele>
        <time>2026-09-13T00:46:40Z</time>
      </trkpt>
      <trkpt lat="34.84171945598525" lon="113.65033201921206">
        <ele>86.8275661887601</ele>
        <time>2026-09-13T00:46:55Z</time>
      </trkpt>
      <trkpt lat="34.84140853693572" lon="113.6504057497">
        <ele>86.33913093060255</ele>
        <time>2026-09-13T00:47:10Z</time>
      </trkpt>
      <trkpt lat="34.84113060181716" lon="113.65051149605317">
        <ele>85.7782092364505</ele>
        <time>2026-09-13T00:47:25Z</time>
      </trkpt>
      <trkpt lat="34.84096051776725" lon="113.65058986619229">
        <ele>86.54985776543617</ele>
        <time>2026-09-13T00:47:34Z</time>
      </trkpt>
      <trkpt lat="34.840650774200114" lon="113.65055517649968">
        <ele>85.28136977273971</ele>
        <time>2026-09-13T00:47:50Z</time>
      </trkpt>
      <trkpt lat="34.840445844385236" lon="113.65069576800043">
        <ele>85.84478192776442</ele>
        <time>2026-09-13T00:48:02Z</time>
      </trkpt>
      <trkpt lat="34.840284609859324" lon="113.65077056400094">
        <ele>85.75480955839157</ele>
        <time>2026-09-13T00:48:08Z</time>
      </trkpt>
      <trkpt lat="34.840170490038425" lon="113.65078324509662">
        <ele>86.27387005183846</ele>
        <time>2026-09-13T00:48:14Z</time>
      </trkpt>
      <trkpt lat="34.839954760456976" lon="113.6509707486747">
        <ele>85.66805443633348</ele>
        <time>2026-09-13T00:48:32Z</time>
      </trkpt>
      <trkpt lat="34.83967873012285" lon="113.65119682646004">
        <ele>88.47284617181867</ele>
        <time>2026-09-13T00:48:50Z</time>
      </trkpt>
      <trkpt lat="34.83940221729137" lon="113.65130335427881">
        <ele>87.64536877628416</ele>
        <time>2026-09-13T00:49:05Z</time>
      </trkpt>
      <trkpt lat="34.83912923531044" lon="113.6513931892507">
        <ele>88.15951086953282</ele>
        <time>2026-09-13T00:49:20Z</time>
      </trkpt>
      <trkpt lat="34.83885716400803" lon="113.65150522889788">
        <ele>88.31366890016943</ele>
        <time>2026-09-13T00:49:35Z</time>
      </trkpt>
      <trkpt lat="34.83855713536933" lon="113.65168269208029">
        <ele>86.40339433308691</ele>
        <time>2026-09-13T00:49:53Z</time>
      </trkpt>
      <trkpt lat="34.838311731956075" lon="113.65185638330657">
        <ele>87.70405151229352</ele>
        <time>2026-09-13T00:50:08Z</time>
      </trkpt>
      <trkpt lat="34.83804887446515" lon="113.65203801882936">
        <ele>86.7820497378707</ele>
        <time>2026-09-13T00:50:23Z</time>
      </trkpt>
      <trkpt lat="34.83775409552537" lon="113.65215950734701">
        <ele>86.95050467271358</ele>
        <time>2026-09-13T00:50:38Z</time>
      </trkpt>
      <trkpt lat="34.83746727224296" lon="113.6522547431754">
        <ele>86.9995693936944</ele>
        <time>2026-09-13T00:50:53Z</time>
      </trkpt>
      <trkpt lat="34.83724102982321" lon="113.65233901395467">
        <ele>86.78443690948188</ele>
        <time>2026-09-13T00:51:05Z</time>
      </trkpt>
      <trkpt lat="34.83699130457139" lon="113.65251370344804">
        <ele>87.26338527165353</ele>
        <time>2026-09-13T00:51:20Z</time>
      </trkpt>
      <trkpt lat="34.83672492034091" lon="113.65271166452612">
        <ele>87.96342575363815</ele>
        <time>2026-09-13T00:51:35Z</time>
      </trkpt>
      <trkpt lat="34.83642608620146" lon="113.65291622276592">
        <ele>86.85024376120418</ele>
        <time>2026-09-13T00:51:51Z</time>
      </trkpt>
      <trkpt lat="34.83634891914096" lon="113.65296816947661">
        <ele>87.0838858410716</ele>
        <time>2026-09-13T00:51:55Z</time>
      </trkpt>
      <trkpt lat="34.83623842188927" lon="113.65310185749485">
        <ele>85.05058876983821</ele>
        <time>2026-09-13T00:52:03Z</time>
      </trkpt>
      <trkpt lat="34.835971693866824" lon="113.65320431488284">
        <ele>85.91009174939245</ele>
        <time>2026-09-13T00:52:14Z</time>
      </trkpt>
      <trkpt lat="34.83568620461578" lon="113.65333158567367">
        <ele>87.12982083950192</ele>
        <time>2026-09-13T00:52:26Z</time>
      </trkpt>
      <trkpt lat="34.83539602856497" lon="113.65345419031368">
        <ele>87.10435242485255</ele>
        <time>2026-09-13T00:52:38Z</time>
      </trkpt>
      <trkpt lat="34.83513386065986" lon="113.65355888112308">
        <ele>87.62031455524266</ele>
        <time>2026-09-13T00:52:50Z</time>
      </trkpt>
      <trkpt lat="34.83487697573901" lon="113.65368135441952">
        <ele>88.7224279884249</ele>
        <time>2026-09-13T00:52:59Z</time>
      </trkpt>
      <trkpt lat="34.83456102662332" lon="113.65381936153707">
        <ele>89.03361570835114</ele>
        <time>2026-09-13T00:53:11Z</time>
      </trkpt>
      <trkpt lat="34.83443208504768" lon="113.6538859614943">
        <ele>88.04930887371302</ele>
        <time>2026-09-13T00:53:17Z</time>
      </trkpt>
      <trkpt lat="34.834346488031336" lon="113.65383236154504">
        <ele>87.26614740490913</ele>
        <time>2026-09-13T00:53:23Z</time>
      </trkpt>
      <trkpt lat="34.83407554362238" lon="113.65395927510113">
        <ele>85.77737770415843</ele>
        <time>2026-09-13T00:53:35Z</time>
      </trkpt>
      <trkpt lat="34.83395266076078" lon="113.65399559341347">
        <ele>86.55811238102615</ele>
        <time>2026-09-13T00:53:41Z</time>
      </trkpt>
      <trkpt lat="34.83390373749773" lon="113.65402824930307">
        <ele>86.1579156909138</ele>
        <time>2026-09-13T00:53:44Z</time>
      </trkpt>
      <trkpt lat="34.833775755776614" lon="113.6540291995214">
        <ele>86.13330951984972</ele>
        <time>2026-09-13T00:53:50Z</time>
      </trkpt>
      <trkpt lat="34.833623898578495" lon="113.65409516505008">
        <ele>86.24068002216518</ele>
        <time>2026-09-13T00:54:01Z</time>
      </trkpt>
    </trkseg>
  </trk>
</gpx>