<?xml version="1.0" encoding="UTF-8"?>
<gpx xmlns="http://www.topografix.com/GPX/1/1" xmlns:gpxtpx="http://www.garmin.com/xmlschemas/TrackPointExtension/v1" xmlns:xsi="http://www.w3.org/2001/XMLSchema-instance" xsi:schemaLocation="http://www.topografix.com/GPX/1/1 http://www.topografix.com/GPX/1/1/gpx.xsd" version="1.1" creator="gpx.py -- https://github.com/tkrajina/gpxpy">
  <trk>
    <name>gpx from keep</name>
    <type>Run</type>
    <trkseg>
      <trkpt lat="34.8297228603324" lon="113.65652692818018">
        <ele>89.37103271484375</ele>
        <time>2026-09-01T00:58:43Z</time>
      </trkpt>
      <trkpt lat="34.829772328293735" lon="113.65629858989186">
        <ele>89.00656918436289</ele>
        <time>2026-09-01T00:58:52Z</time>
      </trkpt>
      <trkpt lat="34.82978851834715" lon="113.65611632031897">
        <ele>90.74230816029012</ele>
        <time>2026-09-01T00:58:58Z</time>
      </trkpt>
      <trkpt lat="34.82981444372875" lon="113.65601388516195">
        <ele>91.47108335793018</ele>
        <time>2026-09-01T00:59:01Z</time>
      </trkpt>
      <trkpt lat="34.829857601759976" lon="113.65596795875288">
        <ele>89.77938312012702</ele>
        <time>2026-09-01T00:59:04Z</time>
      </trkpt>
      <trkpt lat="34.82996665503791" lon="113.65598585552613">
        <ele>87.7171587748453</ele>
        <time>2026-09-01T00:59:07Z</time>
      </trkpt>
      <trkpt lat="34.83026460214103" lon="113.65588953700939">
        <ele>88.26501594670117</ele>
        <time>2026-09-01T00:59:19Z</time>
      </trkpt>
      <trkpt lat="34.83032414930239" lon="113.6559042740103">
        <ele>88.18369403947145</ele>
        <time>2026-09-01T00:59:22Z</time>
      </trkpt>
      <trkpt lat="34.83036265716605" lon="113.65596852404693">
        <ele>88.36046162713319</ele>
        <time>2026-09-01T00:59:25Z</time>
      </trkpt>
      <trkpt lat="34.83039974895739" lon="113.65609607467411">
        <ele>87.92124129086733</ele>
        <time>2026-09-01T00:59:31Z</time>
      </trkpt>
      <trkpt lat="34.83047310989982" lon="113.65618312246622">
        <ele>87.45873243547976</ele>
        <time>2026-09-01T00:59:37Z</time>
      </trkpt>
      <trkpt lat="34.83058313719453" lon="113.65623013761045">
        <ele>88.9351546280086</ele>
        <time>2026-09-01T00:59:43Z</time>
      </trkpt>
      <trkpt lat="34.83075808451121" lon="113.65623133066319">
        <ele>89.41761298384517</ele>
        <time>2026-09-01T00:59:52Z</time>
      </trkpt>
      <trkpt lat="34.830920177945465" lon="113.65614075555904">
        <ele>88.79474669788033</ele>
        <time>2026-09-01T01:00:04Z</time>
      </trkpt>
      <trkpt lat="34.83105737613004" lon="113.65613496786132">
        <ele>91.11955572012812</ele>
        <time>2026-09-01T01:00:13Z</time>
      </trkpt>
      <trkpt lat="34.831127034522005" lon="113.65617443435363">
        <ele>90.33304923493415</ele>
        <time>2026-09-01T01:00:19Z</time>
      </trkpt>
      <trkpt lat="34.83126186482369" lon="113.65618483299288">
        <ele>90.11425357218832</ele>
        <time>2026-09-01T01:00:28Z</time>
      </trkpt>
      <trkpt lat="34.83134820239017" lon="113.65625199748213">
        <ele>88.28327246382833</ele>
        <time>2026-09-01T01:00:34Z</time>
      </trkpt>
      <trkpt lat="34.831577260958255" lon="113.65613488761247">
        <ele>90.06813659425825</ele>
        <time>2026-09-01T01:00:47Z</time>
      </trkpt>
      <trkpt lat="34.83172696830444" lon="113.65606900065302">
        <ele>89.31482566520572</ele>
        <time>2026-09-01T01:00:56Z</time>
      </trkpt>
      <trkpt lat="34.83182249337866" lon="113.65597266535218">
        <ele>88.36586287617683</ele>
        <time>2026-09-01T01:01:02Z</time>
      </trkpt>
      <trkpt lat="34.831884617101835" lon="113.65594752287244">
        <ele>88.59871121868491</ele>
        <time>2026-09-01T01:01:05Z</time>
      </trkpt>
      <trkpt lat="34.83198132910815" lon="113.6559687712887">
        <ele>88.94509325921535</ele>
        <time>2026-09-01T01:01:11Z</time>
      </trkpt>
      <trkpt lat="34.832146404231175" lon="113.65608089759452">
        <ele>87.41083923261613</ele>
        <time>2026-09-01T01:01:20Z</time>
      </trkpt>
      <trkpt lat="34.83225917890798" lon="113.65611996354605">
        <ele>87.9104926623404</ele>
        <time>2026-09-01T01:01:26Z</time>
      </trkpt>
      <trkpt lat="34.832405811609874" lon="113.6561061163413">
        <ele>88.89605052117258</ele>
        <time>2026-09-01T01:01:35Z</time>
      </trkpt>
      <trkpt lat="34.83228250580209" lon="113.65523213534718">
        <ele>88.31319011282176</ele>
        <time>2026-09-01T01:08:08Z</time>
      </trkpt>
      <trkpt lat="34.83223884588215" lon="113.65535560036248">
        <ele>87.97187241353095</ele>
        <time>2026-09-01T01:08:14Z</time>
      </trkpt>
      <trkpt lat="34.832227041728956" lon="113.65549083379462">
        <ele>87.17815159261227</ele>
        <time>2026-09-01T01:08:20Z</time>
      </trkpt>
      <trkpt lat="34.83214813555128" lon="113.65560746990653">
        <ele>86.9825582569465</ele>
        <time>2026-09-01T01:08:26Z</time>
      </trkpt>
      <trkpt lat="34.83204711128898" lon="113.65565701237801">
        <ele>87.96269967593253</ele>
        <time>2026-09-01T01:08:32Z</time>
      </trkpt>
      <trkpt lat="34.83197987345478" lon="113.65579318090838">
        <ele>86.95050258561969</ele>
        <time>2026-09-01T01:08:38Z</time>
      </trkpt>
      <trkpt lat="34.831998470490504" lon="113.65595401677966">
        <ele>87.41829912550747</ele>
        <time>2026-09-01T01:08:44Z</time>
      </trkpt>
      <trkpt lat="34.832140404641514" lon="113.65611649881792">
        <ele>87.51103879790753</ele>
        <time>2026-09-01T01:08:53Z</time>
      </trkpt>
      <trkpt lat="34.83232984173704" lon="113.65614466002981">
        <ele>88.6842160075903</ele>
        <time>2026-09-01T01:09:02Z</time>
      </trkpt>
      <trkpt lat="34.83246055671792" lon="113.65610023967105">
        <ele>89.7244811495766</ele>
        <time>2026-09-01T01:09:09Z</time>
      </trkpt>
      <trkpt lat="34.8325917636245" lon="113.65594670959062">
        <ele>87.12854736298323</ele>
        <time>2026-09-01T01:09:18Z</time>
      </trkpt>
      <trkpt lat="34.83268599958736" lon="113.65585069601083">
        <ele>86.97587365005165</ele>
        <time>2026-09-01T01:09:24Z</time>
      </trkpt>
      <trkpt lat="34.832744547628636" lon="113.65586064635966">
        <ele>87.2465753974393</ele>
        <time>2026-09-01T01:09:27Z</time>
      </trkpt>
      <trkpt lat="34.832803686760236" lon="113.65590601956325">
        <ele>87.02989982813597</ele>
        <time>2026-09-01T01:09:30Z</time>
      </trkpt>
      <trkpt lat="34.8329702051367" lon="113.65614258246644">
        <ele>86.38590977620333</ele>
        <time>2026-09-01T01:09:42Z</time>
      </trkpt>
      <trkpt lat="34.83318839117573" lon="113.65629462638071">
        <ele>86.76920811086893</ele>
        <time>2026-09-01T01:09:54Z</time>
      </trkpt>
      <trkpt lat="34.83345814021553" lon="113.65634623549415">
        <ele>87.0507696447894</ele>
        <time>2026-09-01T01:10:06Z</time>
      </trkpt>
      <trkpt lat="34.83359839364655" lon="113.65633877155861">
        <ele>86.50411559455097</ele>
        <time>2026-09-01T01:10:12Z</time>
      </trkpt>
      <trkpt lat="34.833896298239885" lon="113.65618859742386">
        <ele>88.59292563516647</ele>
        <time>2026-09-01T01:10:27Z</time>
      </trkpt>
      <trkpt lat="34.83409599808112" lon="113.65601128057766">
        <ele>88.36552292015404</ele>
        <time>2026-09-01T01:10:39Z</time>
      </trkpt>
      <trkpt lat="34.834206822105436" lon="113.65582745561127">
        <ele>87.8860023189336</ele>
        <time>2026-09-01T01:10:48Z</time>
      </trkpt>
      <trkpt lat="34.83426731699323" lon="113.6555998159304">
        <ele>87.4954877877608</ele>
        <time>2026-09-01T01:10:57Z</time>
      </trkpt>
      <trkpt lat="34.83426750826781" lon="113.65544999144116">
        <ele>87.2166724326089</ele>
        <time>2026-09-01T01:11:03Z</time>
      </trkpt>
      <trkpt lat="34.834208010068984" lon="113.65524289200071">
        <ele>87.28388997446746</ele>
        <time>2026-09-01T01:11:12Z</time>
      </trkpt>
      <trkpt lat="34.83413895347502" lon="113.65509136038378">
        <ele>87.24351019226015</ele>
        <time>2026-09-01T01:11:19Z</time>
      </trkpt>
      <trkpt lat="34.83403119151462" lon="113.65506098731562">
        <ele>86.39123983681202</ele>
        <time>2026-09-01T01:11:25Z</time>
      </trkpt>
      <trkpt lat="34.833920562218104" lon="113.65491571329501">
        <ele>86.74412808287889</ele>
        <time>2026-09-01T01:11:34Z</time>
      </trkpt>
      <trkpt lat="34.83374458379739" lon="113.6548364637029">
        <ele>89.3173243040219</ele>
        <time>2026-09-01T01:11:43Z</time>
      </trkpt>
      <trkpt lat="34.833554682384374" lon="113.6548102245667">
        <ele>88.10897550359368</ele>
        <time>2026-09-01T01:11:52Z</time>
      </trkpt>
      <trkpt lat="34.833334495584" lon="113.6549148794229">
        <ele>88.25677729956806</ele>
        <time>2026-09-01T01:12:04Z</time>
      </trkpt>
      <trkpt lat="34.83324263201521" lon="113.65510133812577">
        <ele>88.62585839536041</ele>
        <time>2026-09-01T01:12:13Z</time>
      </trkpt>
      <trkpt lat="34.8330720525234" lon="113.65523113340603">
        <ele>85.48740365728736</ele>
        <time>2026-09-01T01:12:25Z</time>
      </trkpt>
      <trkpt lat="34.83291014466793" lon="113.65525043012613">
        <ele>83.49148488789797</ele>
        <time>2026-09-01T01:12:34Z</time>
      </trkpt>
      <trkpt lat="34.8326035200844" lon="113.65512802877052">
        <ele>84.63608423899859</ele>
        <time>2026-09-01T01:12:52Z</time>
      </trkpt>
      <trkpt lat="34.832457345096564" lon="113.65514007830518">
        <ele>84.99251125659794</ele>
        <time>2026-09-01T01:12:58Z</time>
      </trkpt>
      <trkpt lat="34.83234152665518" lon="113.65519919431851">
        <ele>85.58116927463561</ele>
        <time>2026-09-01T01:13:04Z</time>
      </trkpt>
      <trkpt lat="34.83226954717936" lon="113.65531364006382">
        <ele>88.28524189442396</ele>
        <time>2026-09-01T01:13:10Z</time>
      </trkpt>
      <trkpt lat="34.83225032731202" lon="113.65544402540894">
        <ele>87.42954652477056</ele>
        <time>2026-09-01T01:13:16Z</time>
      </trkpt>
      <trkpt lat="34.832225288418506" lon="113.6555146302407">
        <ele>88.52935701329261</ele>
        <time>2026-09-01T01:13:19Z</time>
      </trkpt>
      <trkpt lat="34.83212462031833" lon="113.6556349704722">
        <ele>87.39004125166684</ele>
        <time>2026-09-01T01:13:27Z</time>
      </trkpt>
      <trkpt lat="34.832061399335274" lon="113.65567262479026">
        <ele>86.54861689172685</ele>
        <time>2026-09-01T01:13:31Z</time>
      </trkpt>
      <trkpt lat="34.831998249872" lon="113.65575301273276">
        <ele>86.48133216239512</ele>
        <time>2026-09-01T01:13:35Z</time>
      </trkpt>
      <trkpt lat="34.831956818336664" lon="113.65592742032989">
        <ele>87.01868527010083</ele>
        <time>2026-09-01T01:13:42Z</time>
      </trkpt>
      <trkpt lat="34.83178072976427" lon="113.65604163501564">
        <ele>86.20449237152934</ele>
        <time>2026-09-01T01:13:51Z</time>
      </trkpt>
      <trkpt lat="34.83173827091029" lon="113.65609478333714">
        <ele>85.71355125680566</ele>
        <time>2026-09-01T01:13:54Z</time>
      </trkpt>
      <trkpt lat="34.83145091406812" lon="113.65626806941329">
        <ele>85.42855429463089</ele>
        <time>2026-09-01T01:14:09Z</time>
      </trkpt>
      <trkpt lat="34.83140069192137" lon="113.65630118607018">
        <ele>84.13932036887854</ele>
        <time>2026-09-01T01:14:12Z</time>
      </trkpt>
      <trkpt lat="34.831288142442475" lon="113.65622746224544">
        <ele>84.4336040886119</ele>
        <time>2026-09-01T01:14:18Z</time>
      </trkpt>
      <trkpt lat="34.83106042716662" lon="113.65620511519697">
        <ele>85.21699523553252</ele>
        <time>2026-09-01T01:14:30Z</time>
      </trkpt>
      <trkpt lat="34.830998224521444" lon="113.65618426839066">
        <ele>85.14395209308714</ele>
        <time>2026-09-01T01:14:33Z</time>
      </trkpt>
      <trkpt lat="34.83068223558882" lon="113.65627013753186">
        <ele>85.11552832368761</ele>
        <time>2026-09-01T01:14:48Z</time>
      </trkpt>
      <trkpt lat="34.830587363012995" lon="113.65627262927579">
        <ele>86.09833257552236</ele>
        <time>2026-09-01T01:14:54Z</time>
      </trkpt>
      <trkpt lat="34.83047054839616" lon="113.65620585415286">
        <ele>84.39887570217252</ele>
        <time>2026-09-01T01:15:00Z</time>
      </trkpt>
      <trkpt lat="34.83041731881246" lon="113.65615371413323">
        <ele>84.19839248526841</ele>
        <time>2026-09-01T01:15:03Z</time>
      </trkpt>
      <trkpt lat="34.83037404775537" lon="113.656009031425">
        <ele>83.80653941631317</ele>
        <time>2026-09-01T01:15:09Z</time>
      </trkpt>
      <trkpt lat="34.83033494082035" lon="113.65595863658763">
        <ele>85.41068033967167</ele>
        <time>2026-09-01T01:15:12Z</time>
      </trkpt>
      <trkpt lat="34.830277696524305" lon="113.65592464082974">
        <ele>86.21220246423036</ele>
        <time>2026-09-01T01:15:15Z</time>
      </trkpt>
      <trkpt lat="34.83024241356475" lon="113.65603060717172">
        <ele>84.36821062117815</ele>
        <time>2026-09-01T01:15:21Z</time>
      </trkpt>
      <trkpt lat="34.83022258945188" lon="113.6563885441391">
        <ele>86.3224335918203</ele>
        <time>2026-09-01T01:15:36Z</time>
      </trkpt>
      <trkpt lat="34.83022754681422" lon="113.65670353335754">
        <ele>86.09553388226777</ele>
        <time>2026-09-01T01:15:49Z</time>
      </trkpt>
      <trkpt lat="34.830198749276406" lon="113.65675436794331">
        <ele>85.63173677306622</ele>
        <time>2026-09-01T01:15:52Z</time>
      </trkpt>
      <trkpt lat="34.8302011077079" lon="113.65705987375726">
        <ele>84.1810116013512</ele>
        <time>2026-09-01T01:16:07Z</time>
      </trkpt>
      <trkpt lat="34.83017856059291" lon="113.65716338295542">
        <ele>84.66967443749309</ele>
        <time>2026-09-01T01:16:13Z</time>
      </trkpt>
      <trkpt lat="34.83016341766469" lon="113.65747880478749">
        <ele>82.58559576421976</ele>
        <time>2026-09-01T01:16:28Z</time>
      </trkpt>
      <trkpt lat="34.83017631980099" lon="113.65754516108368">
        <ele>83.44625408947468</ele>
        <time>2026-09-01T01:16:31Z</time>
      </trkpt>
      <trkpt lat="34.83015659840852" lon="113.65762294933857">
        <ele>81.92811314854771</ele>
        <time>2026-09-01T01:16:34Z</time>
      </trkpt>
      <trkpt lat="34.830157595872286" lon="113.65788105718562">
        <ele>83.92217459529638</ele>
        <time>2026-09-01T01:16:43Z</time>
      </trkpt>
      <trkpt lat="34.83014189566018" lon="113.65804393163387">
        <ele>83.35046808980405</ele>
        <time>2026-09-01T01:16:49Z</time>
      </trkpt>
      <trkpt lat="34.83014638575398" lon="113.65838027982038">
        <ele>87.2882838062942</ele>
        <time>2026-09-01T01:17:01Z</time>
      </trkpt>
      <trkpt lat="34.83018177127311" lon="113.65844433417978">
        <ele>88.83895124401897</ele>
        <time>2026-09-01T01:17:04Z</time>
      </trkpt>
      <trkpt lat="34.830232074255115" lon="113.65849000353745">
        <ele>88.80695673264563</ele>
        <time>2026-09-01T01:17:07Z</time>
      </trkpt>
      <trkpt lat="34.830242902864" lon="113.65872711840471">
        <ele>90.4954299395904</ele>
        <time>2026-09-01T01:17:16Z</time>
      </trkpt>
      <trkpt lat="34.830229468105244" lon="113.65888880752482">
        <ele>91.94798856321722</ele>
        <time>2026-09-01T01:17:22Z</time>
      </trkpt>
      <trkpt lat="34.83024354016384" lon="113.65896419484987">
        <ele>91.55336774606258</ele>
        <time>2026-09-01T01:17:25Z</time>
      </trkpt>
      <trkpt lat="34.8302520061404" lon="113.65938832123909">
        <ele>95.0063843196258</ele>
        <time>2026-09-01T01:17:39Z</time>
      </trkpt>
      <trkpt lat="34.830183383088645" lon="113.65942091396822">
        <ele>94.26201160810888</ele>
        <time>2026-09-01T01:17:43Z</time>
      </trkpt>
      <trkpt lat="34.830154492667745" lon="113.65932652632156">
        <ele>90.67343364376575</ele>
        <time>2026-09-01T01:17:47Z</time>
      </trkpt>
      <trkpt lat="34.830111570147146" lon="113.65929631855128">
        <ele>88.33018967974931</ele>
        <time>2026-09-01T01:17:50Z</time>
      </trkpt>
      <trkpt lat="34.83011995022611" lon="113.65904478781438">
        <ele>86.49182250723243</ele>
        <time>2026-09-01T01:17:59Z</time>
      </trkpt>
      <trkpt lat="34.830097657009105" lon="113.65874358853007">
        <ele>85.3969900496304</ele>
        <time>2026-09-01T01:18:14Z</time>
      </trkpt>
      <trkpt lat="34.8301013290305" lon="113.65859270741304">
        <ele>83.54719255212694</ele>
        <time>2026-09-01T01:18:20Z</time>
      </trkpt>
      <trkpt lat="34.8301013290305" lon="113.65859270741304">
        <ele>83.54719255212694</ele>
        <time>2026-09-01T01:18:23Z</time>
      </trkpt>
      <trkpt lat="34.83010914216746" lon="113.65847664395847">
        <ele>84.4542268589139</ele>
        <time>2026-09-01T01:18:27Z</time>
      </trkpt>
      <trkpt lat="34.830195691132815" lon="113.6584797686742">
        <ele>85.66606264188886</ele>
        <time>2026-09-01T01:18:33Z</time>
      </trkpt>
      <trkpt lat="34.83024365846289" lon="113.65854064195675">
        <ele>85.79462337959558</ele>
        <time>2026-09-01T01:18:36Z</time>
      </trkpt>
      <trkpt lat="34.83026395804893" lon="113.65888208358967">
        <ele>86.63666616100818</ele>
        <time>2026-09-01T01:18:48Z</time>
      </trkpt>
      <trkpt lat="34.83024510061853" lon="113.65895463514322">
        <ele>87.11852589156479</ele>
        <time>2026-09-01T01:18:51Z</time>
      </trkpt>
      <trkpt lat="34.830189431884854" lon="113.65895945894782">
        <ele>87.74003475438803</ele>
        <time>2026-09-01T01:18:54Z</time>
      </trkpt>
      <trkpt lat="34.8301129241005" lon="113.65889328610436">
        <ele>86.45053116418421</ele>
        <time>2026-09-01T01:19:00Z</time>
      </trkpt>
      <trkpt lat="34.83008932789554" lon="113.65881900700344">
        <ele>85.46409106068313</ele>
        <time>2026-09-01T01:19:03Z</time>
      </trkpt>
      <trkpt lat="34.83010413823467" lon="113.65864635887834">
        <ele>83.95695334859192</ele>
        <time>2026-09-01T01:19:09Z</time>
      </trkpt>
      <trkpt lat="34.83008709805815" lon="113.65855654140431">
        <ele>84.93360883835703</ele>
        <time>2026-09-01T01:19:12Z</time>
      </trkpt>
      <trkpt lat="34.82977404383922" lon="113.65853559292987">
        <ele>87.20633260998875</ele>
        <time>2026-09-01T01:19:27Z</time>
      </trkpt>
      <trkpt lat="34.82971113385993" lon="113.65849964605393">
        <ele>87.56177328899503</ele>
        <time>2026-09-01T01:19:33Z</time>
      </trkpt>
      <trkpt lat="34.82969071738558" lon="113.6583872590082">
        <ele>88.44881251640618</ele>
        <time>2026-09-01T01:19:40Z</time>
      </trkpt>
      <trkpt lat="34.829638448668256" lon="113.6582799203525">
        <ele>86.21671878173947</ele>
        <time>2026-09-01T01:19:46Z</time>
      </trkpt>
      <trkpt lat="34.8296906468273" lon="113.65827244757823">
        <ele>87.06115400511771</ele>
        <time>2026-09-01T01:19:55Z</time>
      </trkpt>
      <trkpt lat="34.829538722257425" lon="113.658178045452">
        <ele>87.10933999624103</ele>
        <time>2026-09-01T01:20:04Z</time>
      </trkpt>
      <trkpt lat="34.8294144071934" lon="113.65797180291067">
        <ele>85.80807402171195</ele>
        <time>2026-09-01T01:20:13Z</time>
      </trkpt>
      <trkpt lat="34.8293348511285" lon="113.657801121935">
        <ele>85.36588843725622</ele>
        <time>2026-09-01T01:20:19Z</time>
      </trkpt>
      <trkpt lat="34.82930147178374" lon="113.65763789284232">
        <ele>85.47179733682424</ele>
        <time>2026-09-01T01:20:25Z</time>
      </trkpt>
      <trkpt lat="34.829298102901205" lon="113.65729754321299">
        <ele>84.48758938908577</ele>
        <time>2026-09-01T01:20:37Z</time>
      </trkpt>
      <trkpt lat="34.829298973390564" lon="113.65705644203224">
        <ele>84.37092112191021</ele>
        <time>2026-09-01T01:20:46Z</time>
      </trkpt>
      <trkpt lat="34.8292174058027" lon="113.65686143099586">
        <ele>85.26156801730394</ele>
        <time>2026-09-01T01:20:55Z</time>
      </trkpt>
      <trkpt lat="34.82917171226593" lon="113.65681196129405">
        <ele>85.903240326792</ele>
        <time>2026-09-01T01:20:58Z</time>
      </trkpt>
      <trkpt lat="34.82911243382755" lon="113.65678894532559">
        <ele>86.73915084637702</ele>
        <time>2026-09-01T01:21:01Z</time>
      </trkpt>
      <trkpt lat="34.828990543397694" lon="113.65681302813049">
        <ele>86.15295241586864</ele>
        <time>2026-09-01T01:21:07Z</time>
      </trkpt>
      <trkpt lat="34.828814260249516" lon="113.65678960340004">
        <ele>86.30818955320865</ele>
        <time>2026-09-01T01:21:16Z</time>
      </trkpt>
      <trkpt lat="34.828797124835674" lon="113.65680724883549">
        <ele>86.60909033659846</ele>
        <time>2026-09-01T01:21:19Z</time>
      </trkpt>
    </trkseg>
  </trk>
</gpx>