<?xml version="1.0" encoding="UTF-8"?>
<gpx xmlns="http://www.topografix.com/GPX/1/1" xmlns:gpxtpx="http://www.garmin.com/xmlschemas/TrackPointExtension/v1" xmlns:xsi="http://www.w3.org/2001/XMLSchema-instance" xsi:schemaLocation="http://www.topografix.com/GPX/1/1 http://www.topografix.com/GPX/1/1/gpx.xsd" version="1.1" creator="gpx.py -- https://github.com/tkrajina/gpxpy">
  <trk>
    <name>gpx from keep</name>
    <type>Walk</type>
    <trkseg>
      <trkpt lat="34.829320356109584" lon="113.65861357815166">
        <ele>96.58328155241907</ele>
        <time>2026-08-08T11:32:32Z</time>
      </trkpt>
      <trkpt lat="34.82923538752468" lon="113.65839274482688">
        <ele>91.49270979128778</ele>
        <time>2026-08-08T11:32:44Z</time>
      </trkpt>
      <trkpt lat="34.8292732387163" lon="113.65835274608249">
        <ele>90.38802441954613</ele>
        <time>2026-08-08T11:32:47Z</time>
      </trkpt>
      <trkpt lat="34.829250830585416" lon="113.65826031410792">
        <ele>92.23444681428373</ele>
        <time>2026-08-08T11:32:53Z</time>
      </trkpt>
      <trkpt lat="34.829293761241345" lon="113.65819755726152">
        <ele>91.20198359154165</ele>
        <time>2026-08-08T11:32:59Z</time>
      </trkpt>
      <trkpt lat="34.82941083188944" lon="113.65815821925771">
        <ele>90.60010195057839</ele>
        <time>2026-08-08T11:33:11Z</time>
      </trkpt>
      <trkpt lat="34.82949037976317" lon="113.65819863642842">
        <ele>90.37316263653338</ele>
        <time>2026-08-08T11:33:17Z</time>
      </trkpt>
      <trkpt lat="34.82954513915335" lon="113.65825847836328">
        <ele>89.32638587243855</ele>
        <time>2026-08-08T11:33:23Z</time>
      </trkpt>
      <trkpt lat="34.82961816772449" lon="113.65824976236168">
        <ele>89.18512644991279</ele>
        <time>2026-08-08T11:33:29Z</time>
      </trkpt>
      <trkpt lat="34.82968380911172" lon="113.65810144728849">
        <ele>91.24598923139274</ele>
        <time>2026-08-08T11:33:38Z</time>
      </trkpt>
      <trkpt lat="34.82975139214211" lon="113.65781572033009">
        <ele>91.26281752903014</ele>
        <time>2026-08-08T11:33:59Z</time>
      </trkpt>
      <trkpt lat="34.82973884511112" lon="113.65763294114602">
        <ele>89.82104949932545</ele>
        <time>2026-08-08T11:34:08Z</time>
      </trkpt>
      <trkpt lat="34.829751738160766" lon="113.65748745521111">
        <ele>90.185077983886</ele>
        <time>2026-08-08T11:34:20Z</time>
      </trkpt>
      <trkpt lat="34.82974248421914" lon="113.65733050208071">
        <ele>89.12574954144657</ele>
        <time>2026-08-08T11:34:27Z</time>
      </trkpt>
      <trkpt lat="34.829767705205995" lon="113.65722415594686">
        <ele>87.7149371067062</ele>
        <time>2026-08-08T11:34:33Z</time>
      </trkpt>
      <trkpt lat="34.82979265626183" lon="113.65687694212446">
        <ele>87.81879184488207</ele>
        <time>2026-08-08T11:34:54Z</time>
      </trkpt>
      <trkpt lat="34.82981400018616" lon="113.65647608239185">
        <ele>88.7017051577568</ele>
        <time>2026-08-08T11:35:18Z</time>
      </trkpt>
      <trkpt lat="34.82984133375958" lon="113.65609071289427">
        <ele>87.2350161857903</ele>
        <time>2026-08-08T11:35:42Z</time>
      </trkpt>
      <trkpt lat="34.82987500138172" lon="113.65602881846269">
        <ele>87.95676131173968</ele>
        <time>2026-08-08T11:35:57Z</time>
      </trkpt>
      <trkpt lat="34.82984437463352" lon="113.65596772329779">
        <ele>87.61877140868455</ele>
        <time>2026-08-08T11:36:18Z</time>
      </trkpt>
      <trkpt lat="34.82983146325926" lon="113.65587136746008">
        <ele>87.35775092896074</ele>
        <time>2026-08-08T11:36:24Z</time>
      </trkpt>
      <trkpt lat="34.82990540788919" lon="113.65553226520917">
        <ele>88.62474914826453</ele>
        <time>2026-08-08T11:36:50Z</time>
      </trkpt>
      <trkpt lat="34.829896116631616" lon="113.65544452309098">
        <ele>88.66257626656443</ele>
        <time>2026-08-08T11:36:56Z</time>
      </trkpt>
      <trkpt lat="34.829860782927206" lon="113.65540302181975">
        <ele>87.5380443520844</ele>
        <time>2026-08-08T11:37:08Z</time>
      </trkpt>
      <trkpt lat="34.829847347125174" lon="113.65547887867002">
        <ele>87.04818325582892</ele>
        <time>2026-08-08T11:37:14Z</time>
      </trkpt>
      <trkpt lat="34.82988348914404" lon="113.65551976721876">
        <ele>85.53374670259655</ele>
        <time>2026-08-08T11:38:08Z</time>
      </trkpt>
      <trkpt lat="34.82995054317443" lon="113.65552206167948">
        <ele>86.83255058620125</ele>
        <time>2026-08-08T11:38:14Z</time>
      </trkpt>
      <trkpt lat="34.829992805967365" lon="113.65555281490259">
        <ele>87.38422006554902</ele>
        <time>2026-08-08T11:38:17Z</time>
      </trkpt>
      <trkpt lat="34.830182033900606" lon="113.65551439271023">
        <ele>87.05305303260684</ele>
        <time>2026-08-08T11:38:29Z</time>
      </trkpt>
      <trkpt lat="34.830268551261604" lon="113.65546636986417">
        <ele>85.97439141571522</ele>
        <time>2026-08-08T11:38:36Z</time>
      </trkpt>
      <trkpt lat="34.83034133330476" lon="113.65535598168476">
        <ele>85.82902323268354</ele>
        <time>2026-08-08T11:38:44Z</time>
      </trkpt>
      <trkpt lat="34.830391213270396" lon="113.65506880123833">
        <ele>88.61567948851734</ele>
        <time>2026-08-08T11:39:00Z</time>
      </trkpt>
      <trkpt lat="34.83044394477807" lon="113.654872813129">
        <ele>88.13045130856335</ele>
        <time>2026-08-08T11:39:09Z</time>
      </trkpt>
      <trkpt lat="34.83027665687499" lon="113.65512701970275">
        <ele>90.88398100870903</ele>
        <time>2026-08-08T11:39:50Z</time>
      </trkpt>
      <trkpt lat="34.830376235407165" lon="113.6550586216078">
        <ele>86.9880198109895</ele>
        <time>2026-08-08T11:39:54Z</time>
      </trkpt>
      <trkpt lat="34.830334939037094" lon="113.65519934353168">
        <ele>88.81881442572922</ele>
        <time>2026-08-08T11:40:03Z</time>
      </trkpt>
      <trkpt lat="34.83039640458909" lon="113.65528506133353">
        <ele>88.99350745230913</ele>
        <time>2026-08-08T11:40:09Z</time>
      </trkpt>
      <trkpt lat="34.830438820177775" lon="113.65526179625796">
        <ele>88.09471167065203</ele>
        <time>2026-08-08T11:40:15Z</time>
      </trkpt>
      <trkpt lat="34.83053546791407" lon="113.65513339289917">
        <ele>86.21609916258603</ele>
        <time>2026-08-08T11:40:30Z</time>
      </trkpt>
      <trkpt lat="34.83058557794362" lon="113.65511192911404">
        <ele>86.00223239231855</ele>
        <time>2026-08-08T11:40:33Z</time>
      </trkpt>
      <trkpt lat="34.83069880491979" lon="113.65497925424795">
        <ele>85.6359062641859</ele>
        <time>2026-08-08T11:40:44Z</time>
      </trkpt>
      <trkpt lat="34.83061186859089" lon="113.6549716934578">
        <ele>85.61298677045852</ele>
        <time>2026-08-08T11:40:48Z</time>
      </trkpt>
      <trkpt lat="34.830523355634874" lon="113.6549383305724">
        <ele>87.01547709386796</ele>
        <time>2026-08-08T11:40:56Z</time>
      </trkpt>
      <trkpt lat="34.830447563517296" lon="113.65488140892494">
        <ele>86.42512363009155</ele>
        <time>2026-08-08T11:41:03Z</time>
      </trkpt>
      <trkpt lat="34.83038577937396" lon="113.65490648079958">
        <ele>85.72994579188526</ele>
        <time>2026-08-08T11:41:09Z</time>
      </trkpt>
      <trkpt lat="34.83040023588769" lon="113.65502399125833">
        <ele>84.63192046340555</ele>
        <time>2026-08-08T11:41:15Z</time>
      </trkpt>
      <trkpt lat="34.83044591856576" lon="113.65505029121458">
        <ele>85.66687895637006</ele>
        <time>2026-08-08T11:41:24Z</time>
      </trkpt>
      <trkpt lat="34.83051323890362" lon="113.65505748191852">
        <ele>86.82623291015625</ele>
        <time>2026-08-08T11:52:22Z</time>
      </trkpt>
      <trkpt lat="34.830369924105916" lon="113.65517628020564">
        <ele>95.87122476100922</ele>
        <time>2026-08-08T11:52:26Z</time>
      </trkpt>
      <trkpt lat="34.83033462446079" lon="113.65522728374097">
        <ele>93.64642260596156</ele>
        <time>2026-08-08T11:52:30Z</time>
      </trkpt>
      <trkpt lat="34.830338659727275" lon="113.65533356211299">
        <ele>97.27562822587788</ele>
        <time>2026-08-08T11:52:36Z</time>
      </trkpt>
      <trkpt lat="34.83036697309355" lon="113.65543046617685">
        <ele>96.47604809127881</ele>
        <time>2026-08-08T11:52:42Z</time>
      </trkpt>
      <trkpt lat="34.830477289474906" lon="113.65530169878139">
        <ele>97.82342440914363</ele>
        <time>2026-08-08T11:52:45Z</time>
      </trkpt>
      <trkpt lat="34.83047876677393" lon="113.65536717812286">
        <ele>101.70664479862899</ele>
        <time>2026-08-08T11:53:12Z</time>
      </trkpt>
    </trkseg>
  </trk>
</gpx>