<?xml version="1.0" encoding="UTF-8"?>
<gpx xmlns="http://www.topografix.com/GPX/1/1" xmlns:gpxtpx="http://www.garmin.com/xmlschemas/TrackPointExtension/v1" xmlns:xsi="http://www.w3.org/2001/XMLSchema-instance" xsi:schemaLocation="http://www.topografix.com/GPX/1/1 http://www.topografix.com/GPX/1/1/gpx.xsd" version="1.1" creator="gpx.py -- https://github.com/tkrajina/gpxpy">
  <trk>
    <name>gpx from keep</name>
    <type>Ride</type>
    <trkseg>
      <trkpt lat="34.83256269693278" lon="113.65458363765096">
        <ele>83.228271484375</ele>
        <time>2026-10-03T09:46:29Z</time>
      </trkpt>
      <trkpt lat="34.8328230375889" lon="113.65447163642945">
        <ele>84.88282094709575</ele>
        <time>2026-10-03T09:46:41Z</time>
      </trkpt>
      <trkpt lat="34.83297326220629" lon="113.65435245501483">
        <ele>85.96397187188268</ele>
        <time>2026-10-03T09:46:47Z</time>
      </trkpt>
      <trkpt lat="34.83303824899716" lon="113.65414469484529">
        <ele>87.14098787400872</ele>
        <time>2026-10-03T09:46:53Z</time>
      </trkpt>
      <trkpt lat="34.832968330399765" lon="113.65412217073157">
        <ele>88.69868104718626</ele>
        <time>2026-10-03T09:46:58Z</time>
      </trkpt>
      <trkpt lat="34.832907733998425" lon="113.65417370800881">
        <ele>89.99383347854018</ele>
        <time>2026-10-03T09:47:01Z</time>
      </trkpt>
      <trkpt lat="34.832888857502745" lon="113.65427109174523">
        <ele>90.57697205711156</ele>
        <time>2026-10-03T09:47:06Z</time>
      </trkpt>
      <trkpt lat="34.8328499715778" lon="113.65418043168091">
        <ele>90.54922685865313</ele>
        <time>2026-10-03T09:47:13Z</time>
      </trkpt>
      <trkpt lat="34.83288070136517" lon="113.65380617726171">
        <ele>91.84370294585824</ele>
        <time>2026-10-03T09:47:27Z</time>
      </trkpt>
      <trkpt lat="34.832805565564094" lon="113.65360286584105">
        <ele>93.3985804002732</ele>
        <time>2026-10-03T09:47:35Z</time>
      </trkpt>
      <trkpt lat="34.83283053307786" lon="113.65351123446031">
        <ele>94.01054701395333</ele>
        <time>2026-10-03T09:47:40Z</time>
      </trkpt>
      <trkpt lat="34.83304698494438" lon="113.65324151834906">
        <ele>92.69063815847039</ele>
        <time>2026-10-03T09:47:57Z</time>
      </trkpt>
      <trkpt lat="34.83309374436743" lon="113.65315064425923">
        <ele>92.11857220251113</ele>
        <time>2026-10-03T09:48:01Z</time>
      </trkpt>
      <trkpt lat="34.83309675601183" lon="113.65305031695858">
        <ele>91.80416563525796</ele>
        <time>2026-10-03T09:48:05Z</time>
      </trkpt>
      <trkpt lat="34.83313950131203" lon="113.65295103379287">
        <ele>91.78478297870606</ele>
        <time>2026-10-03T09:48:09Z</time>
      </trkpt>
      <trkpt lat="34.83322512491419" lon="113.65290835729758">
        <ele>91.39217910915613</ele>
        <time>2026-10-03T09:48:12Z</time>
      </trkpt>
      <trkpt lat="34.833294039023386" lon="113.65284778247211">
        <ele>91.57000045198947</ele>
        <time>2026-10-03T09:48:14Z</time>
      </trkpt>
      <trkpt lat="34.833395977369534" lon="113.65282378459169">
        <ele>90.73485411517322</ele>
        <time>2026-10-03T09:48:17Z</time>
      </trkpt>
      <trkpt lat="34.833485361489195" lon="113.65276729436542">
        <ele>89.00038954243064</ele>
        <time>2026-10-03T09:48:20Z</time>
      </trkpt>
      <trkpt lat="34.833548078094445" lon="113.65267525487252">
        <ele>88.84289506264031</ele>
        <time>2026-10-03T09:48:23Z</time>
      </trkpt>
      <trkpt lat="34.83358023873512" lon="113.65255555075701">
        <ele>88.20134751219302</ele>
        <time>2026-10-03T09:48:26Z</time>
      </trkpt>
      <trkpt lat="34.833903468893176" lon="113.65224515506257">
        <ele>88.00377784110606</ele>
        <time>2026-10-03T09:48:37Z</time>
      </trkpt>
      <trkpt lat="34.83396776996102" lon="113.65216302918174">
        <ele>88.56832310184836</ele>
        <time>2026-10-03T09:48:39Z</time>
      </trkpt>
      <trkpt lat="34.834310973614635" lon="113.65189169256162">
        <ele>85.5902129728347</ele>
        <time>2026-10-03T09:48:51Z</time>
      </trkpt>
      <trkpt lat="34.834467470726445" lon="113.65181989593479">
        <ele>85.95213361736387</ele>
        <time>2026-10-03T09:48:57Z</time>
      </trkpt>
      <trkpt lat="34.834621546617726" lon="113.65177983631628">
        <ele>86.27802286949009</ele>
        <time>2026-10-03T09:49:06Z</time>
      </trkpt>
      <trkpt lat="34.83465404702184" lon="113.65169037260492">
        <ele>86.24208028428257</ele>
        <time>2026-10-03T09:49:12Z</time>
      </trkpt>
      <trkpt lat="34.83475702609093" lon="113.65155857102606">
        <ele>87.3549449890852</ele>
        <time>2026-10-03T09:49:20Z</time>
      </trkpt>
      <trkpt lat="34.834769997200816" lon="113.65145741269617">
        <ele>85.9469091873616</ele>
        <time>2026-10-03T09:49:24Z</time>
      </trkpt>
      <trkpt lat="34.83485773739515" lon="113.65139598745141">
        <ele>86.69686703756452</ele>
        <time>2026-10-03T09:49:28Z</time>
      </trkpt>
      <trkpt lat="34.83493952142161" lon="113.6513903718126">
        <ele>87.82474668417126</ele>
        <time>2026-10-03T09:49:31Z</time>
      </trkpt>
      <trkpt lat="34.8352035006083" lon="113.6512874553185">
        <ele>90.3950896114111</ele>
        <time>2026-10-03T09:49:42Z</time>
      </trkpt>
      <trkpt lat="34.83536299260927" lon="113.65136729255217">
        <ele>89.62381936516613</ele>
        <time>2026-10-03T09:49:54Z</time>
      </trkpt>
      <trkpt lat="34.83565579444996" lon="113.65122469961783">
        <ele>87.84921053890139</ele>
        <time>2026-10-03T09:50:03Z</time>
      </trkpt>
      <trkpt lat="34.83580537451507" lon="113.6512007474226">
        <ele>88.85999250039458</ele>
        <time>2026-10-03T09:50:07Z</time>
      </trkpt>
      <trkpt lat="34.83605326236655" lon="113.65111920108461">
        <ele>89.48320746421814</ele>
        <time>2026-10-03T09:50:13Z</time>
      </trkpt>
      <trkpt lat="34.836301087251684" lon="113.65101555842391">
        <ele>86.28409310616553</ele>
        <time>2026-10-03T09:50:19Z</time>
      </trkpt>
      <trkpt lat="34.83637906798765" lon="113.65100295462778">
        <ele>84.6030587060377</ele>
        <time>2026-10-03T09:50:21Z</time>
      </trkpt>
      <trkpt lat="34.83681324309559" lon="113.65074704261657">
        <ele>84.48033543862402</ele>
        <time>2026-10-03T09:50:34Z</time>
      </trkpt>
      <trkpt lat="34.83688399536804" lon="113.65069165816281">
        <ele>83.76282282546163</ele>
        <time>2026-10-03T09:50:36Z</time>
      </trkpt>
      <trkpt lat="34.8372263939478" lon="113.65057569300512">
        <ele>83.35343437921256</ele>
        <time>2026-10-03T09:50:45Z</time>
      </trkpt>
      <trkpt lat="34.83738238903498" lon="113.65056231158736">
        <ele>82.26279413700104</ele>
        <time>2026-10-03T09:50:49Z</time>
      </trkpt>
      <trkpt lat="34.83751168776594" lon="113.65059038471348">
        <ele>83.18800651282072</ele>
        <time>2026-10-03T09:50:53Z</time>
      </trkpt>
      <trkpt lat="34.83771899998624" lon="113.65054250813328">
        <ele>82.83333142288029</ele>
        <time>2026-10-03T09:50:59Z</time>
      </trkpt>
      <trkpt lat="34.837932011118056" lon="113.65045511210153">
        <ele>83.14805877488106</ele>
        <time>2026-10-03T09:51:05Z</time>
      </trkpt>
      <trkpt lat="34.8380737318671" lon="113.65034489591048">
        <ele>82.77347954548895</ele>
        <time>2026-10-03T09:51:10Z</time>
      </trkpt>
      <trkpt lat="34.83815764881338" lon="113.65030433277501">
        <ele>84.2105064522475</ele>
        <time>2026-10-03T09:51:13Z</time>
      </trkpt>
      <trkpt lat="34.83828858638497" lon="113.65016994960067">
        <ele>84.4043407002464</ele>
        <time>2026-10-03T09:51:16Z</time>
      </trkpt>
      <trkpt lat="34.83837190276657" lon="113.65017105458998">
        <ele>84.46492937486619</ele>
        <time>2026-10-03T09:51:20Z</time>
      </trkpt>
      <trkpt lat="34.83846216674866" lon="113.65011629658395">
        <ele>85.17115085292608</ele>
        <time>2026-10-03T09:51:22Z</time>
      </trkpt>
      <trkpt lat="34.83873732107076" lon="113.65003366296996">
        <ele>88.84196760039777</ele>
        <time>2026-10-03T09:51:30Z</time>
      </trkpt>
      <trkpt lat="34.83904335604434" lon="113.64981507109667">
        <ele>88.9081823322922</ele>
        <time>2026-10-03T09:51:40Z</time>
      </trkpt>
      <trkpt lat="34.83911297082075" lon="113.64973029387016">
        <ele>88.25394310802221</ele>
        <time>2026-10-03T09:51:43Z</time>
      </trkpt>
      <trkpt lat="34.839178736905325" lon="113.64957162994703">
        <ele>90.22572015691549</ele>
        <time>2026-10-03T09:51:56Z</time>
      </trkpt>
      <trkpt lat="34.839114412116814" lon="113.64929714059497">
        <ele>92.09220898523927</ele>
        <time>2026-10-03T09:52:10Z</time>
      </trkpt>
      <trkpt lat="34.83911596164037" lon="113.649193752049">
        <ele>93.2260932745412</ele>
        <time>2026-10-03T09:52:23Z</time>
      </trkpt>
      <trkpt lat="34.839143388341206" lon="113.64909529828665">
        <ele>93.4158695936203</ele>
        <time>2026-10-03T09:52:28Z</time>
      </trkpt>
      <trkpt lat="34.83899312813941" lon="113.6490304820153">
        <ele>91.92468741443008</ele>
        <time>2026-10-03T09:52:45Z</time>
      </trkpt>
      <trkpt lat="34.83897920157092" lon="113.6485380884811">
        <ele>91.7027585785836</ele>
        <time>2026-10-03T09:53:01Z</time>
      </trkpt>
      <trkpt lat="34.83899737621807" lon="113.6481767765088">
        <ele>92.5205770181492</ele>
        <time>2026-10-03T09:53:10Z</time>
      </trkpt>
      <trkpt lat="34.83902043356265" lon="113.64807352863635">
        <ele>92.06269547343254</ele>
        <time>2026-10-03T09:53:13Z</time>
      </trkpt>
      <trkpt lat="34.83901617251748" lon="113.64795805111861">
        <ele>92.5988475754857</ele>
        <time>2026-10-03T09:53:16Z</time>
      </trkpt>
      <trkpt lat="34.839043636386265" lon="113.64784797109391">
        <ele>92.57964980043471</ele>
        <time>2026-10-03T09:53:20Z</time>
      </trkpt>
      <trkpt lat="34.838976660917375" lon="113.64764320521388">
        <ele>95.11986393202096</ele>
        <time>2026-10-03T09:53:37Z</time>
      </trkpt>
      <trkpt lat="34.839030505274046" lon="113.64757875731316">
        <ele>95.40527021605521</ele>
        <time>2026-10-03T09:53:37Z</time>
      </trkpt>
      <trkpt lat="34.83902116799715" lon="113.64732975726382">
        <ele>95.11008071806282</ele>
        <time>2026-10-03T09:53:39Z</time>
      </trkpt>
      <trkpt lat="34.83893867686469" lon="113.64734375769967">
        <ele>93.0777279464528</ele>
        <time>2026-10-03T09:54:05Z</time>
      </trkpt>
    </trkseg>
  </trk>
</gpx>