<?xml version="1.0" encoding="UTF-8"?>
<gpx xmlns="http://www.topografix.com/GPX/1/1" xmlns:gpxtpx="http://www.garmin.com/xmlschemas/TrackPointExtension/v1" xmlns:xsi="http://www.w3.org/2001/XMLSchema-instance" xsi:schemaLocation="http://www.topografix.com/GPX/1/1 http://www.topografix.com/GPX/1/1/gpx.xsd" version="1.1" creator="gpx.py -- https://github.com/tkrajina/gpxpy">
  <trk>
    <name>gpx from keep</name>
    <type>Walk</type>
    <trkseg>
      <trkpt lat="34.838913487651425" lon="113.64883275972282">
        <ele>91.32403564453125</ele>
        <time>2026-08-22T15:14:51Z</time>
      </trkpt>
      <trkpt lat="34.838921596663326" lon="113.64899887378235">
        <ele>93.66823035199195</ele>
        <time>2026-08-22T15:15:00Z</time>
      </trkpt>
      <trkpt lat="34.83899156725611" lon="113.64909645701506">
        <ele>93.16669962927699</ele>
        <time>2026-08-22T15:15:03Z</time>
      </trkpt>
      <trkpt lat="34.83894840671152" lon="113.64911231235239">
        <ele>93.45331794396043</ele>
        <time>2026-08-22T15:15:06Z</time>
      </trkpt>
      <trkpt lat="34.83907542925771" lon="113.64914511399438">
        <ele>93.8400500016287</ele>
        <time>2026-08-22T15:15:15Z</time>
      </trkpt>
      <trkpt lat="34.83910018223477" lon="113.64929207030715">
        <ele>95.62652996368706</ele>
        <time>2026-08-22T15:15:24Z</time>
      </trkpt>
      <trkpt lat="34.83913371241251" lon="113.64935175761535">
        <ele>95.13285602815449</ele>
        <time>2026-08-22T15:15:30Z</time>
      </trkpt>
      <trkpt lat="34.839140196938416" lon="113.64941471710041">
        <ele>95.39774978719652</ele>
        <time>2026-08-22T15:15:51Z</time>
      </trkpt>
      <trkpt lat="34.839118294049406" lon="113.6495101926572">
        <ele>95.2671895492822</ele>
        <time>2026-08-22T15:15:54Z</time>
      </trkpt>
      <trkpt lat="34.839165773533466" lon="113.64956819282457">
        <ele>94.21256590262055</ele>
        <time>2026-08-22T15:16:00Z</time>
      </trkpt>
      <trkpt lat="34.83912701456456" lon="113.64966837414154">
        <ele>93.66039519198239</ele>
        <time>2026-08-22T15:16:06Z</time>
      </trkpt>
      <trkpt lat="34.8390752300797" lon="113.64970581019787">
        <ele>95.48507095500827</ele>
        <time>2026-08-22T15:16:09Z</time>
      </trkpt>
      <trkpt lat="34.83903715871417" lon="113.6497636091732">
        <ele>95.334981684573</ele>
        <time>2026-08-22T15:16:13Z</time>
      </trkpt>
      <trkpt lat="34.83872099594314" lon="113.64995415819186">
        <ele>90.27979688346386</ele>
        <time>2026-08-22T15:16:37Z</time>
      </trkpt>
      <trkpt lat="34.83857972093145" lon="113.65001020418605">
        <ele>88.26555655617267</ele>
        <time>2026-08-22T15:16:46Z</time>
      </trkpt>
      <trkpt lat="34.8385032686856" lon="113.65006846459865">
        <ele>87.41366714332253</ele>
        <time>2026-08-22T15:16:52Z</time>
      </trkpt>
      <trkpt lat="34.83823346043759" lon="113.6501466685509">
        <ele>87.56680271308869</ele>
        <time>2026-08-22T15:17:08Z</time>
      </trkpt>
      <trkpt lat="34.83817671345764" lon="113.65016073875559">
        <ele>87.83900043647736</ele>
        <time>2026-08-22T15:17:11Z</time>
      </trkpt>
      <trkpt lat="34.83802441649124" lon="113.65031669155542">
        <ele>87.85551062598825</ele>
        <time>2026-08-22T15:17:23Z</time>
      </trkpt>
      <trkpt lat="34.837757659678466" lon="113.6504673034719">
        <ele>86.89094782061875</ele>
        <time>2026-08-22T15:17:41Z</time>
      </trkpt>
      <trkpt lat="34.83755639797352" lon="113.65054357257935">
        <ele>89.10030656121671</ele>
        <time>2026-08-22T15:17:53Z</time>
      </trkpt>
      <trkpt lat="34.83728773937783" lon="113.65052327043496">
        <ele>87.59278517961502</ele>
        <time>2026-08-22T15:18:11Z</time>
      </trkpt>
      <trkpt lat="34.837109131851825" lon="113.65054379158211">
        <ele>87.71002888772637</ele>
        <time>2026-08-22T15:18:23Z</time>
      </trkpt>
      <trkpt lat="34.836875176155075" lon="113.65063104652386">
        <ele>88.6730620181188</ele>
        <time>2026-08-22T15:18:38Z</time>
      </trkpt>
      <trkpt lat="34.83661266632134" lon="113.65077340330303">
        <ele>89.60497541632503</ele>
        <time>2026-08-22T15:18:56Z</time>
      </trkpt>
      <trkpt lat="34.836560575747775" lon="113.65080421695481">
        <ele>89.03443754464388</ele>
        <time>2026-08-22T15:18:59Z</time>
      </trkpt>
      <trkpt lat="34.836458234867926" lon="113.65082738610066">
        <ele>89.0415326366201</ele>
        <time>2026-08-22T15:19:06Z</time>
      </trkpt>
      <trkpt lat="34.83629322056171" lon="113.6509154270087">
        <ele>88.16187435667962</ele>
        <time>2026-08-22T15:19:18Z</time>
      </trkpt>
      <trkpt lat="34.83609569101823" lon="113.65099304511112">
        <ele>88.52274598740041</ele>
        <time>2026-08-22T15:19:31Z</time>
      </trkpt>
      <trkpt lat="34.83583385417965" lon="113.6511189001598">
        <ele>89.38518069684505</ele>
        <time>2026-08-22T15:19:49Z</time>
      </trkpt>
      <trkpt lat="34.83569639319917" lon="113.6511662682804">
        <ele>87.32537791877985</ele>
        <time>2026-08-22T15:19:58Z</time>
      </trkpt>
      <trkpt lat="34.83573696790967" lon="113.65120310317651">
        <ele>88.47986375447363</ele>
        <time>2026-08-22T15:20:01Z</time>
      </trkpt>
      <trkpt lat="34.83568906892962" lon="113.65119927941662">
        <ele>89.9627896649763</ele>
        <time>2026-08-22T15:20:04Z</time>
      </trkpt>
      <trkpt lat="34.835426193759666" lon="113.65129170200224">
        <ele>90.29214366525412</ele>
        <time>2026-08-22T15:20:16Z</time>
      </trkpt>
      <trkpt lat="34.835328615628164" lon="113.65130032712071">
        <ele>89.58064216654748</ele>
        <time>2026-08-22T15:20:22Z</time>
      </trkpt>
      <trkpt lat="34.835253676352" lon="113.65117132163462">
        <ele>88.22070757113397</ele>
        <time>2026-08-22T15:20:28Z</time>
      </trkpt>
      <trkpt lat="34.83516701403315" lon="113.65122838571993">
        <ele>87.06415934022516</ele>
        <time>2026-08-22T15:20:34Z</time>
      </trkpt>
      <trkpt lat="34.83501677674045" lon="113.65125525187314">
        <ele>87.74629741255194</ele>
        <time>2026-08-22T15:20:43Z</time>
      </trkpt>
      <trkpt lat="34.83468876722327" lon="113.65137460971742">
        <ele>87.27926755137742</ele>
        <time>2026-08-22T15:21:04Z</time>
      </trkpt>
      <trkpt lat="34.834675573761885" lon="113.65144195288131">
        <ele>88.48744971212</ele>
        <time>2026-08-22T15:21:07Z</time>
      </trkpt>
      <trkpt lat="34.83468518397959" lon="113.6515164874353">
        <ele>89.17900545615703</ele>
        <time>2026-08-22T15:21:11Z</time>
      </trkpt>
      <trkpt lat="34.8346543502938" lon="113.65156146090443">
        <ele>88.49833816569299</ele>
        <time>2026-08-22T15:21:15Z</time>
      </trkpt>
      <trkpt lat="34.834432622694166" lon="113.651692089631">
        <ele>88.92105800192803</ele>
        <time>2026-08-22T15:21:31Z</time>
      </trkpt>
      <trkpt lat="34.83428945496229" lon="113.65170456028197">
        <ele>87.33833575621247</ele>
        <time>2026-08-22T15:21:39Z</time>
      </trkpt>
      <trkpt lat="34.83416724707032" lon="113.65179080586827">
        <ele>93.52887276280671</ele>
        <time>2026-08-22T15:21:48Z</time>
      </trkpt>
      <trkpt lat="34.83417578654114" lon="113.65186016842536">
        <ele>91.53095230553299</ele>
        <time>2026-08-22T15:21:54Z</time>
      </trkpt>
      <trkpt lat="34.83410771062934" lon="113.65196988429102">
        <ele>89.04328610189259</ele>
        <time>2026-08-22T15:22:00Z</time>
      </trkpt>
      <trkpt lat="34.833857827960856" lon="113.65219918213309">
        <ele>89.85896179825068</ele>
        <time>2026-08-22T15:22:18Z</time>
      </trkpt>
      <trkpt lat="34.83369625679743" lon="113.65232605443413">
        <ele>91.55835847835988</ele>
        <time>2026-08-22T15:22:30Z</time>
      </trkpt>
      <trkpt lat="34.83352551565293" lon="113.65255059153664">
        <ele>91.42575085815042</ele>
        <time>2026-08-22T15:22:45Z</time>
      </trkpt>
      <trkpt lat="34.83348379448088" lon="113.65268304111166">
        <ele>87.89894423168153</ele>
        <time>2026-08-22T15:22:51Z</time>
      </trkpt>
      <trkpt lat="34.83340256454529" lon="113.65275761894415">
        <ele>86.86649534851313</ele>
        <time>2026-08-22T15:22:57Z</time>
      </trkpt>
      <trkpt lat="34.83308546384988" lon="113.65276968435566">
        <ele>87.17052636668086</ele>
        <time>2026-08-22T15:23:16Z</time>
      </trkpt>
      <trkpt lat="34.8330204747205" lon="113.65278007126336">
        <ele>88.37650195136666</ele>
        <time>2026-08-22T15:23:20Z</time>
      </trkpt>
      <trkpt lat="34.832735263656105" lon="113.65294150128898">
        <ele>89.41949218418449</ele>
        <time>2026-08-22T15:23:40Z</time>
      </trkpt>
      <trkpt lat="34.832672391255855" lon="113.65296543562901">
        <ele>89.56630193348974</ele>
        <time>2026-08-22T15:23:44Z</time>
      </trkpt>
      <trkpt lat="34.83263336822775" lon="113.65301212163591">
        <ele>89.14221647568047</ele>
        <time>2026-08-22T15:23:47Z</time>
      </trkpt>
      <trkpt lat="34.832497569623975" lon="113.65307230126683">
        <ele>90.51759806647897</ele>
        <time>2026-08-22T15:23:56Z</time>
      </trkpt>
      <trkpt lat="34.83244710554881" lon="113.65311417821417">
        <ele>91.79268622491509</ele>
        <time>2026-08-22T15:24:02Z</time>
      </trkpt>
      <trkpt lat="34.832148580428886" lon="113.65314242609949">
        <ele>88.7766143642366</ele>
        <time>2026-08-22T15:24:23Z</time>
      </trkpt>
      <trkpt lat="34.83208017600779" lon="113.65315613649382">
        <ele>87.62710572779179</ele>
        <time>2026-08-22T15:24:26Z</time>
      </trkpt>
      <trkpt lat="34.83203326020627" lon="113.65320542633123">
        <ele>87.03082211781293</ele>
        <time>2026-08-22T15:24:29Z</time>
      </trkpt>
      <trkpt lat="34.83205188124152" lon="113.6533342619427">
        <ele>89.47692730091512</ele>
        <time>2026-08-22T15:24:35Z</time>
      </trkpt>
      <trkpt lat="34.83208153424323" lon="113.65342410807445">
        <ele>89.71525215823203</ele>
        <time>2026-08-22T15:24:38Z</time>
      </trkpt>
      <trkpt lat="34.83207158987387" lon="113.65347966021245">
        <ele>90.37100650090724</ele>
        <time>2026-08-22T15:24:41Z</time>
      </trkpt>
      <trkpt lat="34.832018449455425" lon="113.65350168496839">
        <ele>90.31219263374805</ele>
        <time>2026-08-22T15:24:44Z</time>
      </trkpt>
      <trkpt lat="34.8317689048455" lon="113.65353198407203">
        <ele>88.98563959542662</ele>
        <time>2026-08-22T15:24:59Z</time>
      </trkpt>
      <trkpt lat="34.83152956787831" lon="113.65351543648815">
        <ele>89.49994373973459</ele>
        <time>2026-08-22T15:25:17Z</time>
      </trkpt>
      <trkpt lat="34.83146238113971" lon="113.65348340057683">
        <ele>88.36851783655584</ele>
        <time>2026-08-22T15:25:20Z</time>
      </trkpt>
      <trkpt lat="34.83132609673986" lon="113.65349461233248">
        <ele>89.80125310644507</ele>
        <time>2026-08-22T15:25:28Z</time>
      </trkpt>
      <trkpt lat="34.83103606155654" lon="113.65368782932214">
        <ele>90.56756080966443</ele>
        <time>2026-08-22T15:25:48Z</time>
      </trkpt>
      <trkpt lat="34.83093267654663" lon="113.65371360715682">
        <ele>88.91232354007661</ele>
        <time>2026-08-22T15:25:54Z</time>
      </trkpt>
      <trkpt lat="34.830893970572916" lon="113.65374837940297">
        <ele>88.25597045756876</ele>
        <time>2026-08-22T15:25:57Z</time>
      </trkpt>
      <trkpt lat="34.830740040636584" lon="113.65380269598356">
        <ele>88.8978642039001</ele>
        <time>2026-08-22T15:26:06Z</time>
      </trkpt>
      <trkpt lat="34.830643710982145" lon="113.6537726823429">
        <ele>87.79620171152055</ele>
        <time>2026-08-22T15:26:15Z</time>
      </trkpt>
      <trkpt lat="34.83056509655082" lon="113.65377041102671">
        <ele>88.96875090897083</ele>
        <time>2026-08-22T15:26:18Z</time>
      </trkpt>
      <trkpt lat="34.83052382462767" lon="113.6538166003327">
        <ele>87.66028839163482</ele>
        <time>2026-08-22T15:26:21Z</time>
      </trkpt>
      <trkpt lat="34.830410089831794" lon="113.65412776327032">
        <ele>87.42755674384534</ele>
        <time>2026-08-22T15:26:36Z</time>
      </trkpt>
      <trkpt lat="34.83039620880485" lon="113.65427225583572">
        <ele>89.2663884870708</ele>
        <time>2026-08-22T15:26:42Z</time>
      </trkpt>
      <trkpt lat="34.830401558489" lon="113.65438415769262">
        <ele>89.49006987828761</ele>
        <time>2026-08-22T15:26:48Z</time>
      </trkpt>
      <trkpt lat="34.83037370602549" lon="113.65459538072065">
        <ele>88.70124397240579</ele>
        <time>2026-08-22T15:26:57Z</time>
      </trkpt>
      <trkpt lat="34.83037906722037" lon="113.65469722889264">
        <ele>89.11583600752056</ele>
        <time>2026-08-22T15:27:03Z</time>
      </trkpt>
      <trkpt lat="34.8303499230475" lon="113.65477830373095">
        <ele>90.11465166229755</ele>
        <time>2026-08-22T15:27:09Z</time>
      </trkpt>
      <trkpt lat="34.830360784918575" lon="113.65483712102512">
        <ele>90.42076869029552</ele>
        <time>2026-08-22T15:27:12Z</time>
      </trkpt>
      <trkpt lat="34.83032481439225" lon="113.65500671664901">
        <ele>88.29658782389015</ele>
        <time>2026-08-22T15:27:21Z</time>
      </trkpt>
      <trkpt lat="34.83031337224625" lon="113.65532717484226">
        <ele>86.88003580179065</ele>
        <time>2026-08-22T15:27:40Z</time>
      </trkpt>
      <trkpt lat="34.83027476785105" lon="113.6553824409755">
        <ele>87.52468929998577</ele>
        <time>2026-08-22T15:27:44Z</time>
      </trkpt>
      <trkpt lat="34.83007107075517" lon="113.65548850993619">
        <ele>88.9357582917437</ele>
        <time>2026-08-22T15:27:57Z</time>
      </trkpt>
      <trkpt lat="34.83011973506156" lon="113.65553917138708">
        <ele>88.52171590924263</ele>
        <time>2026-08-22T15:28:03Z</time>
      </trkpt>
      <trkpt lat="34.83005893949109" lon="113.65551821867042">
        <ele>88.4526287773624</ele>
        <time>2026-08-22T15:28:06Z</time>
      </trkpt>
      <trkpt lat="34.830063820534924" lon="113.65553448043939">
        <ele>88.40716625843197</ele>
        <time>2026-08-22T15:28:12Z</time>
      </trkpt>
      <trkpt lat="34.82978726944819" lon="113.65598691220664">
        <ele>88.44422551710159</ele>
        <time>2026-08-22T15:29:34Z</time>
      </trkpt>
      <trkpt lat="34.8297873571346" lon="113.65636043823156">
        <ele>86.16149224154651</ele>
        <time>2026-08-22T15:29:58Z</time>
      </trkpt>
      <trkpt lat="34.82975377678997" lon="113.65672778175097">
        <ele>85.83005713392049</ele>
        <time>2026-08-22T15:30:19Z</time>
      </trkpt>
      <trkpt lat="34.829738230609934" lon="113.65711199099361">
        <ele>86.1478293100372</ele>
        <time>2026-08-22T15:30:40Z</time>
      </trkpt>
      <trkpt lat="34.82973208067011" lon="113.65721224660935">
        <ele>85.97563415765762</ele>
        <time>2026-08-22T15:30:46Z</time>
      </trkpt>
      <trkpt lat="34.829745535195094" lon="113.65727921167415">
        <ele>85.82065655477345</ele>
        <time>2026-08-22T15:30:49Z</time>
      </trkpt>
      <trkpt lat="34.82972306550515" lon="113.65758187785654">
        <ele>85.96980214398354</ele>
        <time>2026-08-22T15:31:07Z</time>
      </trkpt>
      <trkpt lat="34.829696882990945" lon="113.65763591325451">
        <ele>85.98797349818051</ele>
        <time>2026-08-22T15:31:10Z</time>
      </trkpt>
      <trkpt lat="34.82965890162303" lon="113.65766905390142">
        <ele>85.75454799551517</ele>
        <time>2026-08-22T15:31:13Z</time>
      </trkpt>
      <trkpt lat="34.829641295499194" lon="113.65791655683255">
        <ele>84.69177811592817</ele>
        <time>2026-08-22T15:31:25Z</time>
      </trkpt>
      <trkpt lat="34.82959958837392" lon="113.6579754360396">
        <ele>86.3322988813743</ele>
        <time>2026-08-22T15:31:28Z</time>
      </trkpt>
      <trkpt lat="34.829570350813654" lon="113.65808636227943">
        <ele>88.21769985929132</ele>
        <time>2026-08-22T15:31:34Z</time>
      </trkpt>
      <trkpt lat="34.82957429379948" lon="113.65797868221642">
        <ele>89.41182773374021</ele>
        <time>2026-08-22T15:31:41Z</time>
      </trkpt>
      <trkpt lat="34.82943452428968" lon="113.6579588805274">
        <ele>89.72420631442219</ele>
        <time>2026-08-22T15:31:56Z</time>
      </trkpt>
      <trkpt lat="34.829292050771" lon="113.65800017619998">
        <ele>88.15777880698442</ele>
        <time>2026-08-22T15:32:05Z</time>
      </trkpt>
      <trkpt lat="34.829209209041736" lon="113.6581965566686">
        <ele>86.91062717419118</ele>
        <time>2026-08-22T15:32:14Z</time>
      </trkpt>
      <trkpt lat="34.829227031584864" lon="113.65830198304722">
        <ele>85.82284792605788</ele>
        <time>2026-08-22T15:32:20Z</time>
      </trkpt>
      <trkpt lat="34.82919818253126" lon="113.65838394081571">
        <ele>87.17456629499793</ele>
        <time>2026-08-22T15:32:23Z</time>
      </trkpt>
      <trkpt lat="34.829223591444766" lon="113.65858617694762">
        <ele>84.86722685582936</ele>
        <time>2026-08-22T15:32:32Z</time>
      </trkpt>
    </trkseg>
  </trk>
</gpx>