<?xml version="1.0" encoding="UTF-8"?>
<gpx xmlns="http://www.topografix.com/GPX/1/1" xmlns:gpxtpx="http://www.garmin.com/xmlschemas/TrackPointExtension/v1" xmlns:xsi="http://www.w3.org/2001/XMLSchema-instance" xsi:schemaLocation="http://www.topografix.com/GPX/1/1 http://www.topografix.com/GPX/1/1/gpx.xsd" version="1.1" creator="gpx.py -- https://github.com/tkrajina/gpxpy">
  <trk>
    <name>gpx from keep</name>
    <type>Run</type>
    <trkseg>
      <trkpt lat="34.82977632661969" lon="113.65715034345304">
        <ele>90.90070555359125</ele>
        <time>2026-08-20T00:49:11Z</time>
      </trkpt>
      <trkpt lat="34.82976757749451" lon="113.65678000630152">
        <ele>89.7550574587658</ele>
        <time>2026-08-20T00:49:22Z</time>
      </trkpt>
      <trkpt lat="34.82980135513508" lon="113.6564196912534">
        <ele>88.48704700917006</ele>
        <time>2026-08-20T00:49:35Z</time>
      </trkpt>
      <trkpt lat="34.829789328682686" lon="113.6562618532196">
        <ele>88.45711776334792</ele>
        <time>2026-08-20T00:49:42Z</time>
      </trkpt>
      <trkpt lat="34.829810395726156" lon="113.65606209905282">
        <ele>88.03497057128698</ele>
        <time>2026-08-20T00:49:50Z</time>
      </trkpt>
      <trkpt lat="34.82979901462525" lon="113.65573503621906">
        <ele>87.94199715275317</ele>
        <time>2026-08-20T00:50:08Z</time>
      </trkpt>
      <trkpt lat="34.829844206646094" lon="113.65556613269902">
        <ele>88.29045740328729</ele>
        <time>2026-08-20T00:50:16Z</time>
      </trkpt>
      <trkpt lat="34.82985783023788" lon="113.65558024330939">
        <ele>87.73250699881464</ele>
        <time>2026-08-20T00:50:23Z</time>
      </trkpt>
      <trkpt lat="34.82985410680403" lon="113.65558057032146">
        <ele>87.8762186029926</ele>
        <time>2026-08-20T00:50:25Z</time>
      </trkpt>
      <trkpt lat="34.830116703522485" lon="113.65552044547869">
        <ele>88.9008041806519</ele>
        <time>2026-08-20T00:50:40Z</time>
      </trkpt>
      <trkpt lat="34.830325117976194" lon="113.6553802155374">
        <ele>89.35858285985887</ele>
        <time>2026-08-20T00:50:51Z</time>
      </trkpt>
      <trkpt lat="34.830366225596855" lon="113.65524440463594">
        <ele>89.17258715257049</ele>
        <time>2026-08-20T00:50:57Z</time>
      </trkpt>
      <trkpt lat="34.83035681359735" lon="113.65512862483197">
        <ele>87.5158863440156</ele>
        <time>2026-08-20T00:51:01Z</time>
      </trkpt>
      <trkpt lat="34.83038277923429" lon="113.65480860284005">
        <ele>88.27136947121471</ele>
        <time>2026-08-20T00:51:13Z</time>
      </trkpt>
      <trkpt lat="34.830346424991475" lon="113.65473414774252">
        <ele>88.0038684066385</ele>
        <time>2026-08-20T00:51:16Z</time>
      </trkpt>
      <trkpt lat="34.830401369123734" lon="113.65437149869433">
        <ele>89.34323015157133</ele>
        <time>2026-08-20T00:51:31Z</time>
      </trkpt>
      <trkpt lat="34.83043453382315" lon="113.6541484630132">
        <ele>89.00855455733836</ele>
        <time>2026-08-20T00:51:40Z</time>
      </trkpt>
      <trkpt lat="34.830530857367854" lon="113.65385470915776">
        <ele>88.70663597248495</ele>
        <time>2026-08-20T00:51:52Z</time>
      </trkpt>
      <trkpt lat="34.830574380551965" lon="113.65379947428346">
        <ele>87.86025792080909</ele>
        <time>2026-08-20T00:51:55Z</time>
      </trkpt>
      <trkpt lat="34.83077045104106" lon="113.65380758094194">
        <ele>89.71547229681164</ele>
        <time>2026-08-20T00:52:04Z</time>
      </trkpt>
      <trkpt lat="34.830966467657404" lon="113.65374750553157">
        <ele>91.10070398263633</ele>
        <time>2026-08-20T00:52:13Z</time>
      </trkpt>
      <trkpt lat="34.8310176664759" lon="113.65370821360472">
        <ele>90.9492698609829</ele>
        <time>2026-08-20T00:52:16Z</time>
      </trkpt>
      <trkpt lat="34.83108375638704" lon="113.65369943169433">
        <ele>91.17746244370937</ele>
        <time>2026-08-20T00:52:19Z</time>
      </trkpt>
      <trkpt lat="34.83122402781808" lon="113.6535981538877">
        <ele>89.94824058189988</ele>
        <time>2026-08-20T00:52:28Z</time>
      </trkpt>
      <trkpt lat="34.831416515412116" lon="113.6535197450786">
        <ele>91.19248363748193</ele>
        <time>2026-08-20T00:52:37Z</time>
      </trkpt>
      <trkpt lat="34.83172568732989" lon="113.65352602437906">
        <ele>90.11974165588617</ele>
        <time>2026-08-20T00:52:52Z</time>
      </trkpt>
      <trkpt lat="34.83190780114088" lon="113.65352667256812">
        <ele>90.41758306510746</ele>
        <time>2026-08-20T00:53:01Z</time>
      </trkpt>
      <trkpt lat="34.83204723548982" lon="113.6534664567071">
        <ele>90.73731594253331</ele>
        <time>2026-08-20T00:53:08Z</time>
      </trkpt>
      <trkpt lat="34.83210021653938" lon="113.65340157320696">
        <ele>91.1348245376721</ele>
        <time>2026-08-20T00:53:12Z</time>
      </trkpt>
      <trkpt lat="34.832069175600324" lon="113.65333656349631">
        <ele>90.18038804084063</ele>
        <time>2026-08-20T00:53:15Z</time>
      </trkpt>
      <trkpt lat="34.83205758979672" lon="113.6532066230804">
        <ele>89.02400121744722</ele>
        <time>2026-08-20T00:53:21Z</time>
      </trkpt>
      <trkpt lat="34.83210665267845" lon="113.65316660015505">
        <ele>88.35756291728467</ele>
        <time>2026-08-20T00:53:24Z</time>
      </trkpt>
      <trkpt lat="34.83216986241988" lon="113.65314420606636">
        <ele>88.58794483356178</ele>
        <time>2026-08-20T00:53:27Z</time>
      </trkpt>
      <trkpt lat="34.832403454723426" lon="113.65314897484002">
        <ele>89.38066712766886</ele>
        <time>2026-08-20T00:53:39Z</time>
      </trkpt>
      <trkpt lat="34.83257656769974" lon="113.65307666500242">
        <ele>89.43975070025772</ele>
        <time>2026-08-20T00:53:48Z</time>
      </trkpt>
      <trkpt lat="34.83287332089714" lon="113.65290171706984">
        <ele>89.10667600203305</ele>
        <time>2026-08-20T00:54:03Z</time>
      </trkpt>
      <trkpt lat="34.83296847884522" lon="113.65283506737546">
        <ele>89.79899638146162</ele>
        <time>2026-08-20T00:54:09Z</time>
      </trkpt>
      <trkpt lat="34.833285823660844" lon="113.65279681426469">
        <ele>89.711201203987</ele>
        <time>2026-08-20T00:54:24Z</time>
      </trkpt>
      <trkpt lat="34.83348788777731" lon="113.65273927561061">
        <ele>90.39421694912016</ele>
        <time>2026-08-20T00:54:33Z</time>
      </trkpt>
      <trkpt lat="34.833597549723436" lon="113.6526568309471">
        <ele>90.20233371388167</ele>
        <time>2026-08-20T00:54:39Z</time>
      </trkpt>
      <trkpt lat="34.833778031679046" lon="113.65260406911185">
        <ele>90.45211502164602</ele>
        <time>2026-08-20T00:54:48Z</time>
      </trkpt>
      <trkpt lat="34.8340983500507" lon="113.65253377675951">
        <ele>91.50039362721145</ele>
        <time>2026-08-20T00:55:03Z</time>
      </trkpt>
      <trkpt lat="34.83441062312222" lon="113.65241696875157">
        <ele>90.98554899170995</ele>
        <time>2026-08-20T00:55:19Z</time>
      </trkpt>
      <trkpt lat="34.834532442330605" lon="113.65236817848987">
        <ele>90.52673131320626</ele>
        <time>2026-08-20T00:55:25Z</time>
      </trkpt>
      <trkpt lat="34.83458622852138" lon="113.65232893992768">
        <ele>90.64731350820512</ele>
        <time>2026-08-20T00:55:28Z</time>
      </trkpt>
      <trkpt lat="34.83478001914167" lon="113.65229127189625">
        <ele>90.67161664459854</ele>
        <time>2026-08-20T00:55:37Z</time>
      </trkpt>
      <trkpt lat="34.83483645706415" lon="113.6522413143994">
        <ele>90.86794843990356</ele>
        <time>2026-08-20T00:55:40Z</time>
      </trkpt>
      <trkpt lat="34.83515384561136" lon="113.6521175798528">
        <ele>91.5655015707016</ele>
        <time>2026-08-20T00:55:55Z</time>
      </trkpt>
      <trkpt lat="34.83541467819222" lon="113.65201847464726">
        <ele>91.78050761390477</ele>
        <time>2026-08-20T00:56:07Z</time>
      </trkpt>
      <trkpt lat="34.835657360696224" lon="113.65190247669388">
        <ele>91.79324511345476</ele>
        <time>2026-08-20T00:56:19Z</time>
      </trkpt>
      <trkpt lat="34.83570825680171" lon="113.65185871632262">
        <ele>91.65206456929445</ele>
        <time>2026-08-20T00:56:22Z</time>
      </trkpt>
      <trkpt lat="34.83570273566693" lon="113.65178510276972">
        <ele>90.86107912659645</ele>
        <time>2026-08-20T00:56:25Z</time>
      </trkpt>
      <trkpt lat="34.835568603332355" lon="113.6516140077807">
        <ele>92.20297663286328</ele>
        <time>2026-08-20T00:56:37Z</time>
      </trkpt>
      <trkpt lat="34.83556273834689" lon="113.6512883305349">
        <ele>89.72526406589895</ele>
        <time>2026-08-20T00:56:49Z</time>
      </trkpt>
      <trkpt lat="34.83560113063964" lon="113.65124263937072">
        <ele>89.21635226346552</ele>
        <time>2026-08-20T00:56:52Z</time>
      </trkpt>
      <trkpt lat="34.83575702272947" lon="113.6512161952544">
        <ele>89.98790655937046</ele>
        <time>2026-08-20T00:56:58Z</time>
      </trkpt>
      <trkpt lat="34.83605830047592" lon="113.6510876616944">
        <ele>89.39102028217167</ele>
        <time>2026-08-20T00:57:13Z</time>
      </trkpt>
      <trkpt lat="34.83609751938398" lon="113.65105832797505">
        <ele>89.56847567111254</ele>
        <time>2026-08-20T00:57:16Z</time>
      </trkpt>
      <trkpt lat="34.836239681781926" lon="113.6510156764588">
        <ele>89.04998637549579</ele>
        <time>2026-08-20T00:57:24Z</time>
      </trkpt>
      <trkpt lat="34.836557932308295" lon="113.65086938511875">
        <ele>88.45691298134625</ele>
        <time>2026-08-20T00:57:41Z</time>
      </trkpt>
      <trkpt lat="34.836839753989544" lon="113.65073588746816">
        <ele>88.28731949720532</ele>
        <time>2026-08-20T00:57:56Z</time>
      </trkpt>
      <trkpt lat="34.83710888199245" lon="113.6506116820782">
        <ele>88.81673052813858</ele>
        <time>2026-08-20T00:58:11Z</time>
      </trkpt>
      <trkpt lat="34.8371779494449" lon="113.65060226355789">
        <ele>89.49952733423561</ele>
        <time>2026-08-20T00:58:14Z</time>
      </trkpt>
      <trkpt lat="34.837217399406086" lon="113.65057524882033">
        <ele>88.85476826224476</ele>
        <time>2026-08-20T00:58:17Z</time>
      </trkpt>
      <trkpt lat="34.837397223571834" lon="113.650572474292">
        <ele>88.62154087051749</ele>
        <time>2026-08-20T00:58:26Z</time>
      </trkpt>
      <trkpt lat="34.83758323967489" lon="113.65060768632443">
        <ele>89.48682158347219</ele>
        <time>2026-08-20T00:58:35Z</time>
      </trkpt>
      <trkpt lat="34.83770735901124" lon="113.65056287249321">
        <ele>89.31158078741282</ele>
        <time>2026-08-20T00:58:41Z</time>
      </trkpt>
      <trkpt lat="34.83775559484215" lon="113.65051794596418">
        <ele>88.74740844592452</ele>
        <time>2026-08-20T00:58:44Z</time>
      </trkpt>
      <trkpt lat="34.83791609156949" lon="113.65048061554238">
        <ele>89.16773976292461</ele>
        <time>2026-08-20T00:58:50Z</time>
      </trkpt>
      <trkpt lat="34.837995223020975" lon="113.65063729890363">
        <ele>87.94299957342446</ele>
        <time>2026-08-20T00:58:56Z</time>
      </trkpt>
      <trkpt lat="34.838060687822626" lon="113.65068231472117">
        <ele>88.45854750927538</ele>
        <time>2026-08-20T00:58:59Z</time>
      </trkpt>
      <trkpt lat="34.838210982430496" lon="113.65051131663022">
        <ele>88.78426438290626</ele>
        <time>2026-08-20T00:59:08Z</time>
      </trkpt>
      <trkpt lat="34.838204207636394" lon="113.65053792437855">
        <ele>88.1514501189813</ele>
        <time>2026-08-20T00:59:51Z</time>
      </trkpt>
    </trkseg>
  </trk>
</gpx>