<?xml version="1.0" encoding="UTF-8"?>
<gpx xmlns="http://www.topografix.com/GPX/1/1" xmlns:gpxtpx="http://www.garmin.com/xmlschemas/TrackPointExtension/v1" xmlns:xsi="http://www.w3.org/2001/XMLSchema-instance" xsi:schemaLocation="http://www.topografix.com/GPX/1/1 http://www.topografix.com/GPX/1/1/gpx.xsd" version="1.1" creator="gpx.py -- https://github.com/tkrajina/gpxpy">
  <trk>
    <name>gpx from keep</name>
    <type>Run</type>
    <trkseg>
      <trkpt lat="34.83024021096235" lon="113.65687450294095">
        <ele>138.20367431640625</ele>
        <time>2026-07-27T04:36:03Z</time>
      </trkpt>
      <trkpt lat="34.83003032031871" lon="113.65678299454703">
        <ele>132.73116527684033</ele>
        <time>2026-07-27T04:36:10Z</time>
      </trkpt>
      <trkpt lat="34.83002523538466" lon="113.65665265094478">
        <ele>112.47953242342919</ele>
        <time>2026-07-27T04:36:14Z</time>
      </trkpt>
      <trkpt lat="34.82979599564572" lon="113.65671803597674">
        <ele>104.15856700204313</ele>
        <time>2026-07-27T04:36:18Z</time>
      </trkpt>
      <trkpt lat="34.829829235676705" lon="113.65651617440754">
        <ele>115.72695385292172</ele>
        <time>2026-07-27T04:36:26Z</time>
      </trkpt>
      <trkpt lat="34.829794902848306" lon="113.65647715562262">
        <ele>92.42513818852603</ele>
        <time>2026-07-27T04:36:30Z</time>
      </trkpt>
      <trkpt lat="34.82985401398345" lon="113.65633550344886">
        <ele>89.49847200792283</ele>
        <time>2026-07-27T04:36:37Z</time>
      </trkpt>
      <trkpt lat="34.82984969633728" lon="113.65621018214034">
        <ele>88.13608170393854</ele>
        <time>2026-07-27T04:36:40Z</time>
      </trkpt>
      <trkpt lat="34.82987243838946" lon="113.65613208729125">
        <ele>86.64470576494932</ele>
        <time>2026-07-27T04:36:43Z</time>
      </trkpt>
      <trkpt lat="34.82986385168584" lon="113.65609369261584">
        <ele>85.5089700743556</ele>
        <time>2026-07-27T04:36:47Z</time>
      </trkpt>
      <trkpt lat="34.8303598731481" lon="113.6559036984662">
        <ele>81.18812626227736</ele>
        <time>2026-07-27T04:37:20Z</time>
      </trkpt>
      <trkpt lat="34.8303868163322" lon="113.65595511572549">
        <ele>81.0816980144009</ele>
        <time>2026-07-27T04:37:23Z</time>
      </trkpt>
      <trkpt lat="34.83038668833397" lon="113.65603911216279">
        <ele>81.18121370021254</ele>
        <time>2026-07-27T04:37:26Z</time>
      </trkpt>
      <trkpt lat="34.83045071859372" lon="113.65616703446408">
        <ele>80.63978523854166</ele>
        <time>2026-07-27T04:37:33Z</time>
      </trkpt>
      <trkpt lat="34.83058204285931" lon="113.65623550441622">
        <ele>80.1783033395186</ele>
        <time>2026-07-27T04:37:41Z</time>
      </trkpt>
      <trkpt lat="34.83079698296679" lon="113.65621480766411">
        <ele>81.5243275091052</ele>
        <time>2026-07-27T04:37:52Z</time>
      </trkpt>
      <trkpt lat="34.83087584365065" lon="113.65615945239318">
        <ele>81.34407078847289</ele>
        <time>2026-07-27T04:37:58Z</time>
      </trkpt>
      <trkpt lat="34.83099579397111" lon="113.65612843666797">
        <ele>81.8884127419442</ele>
        <time>2026-07-27T04:38:05Z</time>
      </trkpt>
      <trkpt lat="34.83124581179909" lon="113.6561880004784">
        <ele>82.6527051301673</ele>
        <time>2026-07-27T04:38:18Z</time>
      </trkpt>
      <trkpt lat="34.83137367553348" lon="113.65626096213597">
        <ele>83.58489135187119</ele>
        <time>2026-07-27T04:38:24Z</time>
      </trkpt>
      <trkpt lat="34.83144299106041" lon="113.65625352086036">
        <ele>84.269161936827</ele>
        <time>2026-07-27T04:38:27Z</time>
      </trkpt>
      <trkpt lat="34.831577594018036" lon="113.65632375645131">
        <ele>84.56976026576012</ele>
        <time>2026-07-27T04:38:33Z</time>
      </trkpt>
      <trkpt lat="34.831631768922364" lon="113.65629634980087">
        <ele>83.94932136591524</ele>
        <time>2026-07-27T04:38:36Z</time>
      </trkpt>
      <trkpt lat="34.83169290694091" lon="113.6561630325191">
        <ele>85.65281954035163</ele>
        <time>2026-07-27T04:38:42Z</time>
      </trkpt>
      <trkpt lat="34.83174235976318" lon="113.65611193348592">
        <ele>86.22741226106882</ele>
        <time>2026-07-27T04:38:45Z</time>
      </trkpt>
      <trkpt lat="34.83180091585658" lon="113.65608479922392">
        <ele>86.39226518571377</ele>
        <time>2026-07-27T04:38:48Z</time>
      </trkpt>
      <trkpt lat="34.832117248131865" lon="113.65610577839756">
        <ele>86.59493618551642</ele>
        <time>2026-07-27T04:39:03Z</time>
      </trkpt>
      <trkpt lat="34.832261171184456" lon="113.65614746149059">
        <ele>86.89199323020875</ele>
        <time>2026-07-27T04:39:09Z</time>
      </trkpt>
      <trkpt lat="34.83239868473534" lon="113.65612410383955">
        <ele>86.1563449120149</ele>
        <time>2026-07-27T04:39:15Z</time>
      </trkpt>
      <trkpt lat="34.832565767965086" lon="113.65600563730216">
        <ele>87.5882094874978</ele>
        <time>2026-07-27T04:39:24Z</time>
      </trkpt>
      <trkpt lat="34.83265703209326" lon="113.65589209553906">
        <ele>87.97245422191918</ele>
        <time>2026-07-27T04:39:30Z</time>
      </trkpt>
      <trkpt lat="34.832708999960275" lon="113.65585943305175">
        <ele>87.00317940954119</ele>
        <time>2026-07-27T04:39:33Z</time>
      </trkpt>
      <trkpt lat="34.83277207221021" lon="113.65587600202741">
        <ele>86.67212269362062</ele>
        <time>2026-07-27T04:39:36Z</time>
      </trkpt>
      <trkpt lat="34.833001175110006" lon="113.65617421842742">
        <ele>88.66137419361621</ele>
        <time>2026-07-27T04:39:51Z</time>
      </trkpt>
      <trkpt lat="34.83328956229911" lon="113.65633813537028">
        <ele>88.78641912806779</ele>
        <time>2026-07-27T04:40:06Z</time>
      </trkpt>
      <trkpt lat="34.833572951174524" lon="113.65635467978373">
        <ele>87.92779674194753</ele>
        <time>2026-07-27T04:40:20Z</time>
      </trkpt>
      <trkpt lat="34.83368621928609" lon="113.65631665384483">
        <ele>87.28240146581084</ele>
        <time>2026-07-27T04:40:26Z</time>
      </trkpt>
      <trkpt lat="34.83390834754415" lon="113.65620819902307">
        <ele>88.62992053944618</ele>
        <time>2026-07-27T04:40:38Z</time>
      </trkpt>
      <trkpt lat="34.83415303886166" lon="113.65599840644558">
        <ele>88.28803837392479</ele>
        <time>2026-07-27T04:40:53Z</time>
      </trkpt>
      <trkpt lat="34.834247762366246" lon="113.65580687812832">
        <ele>88.44456581305712</ele>
        <time>2026-07-27T04:41:02Z</time>
      </trkpt>
      <trkpt lat="34.83427962102638" lon="113.65565897641467">
        <ele>88.81017126049846</ele>
        <time>2026-07-27T04:41:08Z</time>
      </trkpt>
      <trkpt lat="34.83427993219031" lon="113.65544332801115">
        <ele>89.28718244191259</ele>
        <time>2026-07-27T04:41:17Z</time>
      </trkpt>
      <trkpt lat="34.83415825556719" lon="113.65513276592029">
        <ele>89.81158321816474</ele>
        <time>2026-07-27T04:41:32Z</time>
      </trkpt>
      <trkpt lat="34.834130211307546" lon="113.65507365199991">
        <ele>89.48280787747353</ele>
        <time>2026-07-27T04:41:35Z</time>
      </trkpt>
      <trkpt lat="34.83404967456196" lon="113.65499117896282">
        <ele>88.04309236165136</ele>
        <time>2026-07-27T04:41:41Z</time>
      </trkpt>
      <trkpt lat="34.833766276247175" lon="113.65485143022062">
        <ele>88.75536402221769</ele>
        <time>2026-07-27T04:41:56Z</time>
      </trkpt>
      <trkpt lat="34.83358324442319" lon="113.65484131268379">
        <ele>88.03952887561172</ele>
        <time>2026-07-27T04:42:05Z</time>
      </trkpt>
      <trkpt lat="34.833434863942834" lon="113.65488407686243">
        <ele>88.11053398251534</ele>
        <time>2026-07-27T04:42:14Z</time>
      </trkpt>
      <trkpt lat="34.83331867498955" lon="113.65497490266367">
        <ele>88.83897794503719</ele>
        <time>2026-07-27T04:42:21Z</time>
      </trkpt>
      <trkpt lat="34.83327200149084" lon="113.65506679402473">
        <ele>88.10824274923652</ele>
        <time>2026-07-27T04:42:25Z</time>
      </trkpt>
      <trkpt lat="34.83320056056842" lon="113.65514658232857">
        <ele>87.5583306690678</ele>
        <time>2026-07-27T04:42:29Z</time>
      </trkpt>
      <trkpt lat="34.83317400797108" lon="113.65521168101654">
        <ele>88.08365907520056</ele>
        <time>2026-07-27T04:42:33Z</time>
      </trkpt>
      <trkpt lat="34.83301239982045" lon="113.65535619740591">
        <ele>88.76028682477772</ele>
        <time>2026-07-27T04:42:42Z</time>
      </trkpt>
      <trkpt lat="34.832805511410676" lon="113.65530798657765">
        <ele>89.43886479362845</ele>
        <time>2026-07-27T04:42:51Z</time>
      </trkpt>
      <trkpt lat="34.83276083885993" lon="113.65527793929121">
        <ele>89.11668754834682</ele>
        <time>2026-07-27T04:42:54Z</time>
      </trkpt>
      <trkpt lat="34.83270547502041" lon="113.65519628757008">
        <ele>89.3516411697492</ele>
        <time>2026-07-27T04:43:00Z</time>
      </trkpt>
      <trkpt lat="34.83259871270968" lon="113.65513203116346">
        <ele>89.18842874560505</ele>
        <time>2026-07-27T04:43:06Z</time>
      </trkpt>
      <trkpt lat="34.83243712970254" lon="113.65509007025295">
        <ele>88.81722209230065</ele>
        <time>2026-07-27T04:43:12Z</time>
      </trkpt>
      <trkpt lat="34.832334596523665" lon="113.65515650865801">
        <ele>88.66491235792637</ele>
        <time>2026-07-27T04:43:18Z</time>
      </trkpt>
      <trkpt lat="34.832213148185815" lon="113.65536010575451">
        <ele>87.98555275704712</ele>
        <time>2026-07-27T04:43:36Z</time>
      </trkpt>
      <trkpt lat="34.8321520644227" lon="113.65563766560714">
        <ele>89.71054135356098</ele>
        <time>2026-07-27T04:43:39Z</time>
      </trkpt>
      <trkpt lat="34.832032475134966" lon="113.65571271729932">
        <ele>90.64392016641796</ele>
        <time>2026-07-27T04:43:45Z</time>
      </trkpt>
      <trkpt lat="34.83198636548734" lon="113.65576029387591">
        <ele>90.20230300910771</ele>
        <time>2026-07-27T04:43:48Z</time>
      </trkpt>
      <trkpt lat="34.831913023372316" lon="113.65596876889936">
        <ele>89.34879984240979</ele>
        <time>2026-07-27T04:43:57Z</time>
      </trkpt>
      <trkpt lat="34.83181209423883" lon="113.65603691070906">
        <ele>89.10019902978092</ele>
        <time>2026-07-27T04:44:03Z</time>
      </trkpt>
      <trkpt lat="34.8316155756164" lon="113.6561971462368">
        <ele>88.08368860371411</ele>
        <time>2026-07-27T04:44:15Z</time>
      </trkpt>
      <trkpt lat="34.83144141516813" lon="113.6563162418235">
        <ele>87.41634690016508</ele>
        <time>2026-07-27T04:44:25Z</time>
      </trkpt>
      <trkpt lat="34.831378188478254" lon="113.65637702296802">
        <ele>87.21825018525124</ele>
        <time>2026-07-27T04:44:29Z</time>
      </trkpt>
      <trkpt lat="34.83130353751234" lon="113.65641402430929">
        <ele>86.8286068290472</ele>
        <time>2026-07-27T04:44:33Z</time>
      </trkpt>
      <trkpt lat="34.83115053924503" lon="113.65640881895722">
        <ele>86.19705744180828</ele>
        <time>2026-07-27T04:44:40Z</time>
      </trkpt>
      <trkpt lat="34.83109731994746" lon="113.65643161652751">
        <ele>86.52880398090929</ele>
        <time>2026-07-27T04:44:43Z</time>
      </trkpt>
      <trkpt lat="34.831017747222894" lon="113.65651659373005">
        <ele>87.211968222633</ele>
        <time>2026-07-27T04:44:49Z</time>
      </trkpt>
      <trkpt lat="34.830930470627614" lon="113.65652668808394">
        <ele>87.2369562536478</ele>
        <time>2026-07-27T04:44:52Z</time>
      </trkpt>
      <trkpt lat="34.83069576635001" lon="113.65635485210362">
        <ele>86.82150287367404</ele>
        <time>2026-07-27T04:45:07Z</time>
      </trkpt>
      <trkpt lat="34.83066730755356" lon="113.65630404720504">
        <ele>86.92622123006731</ele>
        <time>2026-07-27T04:45:10Z</time>
      </trkpt>
      <trkpt lat="34.83050960387335" lon="113.65625483745174">
        <ele>86.11729617696255</ele>
        <time>2026-07-27T04:45:19Z</time>
      </trkpt>
      <trkpt lat="34.83038465702718" lon="113.65595718784006">
        <ele>85.61397218517959</ele>
        <time>2026-07-27T04:45:34Z</time>
      </trkpt>
      <trkpt lat="34.83032212160295" lon="113.65582116802507">
        <ele>86.88853762485087</ele>
        <time>2026-07-27T04:45:40Z</time>
      </trkpt>
      <trkpt lat="34.83032862220574" lon="113.65544411757526">
        <ele>88.34120110236108</ele>
        <time>2026-07-27T04:45:55Z</time>
      </trkpt>
      <trkpt lat="34.830351953694006" lon="113.65531909148035">
        <ele>88.73292640969157</ele>
        <time>2026-07-27T04:46:01Z</time>
      </trkpt>
      <trkpt lat="34.8303950350935" lon="113.65525984475674">
        <ele>89.10430526640266</ele>
        <time>2026-07-27T04:46:04Z</time>
      </trkpt>
      <trkpt lat="34.83045496426725" lon="113.65523288045621">
        <ele>89.59134402871132</ele>
        <time>2026-07-27T04:46:07Z</time>
      </trkpt>
      <trkpt lat="34.83065692697272" lon="113.655018941358">
        <ele>90.55465646460652</ele>
        <time>2026-07-27T04:46:22Z</time>
      </trkpt>
      <trkpt lat="34.83070197871046" lon="113.65498910402881">
        <ele>90.3734180368483</ele>
        <time>2026-07-27T04:46:25Z</time>
      </trkpt>
      <trkpt lat="34.83098523436509" lon="113.6550733554178">
        <ele>90.72577022016048</ele>
        <time>2026-07-27T04:46:40Z</time>
      </trkpt>
      <trkpt lat="34.83102646321855" lon="113.65511582969876">
        <ele>90.32972543127835</ele>
        <time>2026-07-27T04:46:44Z</time>
      </trkpt>
      <trkpt lat="34.831001973652604" lon="113.6551622326762">
        <ele>89.71001853141934</ele>
        <time>2026-07-27T04:46:47Z</time>
      </trkpt>
      <trkpt lat="34.83069299734128" lon="113.65528172725264">
        <ele>90.6302248518914</ele>
        <time>2026-07-27T04:47:02Z</time>
      </trkpt>
      <trkpt lat="34.83057694244826" lon="113.6553204237904">
        <ele>89.39115055650473</ele>
        <time>2026-07-27T04:47:08Z</time>
      </trkpt>
      <trkpt lat="34.83053277384708" lon="113.65537254044764">
        <ele>89.66449960786849</ele>
        <time>2026-07-27T04:47:11Z</time>
      </trkpt>
      <trkpt lat="34.830438475301" lon="113.65541833294">
        <ele>89.59017337393016</ele>
        <time>2026-07-27T04:47:14Z</time>
      </trkpt>
      <trkpt lat="34.83028581646488" lon="113.65544430699869">
        <ele>88.82803714554757</ele>
        <time>2026-07-27T04:47:20Z</time>
      </trkpt>
      <trkpt lat="34.8300700162738" lon="113.65553993174902">
        <ele>89.70082244370133</ele>
        <time>2026-07-27T04:47:29Z</time>
      </trkpt>
      <trkpt lat="34.82985825062223" lon="113.6555813392285">
        <ele>90.2341318950057</ele>
        <time>2026-07-27T04:47:38Z</time>
      </trkpt>
      <trkpt lat="34.82981933158325" lon="113.65552019273666">
        <ele>89.9587624501437</ele>
        <time>2026-07-27T04:47:41Z</time>
      </trkpt>
      <trkpt lat="34.8298609865876" lon="113.6551654569907">
        <ele>90.5339140444994</ele>
        <time>2026-07-27T04:47:56Z</time>
      </trkpt>
      <trkpt lat="34.82986078314299" lon="113.65505764510841">
        <ele>90.45191234350204</ele>
        <time>2026-07-27T04:48:02Z</time>
      </trkpt>
      <trkpt lat="34.82979231549528" lon="113.65504364324342">
        <ele>90.31629590410739</ele>
        <time>2026-07-27T04:48:08Z</time>
      </trkpt>
      <trkpt lat="34.829501937494705" lon="113.65516861778167">
        <ele>88.25777035672218</ele>
        <time>2026-07-27T04:48:26Z</time>
      </trkpt>
      <trkpt lat="34.82919791114328" lon="113.65529919813501">
        <ele>86.92979403864592</ele>
        <time>2026-07-27T04:48:43Z</time>
      </trkpt>
      <trkpt lat="34.82893005180312" lon="113.65542631871476">
        <ele>86.79699703585356</ele>
        <time>2026-07-27T04:48:58Z</time>
      </trkpt>
      <trkpt lat="34.82862823796506" lon="113.65555685406228">
        <ele>85.69397184904665</ele>
        <time>2026-07-27T04:49:16Z</time>
      </trkpt>
      <trkpt lat="34.828343006115105" lon="113.65566411266683">
        <ele>86.58057280816138</ele>
        <time>2026-07-27T04:49:31Z</time>
      </trkpt>
      <trkpt lat="34.82803840631006" lon="113.65582172300884">
        <ele>86.7150972764939</ele>
        <time>2026-07-27T04:49:49Z</time>
      </trkpt>
      <trkpt lat="34.827766317328496" lon="113.6559236165124">
        <ele>85.71964087337255</ele>
        <time>2026-07-27T04:50:04Z</time>
      </trkpt>
      <trkpt lat="34.82748600639443" lon="113.6560429773909">
        <ele>86.29973139055073</ele>
        <time>2026-07-27T04:50:19Z</time>
      </trkpt>
      <trkpt lat="34.82721984497882" lon="113.65614426025266">
        <ele>87.18488627672195</ele>
        <time>2026-07-27T04:50:34Z</time>
      </trkpt>
      <trkpt lat="34.82689208054597" lon="113.65627274550748">
        <ele>86.83996136300266</ele>
        <time>2026-07-27T04:50:52Z</time>
      </trkpt>
      <trkpt lat="34.82658988126856" lon="113.656418988713">
        <ele>86.95714000146836</ele>
        <time>2026-07-27T04:51:08Z</time>
      </trkpt>
      <trkpt lat="34.82654482891162" lon="113.65642358677052">
        <ele>86.35885398462415</ele>
        <time>2026-07-27T04:51:11Z</time>
      </trkpt>
      <trkpt lat="34.8264331107254" lon="113.65649834093385">
        <ele>86.09882010705769</ele>
        <time>2026-07-27T04:51:17Z</time>
      </trkpt>
      <trkpt lat="34.82637385618899" lon="113.65650262596068">
        <ele>87.3773916149512</ele>
        <time>2026-07-27T04:51:20Z</time>
      </trkpt>
      <trkpt lat="34.82621442348404" lon="113.65657933342612">
        <ele>86.92811946664006</ele>
        <time>2026-07-27T04:51:29Z</time>
      </trkpt>
      <trkpt lat="34.826126203457534" lon="113.65659496950425">
        <ele>88.09696179162711</ele>
        <time>2026-07-27T04:51:32Z</time>
      </trkpt>
      <trkpt lat="34.826068968474026" lon="113.65662841498057">
        <ele>88.53675777558237</ele>
        <time>2026-07-27T04:51:35Z</time>
      </trkpt>
      <trkpt lat="34.82600215539366" lon="113.65663977583682">
        <ele>89.72332501318306</ele>
        <time>2026-07-27T04:51:38Z</time>
      </trkpt>
      <trkpt lat="34.82573599565553" lon="113.65675859508828">
        <ele>87.23450254742056</ele>
        <time>2026-07-27T04:51:53Z</time>
      </trkpt>
      <trkpt lat="34.82550226488334" lon="113.65687375877346">
        <ele>85.00382799748331</ele>
        <time>2026-07-27T04:52:08Z</time>
      </trkpt>
      <trkpt lat="34.82544728619935" lon="113.65692035207522">
        <ele>84.03591322433203</ele>
        <time>2026-07-27T04:52:11Z</time>
      </trkpt>
      <trkpt lat="34.82517127797268" lon="113.65701965926804">
        <ele>85.68176187667996</ele>
        <time>2026-07-27T04:52:23Z</time>
      </trkpt>
      <trkpt lat="34.82489928876833" lon="113.6571294559569">
        <ele>86.72315556835383</ele>
        <time>2026-07-27T04:52:38Z</time>
      </trkpt>
      <trkpt lat="34.82473681970952" lon="113.65719374864025">
        <ele>85.83498006593436</ele>
        <time>2026-07-27T04:52:47Z</time>
      </trkpt>
      <trkpt lat="34.8246916714208" lon="113.65722896411317">
        <ele>85.51290165260434</ele>
        <time>2026-07-27T04:52:51Z</time>
      </trkpt>
      <trkpt lat="34.8246079293151" lon="113.65724818290856">
        <ele>86.41902566514909</ele>
        <time>2026-07-27T04:52:55Z</time>
      </trkpt>
      <trkpt lat="34.82438722631919" lon="113.6573364305237">
        <ele>86.20198042411357</ele>
        <time>2026-07-27T04:53:06Z</time>
      </trkpt>
      <trkpt lat="34.82432441543292" lon="113.6573369501561">
        <ele>87.29180624336004</ele>
        <time>2026-07-27T04:53:09Z</time>
      </trkpt>
      <trkpt lat="34.824121327855345" lon="113.65745015955399">
        <ele>86.5284522594884</ele>
        <time>2026-07-27T04:53:21Z</time>
      </trkpt>
      <trkpt lat="34.823881983183746" lon="113.65755107503786">
        <ele>84.88917702808976</ele>
        <time>2026-07-27T04:53:36Z</time>
      </trkpt>
      <trkpt lat="34.82378047744076" lon="113.65763031473699">
        <ele>84.6436278205365</ele>
        <time>2026-07-27T04:53:42Z</time>
      </trkpt>
      <trkpt lat="34.8235529260936" lon="113.65771303990356">
        <ele>82.88875230681151</ele>
        <time>2026-07-27T04:53:54Z</time>
      </trkpt>
      <trkpt lat="34.82326629236071" lon="113.65780979653817">
        <ele>84.55283636692911</ele>
        <time>2026-07-27T04:54:07Z</time>
      </trkpt>
      <trkpt lat="34.82303020983996" lon="113.65787151743977">
        <ele>85.5936056766659</ele>
        <time>2026-07-27T04:54:19Z</time>
      </trkpt>
      <trkpt lat="34.82278848136756" lon="113.65798205476017">
        <ele>85.87151930294931</ele>
        <time>2026-07-27T04:54:31Z</time>
      </trkpt>
      <trkpt lat="34.82247290370455" lon="113.65809308732044">
        <ele>87.66234653256834</ele>
        <time>2026-07-27T04:54:49Z</time>
      </trkpt>
      <trkpt lat="34.8221483321825" lon="113.65823102722266">
        <ele>88.06809556670487</ele>
        <time>2026-07-27T04:55:08Z</time>
      </trkpt>
      <trkpt lat="34.82204873776034" lon="113.65823330061043">
        <ele>89.39429703075439</ele>
        <time>2026-07-27T04:55:14Z</time>
      </trkpt>
      <trkpt lat="34.82179547910449" lon="113.65835358253706">
        <ele>88.67692109942436</ele>
        <time>2026-07-27T04:55:29Z</time>
      </trkpt>
      <trkpt lat="34.821550739226744" lon="113.65843919958736">
        <ele>87.52388495765626</ele>
        <time>2026-07-27T04:55:44Z</time>
      </trkpt>
      <trkpt lat="34.82125132315863" lon="113.65859236410022">
        <ele>87.11547353863716</ele>
        <time>2026-07-27T04:56:02Z</time>
      </trkpt>
      <trkpt lat="34.82114704725284" lon="113.65866123579794">
        <ele>87.28253783844411</ele>
        <time>2026-07-27T04:56:08Z</time>
      </trkpt>
      <trkpt lat="34.82086520084958" lon="113.65874108792319">
        <ele>85.9629559777677</ele>
        <time>2026-07-27T04:56:26Z</time>
      </trkpt>
      <trkpt lat="34.82061747496528" lon="113.65880552855837">
        <ele>88.04190168064088</ele>
        <time>2026-07-27T04:56:41Z</time>
      </trkpt>
      <trkpt lat="34.82058068771784" lon="113.6587714596309">
        <ele>90.15703570563346</ele>
        <time>2026-07-27T04:56:47Z</time>
      </trkpt>
      <trkpt lat="34.82060592958554" lon="113.65854667601869">
        <ele>90.88380380999297</ele>
        <time>2026-07-27T04:56:59Z</time>
      </trkpt>
      <trkpt lat="34.82059546363402" lon="113.65825046044436">
        <ele>91.11588284093887</ele>
        <time>2026-07-27T04:57:12Z</time>
      </trkpt>
      <trkpt lat="34.82060781959275" lon="113.65818394966584">
        <ele>91.29183966480196</ele>
        <time>2026-07-27T04:57:15Z</time>
      </trkpt>
      <trkpt lat="34.82065409639737" lon="113.65813983969744">
        <ele>91.16215210594237</ele>
        <time>2026-07-27T04:57:21Z</time>
      </trkpt>
      <trkpt lat="34.820851340668526" lon="113.65804302578104">
        <ele>92.26601917576045</ele>
        <time>2026-07-27T04:57:30Z</time>
      </trkpt>
      <trkpt lat="34.82095858874119" lon="113.65802117905625">
        <ele>92.61650910321623</ele>
        <time>2026-07-27T04:57:36Z</time>
      </trkpt>
      <trkpt lat="34.82126269074189" lon="113.65790329291414">
        <ele>91.82482216693461</ele>
        <time>2026-07-27T04:57:51Z</time>
      </trkpt>
      <trkpt lat="34.82144050707814" lon="113.65783864555891">
        <ele>91.82148506306112</ele>
        <time>2026-07-27T04:58:00Z</time>
      </trkpt>
      <trkpt lat="34.82147606417767" lon="113.65780143897454">
        <ele>91.39209987781942</ele>
        <time>2026-07-27T04:58:03Z</time>
      </trkpt>
      <trkpt lat="34.82177579214106" lon="113.65768729403281">
        <ele>91.81626482028514</ele>
        <time>2026-07-27T04:58:18Z</time>
      </trkpt>
      <trkpt lat="34.82207357536909" lon="113.65758883020877">
        <ele>92.13126507494599</ele>
        <time>2026-07-27T04:58:33Z</time>
      </trkpt>
      <trkpt lat="34.82233872194755" lon="113.6574453973209">
        <ele>90.39418889023364</ele>
        <time>2026-07-27T04:58:51Z</time>
      </trkpt>
      <trkpt lat="34.822684529059195" lon="113.65734054558968">
        <ele>91.3470953926444</ele>
        <time>2026-07-27T04:59:07Z</time>
      </trkpt>
      <trkpt lat="34.822744708514726" lon="113.65732426257046">
        <ele>91.48169440589845</ele>
        <time>2026-07-27T04:59:10Z</time>
      </trkpt>
      <trkpt lat="34.82291602539745" lon="113.6573422786127">
        <ele>91.47265016008168</ele>
        <time>2026-07-27T04:59:16Z</time>
      </trkpt>
      <trkpt lat="34.82308122662136" lon="113.65743181615481">
        <ele>91.78137061465532</ele>
        <time>2026-07-27T04:59:19Z</time>
      </trkpt>
      <trkpt lat="34.823131951303175" lon="113.6574399628897">
        <ele>91.73151300754398</ele>
        <time>2026-07-27T04:59:22Z</time>
      </trkpt>
      <trkpt lat="34.823138592936246" lon="113.65729173369728">
        <ele>92.20794900227338</ele>
        <time>2026-07-27T04:59:25Z</time>
      </trkpt>
      <trkpt lat="34.82319308473772" lon="113.65727734833996">
        <ele>92.46069123689085</ele>
        <time>2026-07-27T04:59:28Z</time>
      </trkpt>
      <trkpt lat="34.823169536030996" lon="113.6571297683232">
        <ele>93.18195119220763</ele>
        <time>2026-07-27T04:59:31Z</time>
      </trkpt>
      <trkpt lat="34.8232223792138" lon="113.65707875426037">
        <ele>94.46497395820916</ele>
        <time>2026-07-27T04:59:40Z</time>
      </trkpt>
      <trkpt lat="34.82338113336409" lon="113.65701030568339">
        <ele>93.94673992320895</ele>
        <time>2026-07-27T04:59:49Z</time>
      </trkpt>
      <trkpt lat="34.823732320255125" lon="113.65694969604742">
        <ele>93.6844062237069</ele>
        <time>2026-07-27T05:00:10Z</time>
      </trkpt>
      <trkpt lat="34.82379214210731" lon="113.65695771598628">
        <ele>93.72590464260429</ele>
        <time>2026-07-27T05:00:13Z</time>
      </trkpt>
      <trkpt lat="34.823960384935866" lon="113.6568937502909">
        <ele>94.61656298581511</ele>
        <time>2026-07-27T05:00:19Z</time>
      </trkpt>
      <trkpt lat="34.82407436168358" lon="113.65689742219925">
        <ele>94.6657274896279</ele>
        <time>2026-07-27T05:00:22Z</time>
      </trkpt>
      <trkpt lat="34.824184576576684" lon="113.65683344552947">
        <ele>94.25971506629139</ele>
        <time>2026-07-27T05:00:25Z</time>
      </trkpt>
      <trkpt lat="34.82423147278422" lon="113.65677677225185">
        <ele>95.05601432174444</ele>
        <time>2026-07-27T05:00:28Z</time>
      </trkpt>
      <trkpt lat="34.82428462586765" lon="113.65675852390805">
        <ele>95.36698105465621</ele>
        <time>2026-07-27T05:00:31Z</time>
      </trkpt>
      <trkpt lat="34.824320484641376" lon="113.65664287936262">
        <ele>95.26202693767846</ele>
        <time>2026-07-27T05:00:37Z</time>
      </trkpt>
      <trkpt lat="34.824466970931454" lon="113.65654644873403">
        <ele>96.11859970074147</ele>
        <time>2026-07-27T05:00:46Z</time>
      </trkpt>
      <trkpt lat="34.824534271906856" lon="113.65648192671338">
        <ele>96.38621488865465</ele>
        <time>2026-07-27T05:00:52Z</time>
      </trkpt>
      <trkpt lat="34.824620406002694" lon="113.65645484175167">
        <ele>95.80919953528792</ele>
        <time>2026-07-27T05:00:55Z</time>
      </trkpt>
      <trkpt lat="34.82466878552628" lon="113.6564204348149">
        <ele>96.47444889135659</ele>
        <time>2026-07-27T05:00:58Z</time>
      </trkpt>
      <trkpt lat="34.82494647545848" lon="113.65642496159397">
        <ele>96.22285093646497</ele>
        <time>2026-07-27T05:01:04Z</time>
      </trkpt>
      <trkpt lat="34.824996482183195" lon="113.65649607717565">
        <ele>95.8870161511004</ele>
        <time>2026-07-27T05:01:07Z</time>
      </trkpt>
      <trkpt lat="34.825044600327686" lon="113.6564591001349">
        <ele>96.05403070058674</ele>
        <time>2026-07-27T05:01:10Z</time>
      </trkpt>
      <trkpt lat="34.8253471194908" lon="113.65664121952217">
        <ele>96.09135664906353</ele>
        <time>2026-07-27T05:01:14Z</time>
      </trkpt>
      <trkpt lat="34.82543400238941" lon="113.65667426690416">
        <ele>96.8692796677351</ele>
        <time>2026-07-27T05:01:22Z</time>
      </trkpt>
      <trkpt lat="34.82558747506911" lon="113.65665087477247">
        <ele>96.11866970453411</ele>
        <time>2026-07-27T05:01:29Z</time>
      </trkpt>
      <trkpt lat="34.82542289558449" lon="113.65635255013063">
        <ele>93.31415028404444</ele>
        <time>2026-07-27T05:01:32Z</time>
      </trkpt>
      <trkpt lat="34.825470237443476" lon="113.65630018517804">
        <ele>93.77201146446168</ele>
        <time>2026-07-27T05:01:35Z</time>
      </trkpt>
      <trkpt lat="34.82557147289896" lon="113.65627700050793">
        <ele>93.85985662881285</ele>
        <time>2026-07-27T05:01:41Z</time>
      </trkpt>
      <trkpt lat="34.825909330104416" lon="113.65628211454886">
        <ele>94.45982376579195</ele>
        <time>2026-07-27T05:01:50Z</time>
      </trkpt>
      <trkpt lat="34.82593964165374" lon="113.65621577310206">
        <ele>94.08978454116732</ele>
        <time>2026-07-27T05:01:56Z</time>
      </trkpt>
      <trkpt lat="34.82600435217091" lon="113.65619667837434">
        <ele>95.229119528085</ele>
        <time>2026-07-27T05:01:59Z</time>
      </trkpt>
      <trkpt lat="34.826194941723365" lon="113.65625179979033">
        <ele>95.14653342496604</ele>
        <time>2026-07-27T05:02:02Z</time>
      </trkpt>
      <trkpt lat="34.82636749398434" lon="113.65641909651909">
        <ele>97.2536639245227</ele>
        <time>2026-07-27T05:02:08Z</time>
      </trkpt>
      <trkpt lat="34.826421378679434" lon="113.6564113436834">
        <ele>96.9142917394638</ele>
        <time>2026-07-27T05:02:11Z</time>
      </trkpt>
      <trkpt lat="34.826685412830145" lon="113.65656798684904">
        <ele>98.84018829185516</ele>
        <time>2026-07-27T05:02:17Z</time>
      </trkpt>
      <trkpt lat="34.82680902542684" lon="113.65652634514734">
        <ele>98.32920046430081</ele>
        <time>2026-07-27T05:02:23Z</time>
      </trkpt>
      <trkpt lat="34.8263694398717" lon="113.65584281233937">
        <ele>96.82390738092363</ele>
        <time>2026-07-27T05:02:26Z</time>
      </trkpt>
      <trkpt lat="34.826430759143896" lon="113.65578826621568">
        <ele>96.73084236402065</ele>
        <time>2026-07-27T05:02:32Z</time>
      </trkpt>
      <trkpt lat="34.82650490845423" lon="113.65575932534256">
        <ele>95.97833239100873</ele>
        <time>2026-07-27T05:02:35Z</time>
      </trkpt>
      <trkpt lat="34.826559084855695" lon="113.65570890807925">
        <ele>95.21776315011084</ele>
        <time>2026-07-27T05:02:38Z</time>
      </trkpt>
      <trkpt lat="34.826762057877545" lon="113.65560245630276">
        <ele>95.86767720989883</ele>
        <time>2026-07-27T05:02:47Z</time>
      </trkpt>
      <trkpt lat="34.826942358456634" lon="113.65557715650989">
        <ele>96.29947083629668</ele>
        <time>2026-07-27T05:02:56Z</time>
      </trkpt>
      <trkpt lat="34.82704036756631" lon="113.6555427483332">
        <ele>96.01424016058445</ele>
        <time>2026-07-27T05:03:02Z</time>
      </trkpt>
      <trkpt lat="34.82711270140994" lon="113.6554842917327">
        <ele>96.7592529244721</ele>
        <time>2026-07-27T05:03:08Z</time>
      </trkpt>
      <trkpt lat="34.827264892038585" lon="113.65541173549414">
        <ele>97.32449190039188</ele>
        <time>2026-07-27T05:03:17Z</time>
      </trkpt>
      <trkpt lat="34.82731762899427" lon="113.65535343130531">
        <ele>96.32226708438247</ele>
        <time>2026-07-27T05:03:21Z</time>
      </trkpt>
      <trkpt lat="34.82745002173717" lon="113.65530010922221">
        <ele>96.12001127097756</ele>
        <time>2026-07-27T05:03:29Z</time>
      </trkpt>
      <trkpt lat="34.827717548516894" lon="113.65521143752376">
        <ele>96.41374126635492</ele>
        <time>2026-07-27T05:03:47Z</time>
      </trkpt>
      <trkpt lat="34.82775614418327" lon="113.65517338888449">
        <ele>96.09613809455186</ele>
        <time>2026-07-27T05:03:50Z</time>
      </trkpt>
      <trkpt lat="34.827806455839244" lon="113.6551757617384">
        <ele>96.56484524626285</ele>
        <time>2026-07-27T05:03:53Z</time>
      </trkpt>
      <trkpt lat="34.827898577962415" lon="113.65510507067161">
        <ele>96.12417713552713</ele>
        <time>2026-07-27T05:04:02Z</time>
      </trkpt>
      <trkpt lat="34.82821754961945" lon="113.65500421490532">
        <ele>95.48815651610494</ele>
        <time>2026-07-27T05:04:23Z</time>
      </trkpt>
      <trkpt lat="34.82829097922068" lon="113.6549886835266">
        <ele>95.81440173275769</ele>
        <time>2026-07-27T05:04:26Z</time>
      </trkpt>
      <trkpt lat="34.82833150888326" lon="113.65494069661142">
        <ele>95.72151089739054</ele>
        <time>2026-07-27T05:04:32Z</time>
      </trkpt>
      <trkpt lat="34.82841151947192" lon="113.65491471401899">
        <ele>94.5934181837365</ele>
        <time>2026-07-27T05:04:38Z</time>
      </trkpt>
      <trkpt lat="34.828463822930196" lon="113.6548779084403">
        <ele>94.89142180047929</ele>
        <time>2026-07-27T05:04:41Z</time>
      </trkpt>
      <trkpt lat="34.82852585334254" lon="113.65487731174518">
        <ele>94.63034722674638</ele>
        <time>2026-07-27T05:04:44Z</time>
      </trkpt>
      <trkpt lat="34.828582998725786" lon="113.65483089353272">
        <ele>94.39303325302899</ele>
        <time>2026-07-27T05:04:50Z</time>
      </trkpt>
      <trkpt lat="34.82878231642285" lon="113.65474911082666">
        <ele>94.03934310562909</ele>
        <time>2026-07-27T05:05:02Z</time>
      </trkpt>
      <trkpt lat="34.82890849848757" lon="113.65473045647049">
        <ele>93.76131201349199</ele>
        <time>2026-07-27T05:05:11Z</time>
      </trkpt>
      <trkpt lat="34.82911743639828" lon="113.65462212001748">
        <ele>92.27613364905119</ele>
        <time>2026-07-27T05:05:27Z</time>
      </trkpt>
      <trkpt lat="34.829235822178234" lon="113.65459966059768">
        <ele>91.78420062549412</ele>
        <time>2026-07-27T05:05:35Z</time>
      </trkpt>
      <trkpt lat="34.82952641811699" lon="113.65444873995844">
        <ele>90.90311397146434</ele>
        <time>2026-07-27T05:05:56Z</time>
      </trkpt>
      <trkpt lat="34.829678767252894" lon="113.65438801839443">
        <ele>90.52753631211817</ele>
        <time>2026-07-27T05:06:05Z</time>
      </trkpt>
    </trkseg>
  </trk>
</gpx>