<?xml version="1.0" encoding="UTF-8"?>
<gpx xmlns="http://www.topografix.com/GPX/1/1" xmlns:gpxtpx="http://www.garmin.com/xmlschemas/TrackPointExtension/v1" xmlns:xsi="http://www.w3.org/2001/XMLSchema-instance" xsi:schemaLocation="http://www.topografix.com/GPX/1/1 http://www.topografix.com/GPX/1/1/gpx.xsd" version="1.1" creator="gpx.py -- https://github.com/tkrajina/gpxpy">
  <trk>
    <name>gpx from keep</name>
    <type>Run</type>
    <trkseg>
      <trkpt lat="34.82923838161518" lon="113.65799107276611">
        <ele>122.223876953125</ele>
        <time>2026-09-03T00:18:56Z</time>
      </trkpt>
      <trkpt lat="34.82938945890536" lon="113.65810371904345">
        <ele>92.47857666015625</ele>
        <time>2026-09-03T00:19:03Z</time>
      </trkpt>
      <trkpt lat="34.82943547799347" lon="113.65811998232591">
        <ele>92.9715367667377</ele>
        <time>2026-09-03T00:19:06Z</time>
      </trkpt>
      <trkpt lat="34.82950146954631" lon="113.65811258647753">
        <ele>91.03709827829152</ele>
        <time>2026-09-03T00:19:09Z</time>
      </trkpt>
      <trkpt lat="34.829576273328506" lon="113.65813169623587">
        <ele>93.3416723581031</ele>
        <time>2026-09-03T00:19:12Z</time>
      </trkpt>
      <trkpt lat="34.82964957711256" lon="113.65812668866049">
        <ele>93.71375329606235</ele>
        <time>2026-09-03T00:19:15Z</time>
      </trkpt>
      <trkpt lat="34.829699305930035" lon="113.65816077379537">
        <ele>89.44117392692715</ele>
        <time>2026-09-03T00:19:18Z</time>
      </trkpt>
      <trkpt lat="34.829741167380945" lon="113.65850306888096">
        <ele>88.60435698367655</ele>
        <time>2026-09-03T00:19:27Z</time>
      </trkpt>
      <trkpt lat="34.829791329378196" lon="113.6585064116671">
        <ele>88.72672120854259</ele>
        <time>2026-09-03T00:19:42Z</time>
      </trkpt>
      <trkpt lat="34.82983110172379" lon="113.65850006717409">
        <ele>88.11864421982318</ele>
        <time>2026-09-03T00:20:08Z</time>
      </trkpt>
      <trkpt lat="34.83001604395384" lon="113.65854469421107">
        <ele>90.10834271088243</ele>
        <time>2026-09-03T00:20:17Z</time>
      </trkpt>
      <trkpt lat="34.83017340799519" lon="113.65848184571318">
        <ele>89.80763451103121</ele>
        <time>2026-09-03T00:20:23Z</time>
      </trkpt>
      <trkpt lat="34.83022854679478" lon="113.65853545573944">
        <ele>89.28163165599108</ele>
        <time>2026-09-03T00:20:29Z</time>
      </trkpt>
      <trkpt lat="34.83022725336809" lon="113.65889740350977">
        <ele>91.07560174539685</ele>
        <time>2026-09-03T00:20:44Z</time>
      </trkpt>
      <trkpt lat="34.8302524288692" lon="113.6592699326143">
        <ele>91.17906277254224</ele>
        <time>2026-09-03T00:20:56Z</time>
      </trkpt>
      <trkpt lat="34.83025522317547" lon="113.65953553304072">
        <ele>92.44831610843539</ele>
        <time>2026-09-03T00:21:06Z</time>
      </trkpt>
      <trkpt lat="34.83023464550882" lon="113.65969131728879">
        <ele>91.74315235763788</ele>
        <time>2026-09-03T00:21:12Z</time>
      </trkpt>
      <trkpt lat="34.8302413454377" lon="113.65983902657779">
        <ele>92.74761751946062</ele>
        <time>2026-09-03T00:21:18Z</time>
      </trkpt>
      <trkpt lat="34.83026346591444" lon="113.6598985368311">
        <ele>91.72607066575438</ele>
        <time>2026-09-03T00:21:21Z</time>
      </trkpt>
      <trkpt lat="34.83035503295187" lon="113.65998166187975">
        <ele>92.20490506384522</ele>
        <time>2026-09-03T00:21:27Z</time>
      </trkpt>
      <trkpt lat="34.830509976098476" lon="113.66001130265185">
        <ele>91.39715829212219</ele>
        <time>2026-09-03T00:21:36Z</time>
      </trkpt>
      <trkpt lat="34.83057247961137" lon="113.65998686058359">
        <ele>89.5767262969166</ele>
        <time>2026-09-03T00:21:39Z</time>
      </trkpt>
      <trkpt lat="34.830887413503405" lon="113.65999930526677">
        <ele>90.4008259428665</ele>
        <time>2026-09-03T00:21:54Z</time>
      </trkpt>
      <trkpt lat="34.83098463917491" lon="113.65997416686689">
        <ele>91.00978310033679</ele>
        <time>2026-09-03T00:22:00Z</time>
      </trkpt>
      <trkpt lat="34.83103835178593" lon="113.65978482334371">
        <ele>88.05608697142452</ele>
        <time>2026-09-03T00:22:15Z</time>
      </trkpt>
      <trkpt lat="34.83100924090197" lon="113.65973526524783">
        <ele>87.73751115147024</ele>
        <time>2026-09-03T00:22:18Z</time>
      </trkpt>
      <trkpt lat="34.83099965736553" lon="113.65964427090017">
        <ele>87.83934066444635</ele>
        <time>2026-09-03T00:22:24Z</time>
      </trkpt>
      <trkpt lat="34.830976772288" lon="113.659588114879">
        <ele>87.55600620433688</ele>
        <time>2026-09-03T00:22:27Z</time>
      </trkpt>
      <trkpt lat="34.831029019361985" lon="113.6594547459871">
        <ele>87.70023213326931</ele>
        <time>2026-09-03T00:22:30Z</time>
      </trkpt>
      <trkpt lat="34.831052325865365" lon="113.6592369219134">
        <ele>90.14937246404588</ele>
        <time>2026-09-03T00:22:33Z</time>
      </trkpt>
      <trkpt lat="34.8310974612991" lon="113.65917610062986">
        <ele>88.7675865078345</ele>
        <time>2026-09-03T00:22:36Z</time>
      </trkpt>
      <trkpt lat="34.83089122346326" lon="113.6591347843397">
        <ele>87.92653736285865</ele>
        <time>2026-09-03T00:22:45Z</time>
      </trkpt>
      <trkpt lat="34.830844995780886" lon="113.65895715235607">
        <ele>88.33656639326364</ele>
        <time>2026-09-03T00:22:57Z</time>
      </trkpt>
      <trkpt lat="34.83089866247059" lon="113.65879995439781">
        <ele>87.40559722203761</ele>
        <time>2026-09-03T00:23:03Z</time>
      </trkpt>
      <trkpt lat="34.83095074256314" lon="113.65873135996958">
        <ele>87.28992237802595</ele>
        <time>2026-09-03T00:23:06Z</time>
      </trkpt>
      <trkpt lat="34.83093004493688" lon="113.65860429156653">
        <ele>89.35763650853187</ele>
        <time>2026-09-03T00:23:10Z</time>
      </trkpt>
      <trkpt lat="34.83089046873455" lon="113.65850153041643">
        <ele>88.28647903818637</ele>
        <time>2026-09-03T00:23:14Z</time>
      </trkpt>
      <trkpt lat="34.8308988935562" lon="113.65829754853497">
        <ele>85.91820171661675</ele>
        <time>2026-09-03T00:23:24Z</time>
      </trkpt>
      <trkpt lat="34.83094366342342" lon="113.65810781981523">
        <ele>85.7346949763596</ele>
        <time>2026-09-03T00:23:33Z</time>
      </trkpt>
      <trkpt lat="34.830910988441566" lon="113.65803666685053">
        <ele>83.98333900049329</ele>
        <time>2026-09-03T00:23:36Z</time>
      </trkpt>
      <trkpt lat="34.8309419360796" lon="113.65790637124404">
        <ele>83.82163035683334</ele>
        <time>2026-09-03T00:23:42Z</time>
      </trkpt>
      <trkpt lat="34.83095794026679" lon="113.6575179602201">
        <ele>82.50876717455685</ele>
        <time>2026-09-03T00:24:00Z</time>
      </trkpt>
      <trkpt lat="34.83099086506742" lon="113.65730598521844">
        <ele>83.57202047947794</ele>
        <time>2026-09-03T00:24:09Z</time>
      </trkpt>
      <trkpt lat="34.83097858294916" lon="113.65692290499874">
        <ele>86.3862020522356</ele>
        <time>2026-09-03T00:24:24Z</time>
      </trkpt>
      <trkpt lat="34.83098288379508" lon="113.65684332496743">
        <ele>86.6877514095977</ele>
        <time>2026-09-03T00:24:27Z</time>
      </trkpt>
      <trkpt lat="34.83093373185138" lon="113.6566358231309">
        <ele>86.1621810104698</ele>
        <time>2026-09-03T00:24:36Z</time>
      </trkpt>
      <trkpt lat="34.830951963786504" lon="113.65651331307225">
        <ele>86.86053015757352</ele>
        <time>2026-09-03T00:24:42Z</time>
      </trkpt>
      <trkpt lat="34.83099997789731" lon="113.65648363937437">
        <ele>84.92286769580096</ele>
        <time>2026-09-03T00:24:45Z</time>
      </trkpt>
      <trkpt lat="34.83102503211895" lon="113.6564258790506">
        <ele>84.62272083293647</ele>
        <time>2026-09-03T00:24:48Z</time>
      </trkpt>
      <trkpt lat="34.83107149968773" lon="113.65639466046433">
        <ele>84.7818504171446</ele>
        <time>2026-09-03T00:24:51Z</time>
      </trkpt>
      <trkpt lat="34.83131718554858" lon="113.6563933558235">
        <ele>86.15936022717506</ele>
        <time>2026-09-03T00:25:03Z</time>
      </trkpt>
      <trkpt lat="34.83137790276791" lon="113.65634542923821">
        <ele>86.8789152558893</ele>
        <time>2026-09-03T00:25:06Z</time>
      </trkpt>
      <trkpt lat="34.831597122915106" lon="113.65633833793287">
        <ele>87.04299508035183</ele>
        <time>2026-09-03T00:25:16Z</time>
      </trkpt>
      <trkpt lat="34.831719724138104" lon="113.6561081644725">
        <ele>86.51220579911023</ele>
        <time>2026-09-03T00:25:28Z</time>
      </trkpt>
      <trkpt lat="34.83183707728155" lon="113.65597901622586">
        <ele>86.60894664470106</ele>
        <time>2026-09-03T00:25:36Z</time>
      </trkpt>
      <trkpt lat="34.83190825655849" lon="113.65594327116563">
        <ele>86.78260882385075</ele>
        <time>2026-09-03T00:25:40Z</time>
      </trkpt>
      <trkpt lat="34.831949481239995" lon="113.65588092874805">
        <ele>87.83223702572286</ele>
        <time>2026-09-03T00:25:43Z</time>
      </trkpt>
      <trkpt lat="34.83194796880727" lon="113.65581271760519">
        <ele>87.97082060016692</ele>
        <time>2026-09-03T00:25:46Z</time>
      </trkpt>
      <trkpt lat="34.83196872655101" lon="113.65574081431342">
        <ele>88.12386790756136</ele>
        <time>2026-09-03T00:25:49Z</time>
      </trkpt>
      <trkpt lat="34.83201549896123" lon="113.65569012142706">
        <ele>88.00091375038028</ele>
        <time>2026-09-03T00:25:52Z</time>
      </trkpt>
      <trkpt lat="34.83212086797934" lon="113.65563746558877">
        <ele>87.14939387142658</ele>
        <time>2026-09-03T00:25:58Z</time>
      </trkpt>
      <trkpt lat="34.8321697349254" lon="113.65558020907041">
        <ele>85.87625883333385</ele>
        <time>2026-09-03T00:26:01Z</time>
      </trkpt>
      <trkpt lat="34.83221757363809" lon="113.65544944854781">
        <ele>86.65250163711607</ele>
        <time>2026-09-03T00:26:07Z</time>
      </trkpt>
      <trkpt lat="34.83224022645864" lon="113.65530941843711">
        <ele>87.4438229361549</ele>
        <time>2026-09-03T00:26:13Z</time>
      </trkpt>
      <trkpt lat="34.83231439317065" lon="113.65517994892498">
        <ele>87.51550183724612</ele>
        <time>2026-09-03T00:26:19Z</time>
      </trkpt>
      <trkpt lat="34.83241189598378" lon="113.65511129815737">
        <ele>87.26122294832021</ele>
        <time>2026-09-03T00:26:25Z</time>
      </trkpt>
      <trkpt lat="34.83254288743894" lon="113.65510461371571">
        <ele>87.8335094731301</ele>
        <time>2026-09-03T00:26:31Z</time>
      </trkpt>
      <trkpt lat="34.832722010574244" lon="113.65518124191975">
        <ele>86.43280740547925</ele>
        <time>2026-09-03T00:26:40Z</time>
      </trkpt>
      <trkpt lat="34.83280430582489" lon="113.65507149148539">
        <ele>87.46322776377201</ele>
        <time>2026-09-03T00:26:46Z</time>
      </trkpt>
      <trkpt lat="34.832946263234724" lon="113.6549429517314">
        <ele>88.1256300713867</ele>
        <time>2026-09-03T00:26:55Z</time>
      </trkpt>
      <trkpt lat="34.83288289836467" lon="113.65479486672402">
        <ele>87.62932139728218</ele>
        <time>2026-09-03T00:27:01Z</time>
      </trkpt>
      <trkpt lat="34.83283490133498" lon="113.65474821343183">
        <ele>87.96580690611154</ele>
        <time>2026-09-03T00:27:04Z</time>
      </trkpt>
      <trkpt lat="34.83273018597926" lon="113.6547958654957">
        <ele>87.26201478764415</ele>
        <time>2026-09-03T00:27:10Z</time>
      </trkpt>
      <trkpt lat="34.83270068025658" lon="113.65475469274519">
        <ele>88.45829244609922</ele>
        <time>2026-09-03T00:27:13Z</time>
      </trkpt>
      <trkpt lat="34.83263833153916" lon="113.65454692509378">
        <ele>87.95145806390792</ele>
        <time>2026-09-03T00:27:27Z</time>
      </trkpt>
      <trkpt lat="34.83269820549139" lon="113.65449734636668">
        <ele>87.29501709900796</ele>
        <time>2026-09-03T00:27:31Z</time>
      </trkpt>
      <trkpt lat="34.83278426122988" lon="113.65449030854947">
        <ele>87.01934860926121</ele>
        <time>2026-09-03T00:27:35Z</time>
      </trkpt>
      <trkpt lat="34.83284458435502" lon="113.65443649439928">
        <ele>86.91511577740312</ele>
        <time>2026-09-03T00:27:39Z</time>
      </trkpt>
      <trkpt lat="34.83284121285267" lon="113.65403437483529">
        <ele>88.95594858005643</ele>
        <time>2026-09-03T00:27:56Z</time>
      </trkpt>
      <trkpt lat="34.83285698191184" lon="113.65387926699066">
        <ele>90.11858307942748</ele>
        <time>2026-09-03T00:28:02Z</time>
      </trkpt>
      <trkpt lat="34.832841865205616" lon="113.65375435257519">
        <ele>89.7485621869564</ele>
        <time>2026-09-03T00:28:08Z</time>
      </trkpt>
      <trkpt lat="34.83276179540195" lon="113.65358192866485">
        <ele>88.71498011145741</ele>
        <time>2026-09-03T00:28:17Z</time>
      </trkpt>
      <trkpt lat="34.832762527200714" lon="113.65352221820905">
        <ele>87.60946152266115</ele>
        <time>2026-09-03T00:28:20Z</time>
      </trkpt>
      <trkpt lat="34.83297944514798" lon="113.65328182073277">
        <ele>88.1176468450576</ele>
        <time>2026-09-03T00:28:35Z</time>
      </trkpt>
      <trkpt lat="34.833068790754936" lon="113.6531738722454">
        <ele>87.26906322408468</ele>
        <time>2026-09-03T00:28:44Z</time>
      </trkpt>
      <trkpt lat="34.8330944158705" lon="113.65295124428731">
        <ele>88.9901929302141</ele>
        <time>2026-09-03T00:28:53Z</time>
      </trkpt>
      <trkpt lat="34.83313467011301" lon="113.65289457082038">
        <ele>88.76823343057185</ele>
        <time>2026-09-03T00:28:56Z</time>
      </trkpt>
      <trkpt lat="34.833195011914086" lon="113.65285007479629">
        <ele>88.13658092636615</ele>
        <time>2026-09-03T00:28:59Z</time>
      </trkpt>
      <trkpt lat="34.83326556359952" lon="113.6528530248211">
        <ele>88.32300903089345</ele>
        <time>2026-09-03T00:29:02Z</time>
      </trkpt>
      <trkpt lat="34.83350309457641" lon="113.65274121226729">
        <ele>89.5441041663289</ele>
        <time>2026-09-03T00:29:14Z</time>
      </trkpt>
      <trkpt lat="34.83360189418233" lon="113.65266752114658">
        <ele>89.54726618807763</ele>
        <time>2026-09-03T00:29:20Z</time>
      </trkpt>
      <trkpt lat="34.83392503893509" lon="113.65257040460511">
        <ele>86.78227568697184</ele>
        <time>2026-09-03T00:29:38Z</time>
      </trkpt>
      <trkpt lat="34.83420178707813" lon="113.65250836615388">
        <ele>88.34534391295165</ele>
        <time>2026-09-03T00:29:50Z</time>
      </trkpt>
      <trkpt lat="34.83450293491696" lon="113.65237880842312">
        <ele>89.00583398342133</ele>
        <time>2026-09-03T00:30:06Z</time>
      </trkpt>
      <trkpt lat="34.83477298753703" lon="113.65226083940792">
        <ele>88.53555641230196</ele>
        <time>2026-09-03T00:30:21Z</time>
      </trkpt>
      <trkpt lat="34.835095054617085" lon="113.65213026378592">
        <ele>90.2584035154432</ele>
        <time>2026-09-03T00:30:39Z</time>
      </trkpt>
      <trkpt lat="34.83537124846081" lon="113.65200335620206">
        <ele>89.11492353957146</ele>
        <time>2026-09-03T00:30:54Z</time>
      </trkpt>
      <trkpt lat="34.83532828448795" lon="113.65194560140634">
        <ele>87.54688917193562</ele>
        <time>2026-09-03T00:30:57Z</time>
      </trkpt>
      <trkpt lat="34.83528370306438" lon="113.65192830222524">
        <ele>88.45723766926676</ele>
        <time>2026-09-03T00:31:00Z</time>
      </trkpt>
      <trkpt lat="34.83526770349587" lon="113.65187293761196">
        <ele>87.97974004410207</ele>
        <time>2026-09-03T00:31:03Z</time>
      </trkpt>
      <trkpt lat="34.83534841626271" lon="113.65170159777603">
        <ele>87.25330727733672</ele>
        <time>2026-09-03T00:31:12Z</time>
      </trkpt>
      <trkpt lat="34.835500708116506" lon="113.65163407221254">
        <ele>88.46900449786335</ele>
        <time>2026-09-03T00:31:21Z</time>
      </trkpt>
      <trkpt lat="34.835542885993775" lon="113.65159318140775">
        <ele>89.78254354000092</ele>
        <time>2026-09-03T00:31:24Z</time>
      </trkpt>
      <trkpt lat="34.83558411610736" lon="113.65151963501364">
        <ele>88.68588359002024</ele>
        <time>2026-09-03T00:31:27Z</time>
      </trkpt>
      <trkpt lat="34.83559592219802" lon="113.65133110916733">
        <ele>85.06416865065694</ele>
        <time>2026-09-03T00:31:38Z</time>
      </trkpt>
      <trkpt lat="34.83563338628366" lon="113.65127031074535">
        <ele>85.28534784913063</ele>
        <time>2026-09-03T00:31:42Z</time>
      </trkpt>
      <trkpt lat="34.8359479926734" lon="113.6511089403039">
        <ele>85.7358045913279</ele>
        <time>2026-09-03T00:31:58Z</time>
      </trkpt>
      <trkpt lat="34.83613063571942" lon="113.65101823918877">
        <ele>85.6392708979547</ele>
        <time>2026-09-03T00:32:07Z</time>
      </trkpt>
      <trkpt lat="34.836417571752754" lon="113.65093109165703">
        <ele>87.09836802538484</ele>
        <time>2026-09-03T00:32:22Z</time>
      </trkpt>
      <trkpt lat="34.83649016179193" lon="113.6509560252026">
        <ele>86.09788318816572</ele>
        <time>2026-09-03T00:32:25Z</time>
      </trkpt>
      <trkpt lat="34.83659834446991" lon="113.65103230229671">
        <ele>87.54848914779723</ele>
        <time>2026-09-03T00:32:31Z</time>
      </trkpt>
      <trkpt lat="34.836659401041025" lon="113.6510483062833">
        <ele>87.39001793321222</ele>
        <time>2026-09-03T00:32:34Z</time>
      </trkpt>
      <trkpt lat="34.83676642070138" lon="113.65100408648742">
        <ele>86.95546001661569</ele>
        <time>2026-09-03T00:32:40Z</time>
      </trkpt>
      <trkpt lat="34.836834858088174" lon="113.6509947263329">
        <ele>87.00975574366748</ele>
        <time>2026-09-03T00:32:43Z</time>
      </trkpt>
      <trkpt lat="34.83711905652512" lon="113.65110376792796">
        <ele>87.15096065960824</ele>
        <time>2026-09-03T00:32:58Z</time>
      </trkpt>
      <trkpt lat="34.83740512560658" lon="113.65107657762024">
        <ele>88.59976982697845</ele>
        <time>2026-09-03T00:33:13Z</time>
      </trkpt>
      <trkpt lat="34.837524945967935" lon="113.65106122980262">
        <ele>88.65101047884673</ele>
        <time>2026-09-03T00:33:19Z</time>
      </trkpt>
      <trkpt lat="34.83768154751587" lon="113.65096136637031">
        <ele>88.32640679273754</ele>
        <time>2026-09-03T00:33:28Z</time>
      </trkpt>
      <trkpt lat="34.83785540492123" lon="113.65100675045107">
        <ele>87.85900271032006</ele>
        <time>2026-09-03T00:33:37Z</time>
      </trkpt>
      <trkpt lat="34.838139027933245" lon="113.650875948833">
        <ele>87.29120747186244</ele>
        <time>2026-09-03T00:33:53Z</time>
      </trkpt>
      <trkpt lat="34.83845077916103" lon="113.65073413757229">
        <ele>86.57339985202998</ele>
        <time>2026-09-03T00:34:08Z</time>
      </trkpt>
      <trkpt lat="34.83874254547715" lon="113.65061260724028">
        <ele>88.33506856579334</ele>
        <time>2026-09-03T00:34:23Z</time>
      </trkpt>
      <trkpt lat="34.83902041580594" lon="113.65048701436149">
        <ele>88.19089376088232</ele>
        <time>2026-09-03T00:34:38Z</time>
      </trkpt>
      <trkpt lat="34.83919666195139" lon="113.65040461684303">
        <ele>88.93525807838887</ele>
        <time>2026-09-03T00:34:47Z</time>
      </trkpt>
      <trkpt lat="34.8392554327699" lon="113.65040189259686">
        <ele>88.72799826227129</ele>
        <time>2026-09-03T00:34:50Z</time>
      </trkpt>
      <trkpt lat="34.83930996377434" lon="113.65042188452085">
        <ele>88.71138186845928</ele>
        <time>2026-09-03T00:34:53Z</time>
      </trkpt>
      <trkpt lat="34.83946108801288" lon="113.65058038954204">
        <ele>88.01029162667692</ele>
        <time>2026-09-03T00:35:02Z</time>
      </trkpt>
      <trkpt lat="34.83952260227548" lon="113.65061650728774">
        <ele>88.31541144195944</ele>
        <time>2026-09-03T00:35:05Z</time>
      </trkpt>
      <trkpt lat="34.83965533703626" lon="113.65060127088819">
        <ele>88.4759350400418</ele>
        <time>2026-09-03T00:35:11Z</time>
      </trkpt>
      <trkpt lat="34.83982788625633" lon="113.65055036988477">
        <ele>89.70943265967071</ele>
        <time>2026-09-03T00:35:20Z</time>
      </trkpt>
      <trkpt lat="34.83991049682303" lon="113.65067063921767">
        <ele>86.3855023495853</ele>
        <time>2026-09-03T00:35:29Z</time>
      </trkpt>
      <trkpt lat="34.840008649945126" lon="113.65064047084928">
        <ele>86.64964434411377</ele>
        <time>2026-09-03T00:35:35Z</time>
      </trkpt>
      <trkpt lat="34.84012874090559" lon="113.65039520288775">
        <ele>85.15554657299072</ele>
        <time>2026-09-03T00:35:49Z</time>
      </trkpt>
      <trkpt lat="34.84010569188387" lon="113.65026713567889">
        <ele>87.86980648618191</ele>
        <time>2026-09-03T00:35:57Z</time>
      </trkpt>
      <trkpt lat="34.840352437839954" lon="113.65012872871232">
        <ele>85.0901339314878</ele>
        <time>2026-09-03T00:36:05Z</time>
      </trkpt>
      <trkpt lat="34.84056316390042" lon="113.65013683306677">
        <ele>86.55629317834973</ele>
        <time>2026-09-03T00:36:14Z</time>
      </trkpt>
      <trkpt lat="34.84063327483007" lon="113.65010601147203">
        <ele>86.74513778835535</ele>
        <time>2026-09-03T00:36:17Z</time>
      </trkpt>
      <trkpt lat="34.840706882459806" lon="113.65002681810527">
        <ele>86.92767506558448</ele>
        <time>2026-09-03T00:36:23Z</time>
      </trkpt>
      <trkpt lat="34.84098890616207" lon="113.64992510255183">
        <ele>86.79720713291317</ele>
        <time>2026-09-03T00:36:38Z</time>
      </trkpt>
      <trkpt lat="34.84126062083856" lon="113.64982164351686">
        <ele>86.21691982168704</ele>
        <time>2026-09-03T00:36:53Z</time>
      </trkpt>
      <trkpt lat="34.841538124892814" lon="113.64972563576772">
        <ele>88.4456432973966</ele>
        <time>2026-09-03T00:37:08Z</time>
      </trkpt>
      <trkpt lat="34.84169562075868" lon="113.64965348843062">
        <ele>86.83719268720597</ele>
        <time>2026-09-03T00:37:17Z</time>
      </trkpt>
      <trkpt lat="34.84176326478845" lon="113.64960205286839">
        <ele>84.97319466341287</ele>
        <time>2026-09-03T00:37:23Z</time>
      </trkpt>
      <trkpt lat="34.84188685151101" lon="113.6495708737316">
        <ele>87.156982421875</ele>
        <time>2026-09-03T00:37:38Z</time>
      </trkpt>
      <trkpt lat="34.84219635777494" lon="113.6494351291619">
        <ele>85.59230745118111</ele>
        <time>2026-09-03T00:37:49Z</time>
      </trkpt>
      <trkpt lat="34.84236089189564" lon="113.64940971391063">
        <ele>92.10488708596677</ele>
        <time>2026-09-03T00:37:57Z</time>
      </trkpt>
      <trkpt lat="34.842592924713365" lon="113.64932243216616">
        <ele>92.22393540944904</ele>
        <time>2026-09-03T00:38:05Z</time>
      </trkpt>
      <trkpt lat="34.84291576211733" lon="113.64909700288935">
        <ele>88.49350492749363</ele>
        <time>2026-09-03T00:38:23Z</time>
      </trkpt>
      <trkpt lat="34.84305589921842" lon="113.64905062813736">
        <ele>87.51885441597551</ele>
        <time>2026-09-03T00:38:29Z</time>
      </trkpt>
      <trkpt lat="34.84317751141802" lon="113.64895586200215">
        <ele>89.42418550606817</ele>
        <time>2026-09-03T00:38:35Z</time>
      </trkpt>
      <trkpt lat="34.843238300928576" lon="113.6489294812329">
        <ele>90.0635055070743</ele>
        <time>2026-09-03T00:38:38Z</time>
      </trkpt>
      <trkpt lat="34.84327458486448" lon="113.64886826380308">
        <ele>90.78475801926106</ele>
        <time>2026-09-03T00:38:41Z</time>
      </trkpt>
      <trkpt lat="34.84326062743827" lon="113.64878096388654">
        <ele>89.66695775371045</ele>
        <time>2026-09-03T00:38:44Z</time>
      </trkpt>
      <trkpt lat="34.843308843092764" lon="113.64872855742534">
        <ele>88.98589347302914</ele>
        <time>2026-09-03T00:38:47Z</time>
      </trkpt>
      <trkpt lat="34.843362735114574" lon="113.64879321243251">
        <ele>87.77242242917418</ele>
        <time>2026-09-03T00:38:53Z</time>
      </trkpt>
      <trkpt lat="34.84338999705219" lon="113.64903064975724">
        <ele>88.0775321945548</ele>
        <time>2026-09-03T00:39:02Z</time>
      </trkpt>
      <trkpt lat="34.843392533399225" lon="113.64941279078025">
        <ele>89.75711313635111</ele>
        <time>2026-09-03T00:39:17Z</time>
      </trkpt>
      <trkpt lat="34.84340086498557" lon="113.64969872856553">
        <ele>88.80779599305242</ele>
        <time>2026-09-03T00:39:29Z</time>
      </trkpt>
      <trkpt lat="34.843204129399446" lon="113.64976033961254">
        <ele>90.55064819939435</ele>
        <time>2026-09-03T00:39:38Z</time>
      </trkpt>
      <trkpt lat="34.842913545544825" lon="113.64991782368779">
        <ele>91.04706920683384</ele>
        <time>2026-09-03T00:39:53Z</time>
      </trkpt>
      <trkpt lat="34.8426336761609" lon="113.65003800228487">
        <ele>90.83127616997808</ele>
        <time>2026-09-03T00:40:09Z</time>
      </trkpt>
      <trkpt lat="34.84234015720262" lon="113.65016687189613">
        <ele>90.72427283320576</ele>
        <time>2026-09-03T00:40:24Z</time>
      </trkpt>
      <trkpt lat="34.84206297391356" lon="113.65027102935458">
        <ele>92.87503983080387</ele>
        <time>2026-09-03T00:40:36Z</time>
      </trkpt>
      <trkpt lat="34.841820192566644" lon="113.65035716669216">
        <ele>91.67170044779778</ele>
        <time>2026-09-03T00:40:48Z</time>
      </trkpt>
      <trkpt lat="34.84174574731556" lon="113.65035443635425">
        <ele>92.49234282318503</ele>
        <time>2026-09-03T00:40:51Z</time>
      </trkpt>
      <trkpt lat="34.84145491899075" lon="113.6504105622664">
        <ele>91.48613111115992</ele>
        <time>2026-09-03T00:41:06Z</time>
      </trkpt>
      <trkpt lat="34.84129190549291" lon="113.6504450311305">
        <ele>89.93090797122568</ele>
        <time>2026-09-03T00:41:15Z</time>
      </trkpt>
      <trkpt lat="34.841022263829316" lon="113.65058322347414">
        <ele>90.30523446854204</ele>
        <time>2026-09-03T00:41:30Z</time>
      </trkpt>
      <trkpt lat="34.840917781516104" lon="113.65060076111982">
        <ele>90.49346746504307</ele>
        <time>2026-09-03T00:41:36Z</time>
      </trkpt>
      <trkpt lat="34.840644611569644" lon="113.65057393960795">
        <ele>89.56765072327107</ele>
        <time>2026-09-03T00:41:51Z</time>
      </trkpt>
      <trkpt lat="34.840606671699696" lon="113.65071318451888">
        <ele>90.10154148936272</ele>
        <time>2026-09-03T00:42:07Z</time>
      </trkpt>
      <trkpt lat="34.84047209501468" lon="113.65081249643927">
        <ele>86.93860993813723</ele>
        <time>2026-09-03T00:42:13Z</time>
      </trkpt>
      <trkpt lat="34.84012749539721" lon="113.6508295952877">
        <ele>90.22947471681982</ele>
        <time>2026-09-03T00:42:19Z</time>
      </trkpt>
      <trkpt lat="34.83985600506641" lon="113.65105105854975">
        <ele>90.65472937375307</ele>
        <time>2026-09-03T00:42:37Z</time>
      </trkpt>
      <trkpt lat="34.83961227195823" lon="113.65125354686433">
        <ele>90.51510112546384</ele>
        <time>2026-09-03T00:42:52Z</time>
      </trkpt>
      <trkpt lat="34.83948876820888" lon="113.65130078748858">
        <ele>91.03076795488596</ele>
        <time>2026-09-03T00:42:58Z</time>
      </trkpt>
      <trkpt lat="34.83942714953636" lon="113.65130615359551">
        <ele>91.90192352607846</ele>
        <time>2026-09-03T00:43:01Z</time>
      </trkpt>
      <trkpt lat="34.83913612090758" lon="113.65140757444932">
        <ele>92.55761675909162</ele>
        <time>2026-09-03T00:43:16Z</time>
      </trkpt>
      <trkpt lat="34.83895475114368" lon="113.65147516429587">
        <ele>92.4489666800946</ele>
        <time>2026-09-03T00:43:25Z</time>
      </trkpt>
      <trkpt lat="34.838700647326085" lon="113.65163026114423">
        <ele>92.00238361023366</ele>
        <time>2026-09-03T00:43:40Z</time>
      </trkpt>
      <trkpt lat="34.83840280457948" lon="113.65180699678999">
        <ele>91.25695951282978</ele>
        <time>2026-09-03T00:43:55Z</time>
      </trkpt>
      <trkpt lat="34.83810171972555" lon="113.65198830313156">
        <ele>93.67425432614982</ele>
        <time>2026-09-03T00:44:11Z</time>
      </trkpt>
      <trkpt lat="34.83794529375907" lon="113.6520967576661">
        <ele>93.70937396865338</ele>
        <time>2026-09-03T00:44:19Z</time>
      </trkpt>
      <trkpt lat="34.83763446986755" lon="113.6522089535125">
        <ele>93.34330343641341</ele>
        <time>2026-09-03T00:44:35Z</time>
      </trkpt>
      <trkpt lat="34.83734399572849" lon="113.65232080442624">
        <ele>95.01816044095904</ele>
        <time>2026-09-03T00:44:47Z</time>
      </trkpt>
      <trkpt lat="34.837155013934435" lon="113.6524125667498">
        <ele>95.38109237141907</ele>
        <time>2026-09-03T00:44:56Z</time>
      </trkpt>
      <trkpt lat="34.83688335433401" lon="113.6526156069893">
        <ele>96.52489345613867</ele>
        <time>2026-09-03T00:45:11Z</time>
      </trkpt>
      <trkpt lat="34.83664535435416" lon="113.65280885373014">
        <ele>95.70918914675713</ele>
        <time>2026-09-03T00:45:26Z</time>
      </trkpt>
      <trkpt lat="34.83649039415647" lon="113.6529233430234">
        <ele>94.9105578083545</ele>
        <time>2026-09-03T00:45:35Z</time>
      </trkpt>
      <trkpt lat="34.83620937382213" lon="113.65308768864307">
        <ele>93.9314864743501</ele>
        <time>2026-09-03T00:45:50Z</time>
      </trkpt>
      <trkpt lat="34.836166524538214" lon="113.65312248975349">
        <ele>92.88130571693182</ele>
        <time>2026-09-03T00:45:53Z</time>
      </trkpt>
      <trkpt lat="34.83613496970395" lon="113.65317822377425">
        <ele>92.25670230668038</ele>
        <time>2026-09-03T00:45:56Z</time>
      </trkpt>
      <trkpt lat="34.835876932776145" lon="113.65331159751035">
        <ele>93.07396460045129</ele>
        <time>2026-09-03T00:46:11Z</time>
      </trkpt>
      <trkpt lat="34.83562501789075" lon="113.6534318804936">
        <ele>93.32269466854632</ele>
        <time>2026-09-03T00:46:24Z</time>
      </trkpt>
      <trkpt lat="34.835509645910186" lon="113.65346971155257">
        <ele>92.35443320311606</ele>
        <time>2026-09-03T00:46:30Z</time>
      </trkpt>
      <trkpt lat="34.83519889482481" lon="113.65360900303698">
        <ele>94.07585498224944</ele>
        <time>2026-09-03T00:46:45Z</time>
      </trkpt>
      <trkpt lat="34.834897226762706" lon="113.65373547077881">
        <ele>93.27803354803473</ele>
        <time>2026-09-03T00:47:00Z</time>
      </trkpt>
      <trkpt lat="34.834660187510664" lon="113.6538581159217">
        <ele>94.40024244133383</ele>
        <time>2026-09-03T00:47:12Z</time>
      </trkpt>
      <trkpt lat="34.83453204998215" lon="113.65387792767287">
        <ele>94.46973789762706</ele>
        <time>2026-09-03T00:47:18Z</time>
      </trkpt>
      <trkpt lat="34.83448659830037" lon="113.65384216113547">
        <ele>94.5302007663995</ele>
        <time>2026-09-03T00:47:21Z</time>
      </trkpt>
      <trkpt lat="34.8342159217434" lon="113.65393031333743">
        <ele>94.36390399746597</ele>
        <time>2026-09-03T00:47:36Z</time>
      </trkpt>
      <trkpt lat="34.83406907090671" lon="113.65399923112236">
        <ele>93.91346248798072</ele>
        <time>2026-09-03T00:47:45Z</time>
      </trkpt>
      <trkpt lat="34.833895016222556" lon="113.65404734067828">
        <ele>89.9118913076818</ele>
        <time>2026-09-03T00:47:57Z</time>
      </trkpt>
      <trkpt lat="34.83360207402953" lon="113.65412827191747">
        <ele>92.39817924425006</ele>
        <time>2026-09-03T00:48:12Z</time>
      </trkpt>
      <trkpt lat="34.83330124915752" lon="113.65427771003775">
        <ele>91.8949181176722</ele>
        <time>2026-09-03T00:48:29Z</time>
      </trkpt>
      <trkpt lat="34.83300572446304" lon="113.65440583799214">
        <ele>91.67655911203474</ele>
        <time>2026-09-03T00:48:43Z</time>
      </trkpt>
      <trkpt lat="34.832711889416856" lon="113.65451812790434">
        <ele>90.9315219623968</ele>
        <time>2026-09-03T00:48:58Z</time>
      </trkpt>
      <trkpt lat="34.832545238191585" lon="113.65457840150839">
        <ele>90.67210190556943</ele>
        <time>2026-09-03T00:49:07Z</time>
      </trkpt>
      <trkpt lat="34.83249009040488" lon="113.65458255514002">
        <ele>90.9685171470046</ele>
        <time>2026-09-03T00:49:10Z</time>
      </trkpt>
      <trkpt lat="34.83229384934024" lon="113.65452240811466">
        <ele>92.82858205400407</ele>
        <time>2026-09-03T00:49:19Z</time>
      </trkpt>
      <trkpt lat="34.83198449910959" lon="113.65451046260345">
        <ele>93.08993368130177</ele>
        <time>2026-09-03T00:49:34Z</time>
      </trkpt>
      <trkpt lat="34.831678518729305" lon="113.65450501200614">
        <ele>92.66400554124266</ele>
        <time>2026-09-03T00:49:46Z</time>
      </trkpt>
      <trkpt lat="34.83139178039537" lon="113.65456607444443">
        <ele>93.64245032705367</ele>
        <time>2026-09-03T00:49:58Z</time>
      </trkpt>
      <trkpt lat="34.83134934238992" lon="113.65458832920481">
        <ele>92.3290314534679</ele>
        <time>2026-09-03T00:50:01Z</time>
      </trkpt>
      <trkpt lat="34.83134934238992" lon="113.65458832920481">
        <ele>92.3290314534679</ele>
        <time>2026-09-03T00:50:04Z</time>
      </trkpt>
    </trkseg>
  </trk>
</gpx>