<?xml version="1.0" encoding="UTF-8"?>
<gpx xmlns="http://www.topografix.com/GPX/1/1" xmlns:gpxtpx="http://www.garmin.com/xmlschemas/TrackPointExtension/v1" xmlns:xsi="http://www.w3.org/2001/XMLSchema-instance" xsi:schemaLocation="http://www.topografix.com/GPX/1/1 http://www.topografix.com/GPX/1/1/gpx.xsd" version="1.1" creator="gpx.py -- https://github.com/tkrajina/gpxpy">
  <trk>
    <name>gpx from keep</name>
    <type>Run</type>
    <trkseg>
      <trkpt lat="34.83858088502335" lon="113.65022853518138">
        <ele>91.1881103515625</ele>
        <time>2026-08-20T23:36:34Z</time>
      </trkpt>
      <trkpt lat="34.8385754302373" lon="113.65029439462303">
        <ele>93.90595740731806</ele>
        <time>2026-08-20T23:36:38Z</time>
      </trkpt>
      <trkpt lat="34.83861163016524" lon="113.65035983534936">
        <ele>92.05079002678394</ele>
        <time>2026-08-20T23:36:42Z</time>
      </trkpt>
      <trkpt lat="34.83890842602187" lon="113.65038918081525">
        <ele>91.38274228200316</ele>
        <time>2026-08-20T23:36:56Z</time>
      </trkpt>
      <trkpt lat="34.83895410724417" lon="113.65042623658155">
        <ele>91.73728379700333</ele>
        <time>2026-08-20T23:36:59Z</time>
      </trkpt>
      <trkpt lat="34.838982795315665" lon="113.65048329782296">
        <ele>92.11607627104968</ele>
        <time>2026-08-20T23:37:02Z</time>
      </trkpt>
      <trkpt lat="34.83903234392087" lon="113.65048009615732">
        <ele>92.06223757006228</ele>
        <time>2026-08-20T23:37:05Z</time>
      </trkpt>
      <trkpt lat="34.839197740787746" lon="113.65039634771891">
        <ele>91.66255275905132</ele>
        <time>2026-08-20T23:37:14Z</time>
      </trkpt>
      <trkpt lat="34.83941330194702" lon="113.65047888450846">
        <ele>91.58988075982779</ele>
        <time>2026-08-20T23:37:26Z</time>
      </trkpt>
      <trkpt lat="34.83945443034872" lon="113.6505881000287">
        <ele>91.50539056677371</ele>
        <time>2026-08-20T23:37:29Z</time>
      </trkpt>
      <trkpt lat="34.83950074323636" lon="113.65064213940131">
        <ele>90.71652970369905</ele>
        <time>2026-08-20T23:37:32Z</time>
      </trkpt>
      <trkpt lat="34.839626781780176" lon="113.65067936446722">
        <ele>91.85857847612351</ele>
        <time>2026-08-20T23:37:38Z</time>
      </trkpt>
      <trkpt lat="34.83973001331833" lon="113.65066938761451">
        <ele>91.46531454008073</ele>
        <time>2026-08-20T23:37:44Z</time>
      </trkpt>
      <trkpt lat="34.83981642490461" lon="113.65059351110877">
        <ele>91.46612968295813</ele>
        <time>2026-08-20T23:37:47Z</time>
      </trkpt>
      <trkpt lat="34.8398723101628" lon="113.65057786021946">
        <ele>89.64119164366275</ele>
        <time>2026-08-20T23:37:53Z</time>
      </trkpt>
      <trkpt lat="34.83986302209047" lon="113.6506593061186">
        <ele>88.44714651163667</ele>
        <time>2026-08-20T23:37:59Z</time>
      </trkpt>
      <trkpt lat="34.83990800234886" lon="113.65066414930914">
        <ele>88.71842293906957</ele>
        <time>2026-08-20T23:38:05Z</time>
      </trkpt>
      <trkpt lat="34.839969941768" lon="113.65054487263168">
        <ele>88.35054860636592</ele>
        <time>2026-08-20T23:38:11Z</time>
      </trkpt>
      <trkpt lat="34.8400170373832" lon="113.65053140218873">
        <ele>87.89355829451233</ele>
        <time>2026-08-20T23:38:14Z</time>
      </trkpt>
      <trkpt lat="34.84003385082408" lon="113.65047818784923">
        <ele>88.50041193701327</ele>
        <time>2026-08-20T23:38:17Z</time>
      </trkpt>
      <trkpt lat="34.84024831004" lon="113.65020735204445">
        <ele>87.972311463207</ele>
        <time>2026-08-20T23:38:29Z</time>
      </trkpt>
      <trkpt lat="34.84069420762294" lon="113.65021289949233">
        <ele>88.9889016309753</ele>
        <time>2026-08-20T23:38:44Z</time>
      </trkpt>
      <trkpt lat="34.840674019234385" lon="113.65012270989637">
        <ele>89.31924885883927</ele>
        <time>2026-08-20T23:38:50Z</time>
      </trkpt>
      <trkpt lat="34.84094281885297" lon="113.65012925645671">
        <ele>90.15470106713474</ele>
        <time>2026-08-20T23:39:11Z</time>
      </trkpt>
      <trkpt lat="34.84100267437628" lon="113.6501029262307">
        <ele>90.26945733651519</ele>
        <time>2026-08-20T23:39:14Z</time>
      </trkpt>
      <trkpt lat="34.84121332071373" lon="113.64988218056833">
        <ele>88.29036291502416</ele>
        <time>2026-08-20T23:39:32Z</time>
      </trkpt>
      <trkpt lat="34.84147832848412" lon="113.64974143148123">
        <ele>89.15940703358501</ele>
        <time>2026-08-20T23:39:41Z</time>
      </trkpt>
      <trkpt lat="34.84174964435239" lon="113.64959954191484">
        <ele>90.46964689809829</ele>
        <time>2026-08-20T23:39:56Z</time>
      </trkpt>
      <trkpt lat="34.84184559698823" lon="113.64955370810013">
        <ele>90.01657946035266</ele>
        <time>2026-08-20T23:40:02Z</time>
      </trkpt>
      <trkpt lat="34.84189774298463" lon="113.64950052860081">
        <ele>89.703414154239</ele>
        <time>2026-08-20T23:40:05Z</time>
      </trkpt>
      <trkpt lat="34.8419537073093" lon="113.64947410831142">
        <ele>89.34837406221777</ele>
        <time>2026-08-20T23:40:08Z</time>
      </trkpt>
      <trkpt lat="34.84205332323971" lon="113.6493554260637">
        <ele>89.5005675368011</ele>
        <time>2026-08-20T23:40:17Z</time>
      </trkpt>
      <trkpt lat="34.842104398221494" lon="113.64933896809372">
        <ele>89.70070139691234</ele>
        <time>2026-08-20T23:40:20Z</time>
      </trkpt>
      <trkpt lat="34.84219575925592" lon="113.64937678995625">
        <ele>89.60420296527445</ele>
        <time>2026-08-20T23:40:23Z</time>
      </trkpt>
      <trkpt lat="34.84227066275875" lon="113.64937046807094">
        <ele>88.7849503904581</ele>
        <time>2026-08-20T23:40:26Z</time>
      </trkpt>
      <trkpt lat="34.842409465118486" lon="113.64928970017729">
        <ele>87.48973636794835</ele>
        <time>2026-08-20T23:40:38Z</time>
      </trkpt>
      <trkpt lat="34.84244295035915" lon="113.6491748179525">
        <ele>87.11026843264699</ele>
        <time>2026-08-20T23:40:41Z</time>
      </trkpt>
      <trkpt lat="34.84250877762245" lon="113.64917504306183">
        <ele>87.74712096247822</ele>
        <time>2026-08-20T23:40:45Z</time>
      </trkpt>
      <trkpt lat="34.8425560698229" lon="113.64913048160206">
        <ele>87.07739463634789</ele>
        <time>2026-08-20T23:40:48Z</time>
      </trkpt>
      <trkpt lat="34.842679315143926" lon="113.64912051684655">
        <ele>88.37986099906266</ele>
        <time>2026-08-20T23:40:54Z</time>
      </trkpt>
      <trkpt lat="34.84279477832679" lon="113.64881569977119">
        <ele>87.93477435130626</ele>
        <time>2026-08-20T23:41:00Z</time>
      </trkpt>
      <trkpt lat="34.842940503953024" lon="113.64899654458688">
        <ele>87.08232195582241</ele>
        <time>2026-08-20T23:41:06Z</time>
      </trkpt>
      <trkpt lat="34.84296858931699" lon="113.64892970150538">
        <ele>89.10775267332792</ele>
        <time>2026-08-20T23:41:12Z</time>
      </trkpt>
      <trkpt lat="34.843237524556834" lon="113.64882077093631">
        <ele>89.43941773846745</ele>
        <time>2026-08-20T23:41:27Z</time>
      </trkpt>
      <trkpt lat="34.84333116822272" lon="113.64880646954214">
        <ele>89.91584163252264</ele>
        <time>2026-08-20T23:41:33Z</time>
      </trkpt>
      <trkpt lat="34.843384423839595" lon="113.64883074211787">
        <ele>89.8756397953257</ele>
        <time>2026-08-20T23:41:39Z</time>
      </trkpt>
      <trkpt lat="34.84337852735599" lon="113.64889403395031">
        <ele>89.96206565015018</ele>
        <time>2026-08-20T23:41:42Z</time>
      </trkpt>
      <trkpt lat="34.843404727587846" lon="113.64897777047253">
        <ele>90.79329608008265</ele>
        <time>2026-08-20T23:41:45Z</time>
      </trkpt>
      <trkpt lat="34.84341388712666" lon="113.64907782034344">
        <ele>90.85832386743277</ele>
        <time>2026-08-20T23:41:48Z</time>
      </trkpt>
      <trkpt lat="34.84337504619358" lon="113.6491493191526">
        <ele>90.70783071499318</ele>
        <time>2026-08-20T23:41:51Z</time>
      </trkpt>
      <trkpt lat="34.843386792533146" lon="113.64928094865623">
        <ele>90.64896843675524</ele>
        <time>2026-08-20T23:41:57Z</time>
      </trkpt>
      <trkpt lat="34.84334975452278" lon="113.64936050984075">
        <ele>90.13754869811237</ele>
        <time>2026-08-20T23:42:00Z</time>
      </trkpt>
      <trkpt lat="34.8433833439044" lon="113.64958271836726">
        <ele>91.800586075522</ele>
        <time>2026-08-20T23:42:09Z</time>
      </trkpt>
      <trkpt lat="34.84336273232414" lon="113.6496537914253">
        <ele>91.00417283922434</ele>
        <time>2026-08-20T23:42:12Z</time>
      </trkpt>
      <trkpt lat="34.84336002091215" lon="113.64973098974673">
        <ele>91.70071126148105</ele>
        <time>2026-08-20T23:42:18Z</time>
      </trkpt>
      <trkpt lat="34.843159193195035" lon="113.64987213199916">
        <ele>90.23550483211875</ele>
        <time>2026-08-20T23:42:30Z</time>
      </trkpt>
      <trkpt lat="34.843065060932126" lon="113.64979526875975">
        <ele>90.59057561866939</ele>
        <time>2026-08-20T23:42:33Z</time>
      </trkpt>
      <trkpt lat="34.84302681475784" lon="113.64983923277364">
        <ele>91.09138007927686</ele>
        <time>2026-08-20T23:42:36Z</time>
      </trkpt>
      <trkpt lat="34.842744052337586" lon="113.64998044931328">
        <ele>90.95254218298942</ele>
        <time>2026-08-20T23:42:57Z</time>
      </trkpt>
      <trkpt lat="34.84269801995988" lon="113.64998474076717">
        <ele>89.39114552456886</ele>
        <time>2026-08-20T23:43:01Z</time>
      </trkpt>
      <trkpt lat="34.84242753110413" lon="113.65012020964417">
        <ele>89.54350241459906</ele>
        <time>2026-08-20T23:43:16Z</time>
      </trkpt>
      <trkpt lat="34.842155546917496" lon="113.65023000005552">
        <ele>90.67133766133338</ele>
        <time>2026-08-20T23:43:31Z</time>
      </trkpt>
      <trkpt lat="34.841847820798655" lon="113.65032893927868">
        <ele>90.23628527577966</ele>
        <time>2026-08-20T23:43:49Z</time>
      </trkpt>
      <trkpt lat="34.84174985644246" lon="113.65036332153944">
        <ele>90.23974486067891</ele>
        <time>2026-08-20T23:43:55Z</time>
      </trkpt>
      <trkpt lat="34.841447869670304" lon="113.65042387842942">
        <ele>89.82567210961133</ele>
        <time>2026-08-20T23:44:10Z</time>
      </trkpt>
      <trkpt lat="34.84114968461872" lon="113.65050194094857">
        <ele>90.05391540657729</ele>
        <time>2026-08-20T23:44:25Z</time>
      </trkpt>
      <trkpt lat="34.840912482402295" lon="113.65059108409667">
        <ele>89.84838422574103</ele>
        <time>2026-08-20T23:44:37Z</time>
      </trkpt>
      <trkpt lat="34.84073583073497" lon="113.65056276297832">
        <ele>90.48206699639559</ele>
        <time>2026-08-20T23:44:43Z</time>
      </trkpt>
      <trkpt lat="34.84055331934947" lon="113.65059030846037">
        <ele>90.62288130261004</ele>
        <time>2026-08-20T23:44:49Z</time>
      </trkpt>
      <trkpt lat="34.84047120661614" lon="113.65063024080044">
        <ele>91.01200581714511</ele>
        <time>2026-08-20T23:44:52Z</time>
      </trkpt>
      <trkpt lat="34.84032728073919" lon="113.6507775115101">
        <ele>90.57219726964831</ele>
        <time>2026-08-20T23:44:59Z</time>
      </trkpt>
      <trkpt lat="34.84028173120117" lon="113.65077518926641">
        <ele>90.26131567452103</ele>
        <time>2026-08-20T23:45:02Z</time>
      </trkpt>
      <trkpt lat="34.840246344786415" lon="113.65071988983685">
        <ele>90.36068590730429</ele>
        <time>2026-08-20T23:45:05Z</time>
      </trkpt>
      <trkpt lat="34.840159667669305" lon="113.65084014104332">
        <ele>90.2940855147317</ele>
        <time>2026-08-20T23:45:17Z</time>
      </trkpt>
      <trkpt lat="34.839992158420365" lon="113.65094173694303">
        <ele>89.5834661256522</ele>
        <time>2026-08-20T23:45:20Z</time>
      </trkpt>
      <trkpt lat="34.83982382357806" lon="113.65111209362463">
        <ele>91.21920719463378</ele>
        <time>2026-08-20T23:45:32Z</time>
      </trkpt>
      <trkpt lat="34.83971451299257" lon="113.65115397733892">
        <ele>91.12411535251886</ele>
        <time>2026-08-20T23:45:38Z</time>
      </trkpt>
      <trkpt lat="34.83960109251782" lon="113.65123194842991">
        <ele>90.85179471038282</ele>
        <time>2026-08-20T23:45:44Z</time>
      </trkpt>
      <trkpt lat="34.83942936389567" lon="113.65130341818144">
        <ele>90.61652515921742</ele>
        <time>2026-08-20T23:45:53Z</time>
      </trkpt>
      <trkpt lat="34.83915491776043" lon="113.65135224862713">
        <ele>89.61867329105735</ele>
        <time>2026-08-20T23:46:08Z</time>
      </trkpt>
      <trkpt lat="34.83889589020165" lon="113.6514898443575">
        <ele>87.49737153574824</ele>
        <time>2026-08-20T23:46:23Z</time>
      </trkpt>
      <trkpt lat="34.838843807031225" lon="113.65153566377855">
        <ele>88.4702690076083</ele>
        <time>2026-08-20T23:46:26Z</time>
      </trkpt>
      <trkpt lat="34.83872859241693" lon="113.65156319960671">
        <ele>89.8244219776243</ele>
        <time>2026-08-20T23:46:32Z</time>
      </trkpt>
      <trkpt lat="34.83868620321222" lon="113.65161207937693">
        <ele>90.273527700454</ele>
        <time>2026-08-20T23:46:35Z</time>
      </trkpt>
      <trkpt lat="34.838435403107944" lon="113.65174557239098">
        <ele>90.54852273035794</ele>
        <time>2026-08-20T23:46:50Z</time>
      </trkpt>
      <trkpt lat="34.83834285350079" lon="113.6518324791697">
        <ele>90.67975055240095</ele>
        <time>2026-08-20T23:46:56Z</time>
      </trkpt>
      <trkpt lat="34.83823383667808" lon="113.65188232547494">
        <ele>90.77464580535889</ele>
        <time>2026-08-20T23:47:03Z</time>
      </trkpt>
      <trkpt lat="34.83811924436805" lon="113.65195846203552">
        <ele>90.94653452001512</ele>
        <time>2026-08-20T23:47:09Z</time>
      </trkpt>
      <trkpt lat="34.83806540215331" lon="113.65197072088874">
        <ele>90.81191442906857</ele>
        <time>2026-08-20T23:47:12Z</time>
      </trkpt>
      <trkpt lat="34.838026946805115" lon="113.65203028431773">
        <ele>89.96703579649329</ele>
        <time>2026-08-20T23:47:15Z</time>
      </trkpt>
      <trkpt lat="34.83776881914091" lon="113.65216220402628">
        <ele>89.80190896242857</ele>
        <time>2026-08-20T23:47:30Z</time>
      </trkpt>
      <trkpt lat="34.83771456663033" lon="113.65220371992008">
        <ele>89.14307058602571</ele>
        <time>2026-08-20T23:47:33Z</time>
      </trkpt>
      <trkpt lat="34.83766620147724" lon="113.65220409832621">
        <ele>89.4917784165591</ele>
        <time>2026-08-20T23:47:36Z</time>
      </trkpt>
      <trkpt lat="34.83761541592072" lon="113.65224965529191">
        <ele>88.46702143549919</ele>
        <time>2026-08-20T23:47:39Z</time>
      </trkpt>
      <trkpt lat="34.8375692855465" lon="113.65226708834582">
        <ele>89.1631081206724</ele>
        <time>2026-08-20T23:47:42Z</time>
      </trkpt>
      <trkpt lat="34.83752419796449" lon="113.65226077377974">
        <ele>89.84898795839399</ele>
        <time>2026-08-20T23:47:45Z</time>
      </trkpt>
      <trkpt lat="34.83730300234946" lon="113.65233215223974">
        <ele>92.1241624718532</ele>
        <time>2026-08-20T23:47:57Z</time>
      </trkpt>
      <trkpt lat="34.837064174984654" lon="113.65245745706432">
        <ele>91.99346944782883</ele>
        <time>2026-08-20T23:48:12Z</time>
      </trkpt>
      <trkpt lat="34.836827018798786" lon="113.65264808605771">
        <ele>90.25798749458045</ele>
        <time>2026-08-20T23:48:27Z</time>
      </trkpt>
      <trkpt lat="34.83658106202762" lon="113.65284743911849">
        <ele>89.33539081923664</ele>
        <time>2026-08-20T23:48:42Z</time>
      </trkpt>
      <trkpt lat="34.83653298985972" lon="113.65289125751681">
        <ele>88.55182092264295</ele>
        <time>2026-08-20T23:48:45Z</time>
      </trkpt>
      <trkpt lat="34.836403803406114" lon="113.65295208719654">
        <ele>89.16004553437233</ele>
        <time>2026-08-20T23:48:54Z</time>
      </trkpt>
      <trkpt lat="34.83632143160806" lon="113.65304438522338">
        <ele>89.55699334386736</ele>
        <time>2026-08-20T23:49:00Z</time>
      </trkpt>
      <trkpt lat="34.83631399876076" lon="113.65310210834892">
        <ele>88.98563078884035</ele>
        <time>2026-08-20T23:49:03Z</time>
      </trkpt>
      <trkpt lat="34.83620377008716" lon="113.65321317092845">
        <ele>88.57988980785012</ele>
        <time>2026-08-20T23:49:11Z</time>
      </trkpt>
      <trkpt lat="34.836137054799195" lon="113.65322691648153">
        <ele>88.8778646318242</ele>
        <time>2026-08-20T23:49:15Z</time>
      </trkpt>
      <trkpt lat="34.836047230729896" lon="113.65318619539298">
        <ele>90.78480551019311</ele>
        <time>2026-08-20T23:49:19Z</time>
      </trkpt>
      <trkpt lat="34.835865440647126" lon="113.65323493690488">
        <ele>90.23449198994786</ele>
        <time>2026-08-20T23:49:27Z</time>
      </trkpt>
      <trkpt lat="34.83571335145237" lon="113.65333007834674">
        <ele>90.65090721100569</ele>
        <time>2026-08-20T23:49:36Z</time>
      </trkpt>
      <trkpt lat="34.83563725461428" lon="113.65334545374017">
        <ele>90.9575722143054</ele>
        <time>2026-08-20T23:49:39Z</time>
      </trkpt>
      <trkpt lat="34.83540172311715" lon="113.6534327871305">
        <ele>91.02800978440791</ele>
        <time>2026-08-20T23:49:51Z</time>
      </trkpt>
      <trkpt lat="34.835299407732776" lon="113.65349652607455">
        <ele>91.55676985997707</ele>
        <time>2026-08-20T23:49:57Z</time>
      </trkpt>
      <trkpt lat="34.83514163648017" lon="113.653544072102">
        <ele>90.62548353150487</ele>
        <time>2026-08-20T23:50:03Z</time>
      </trkpt>
      <trkpt lat="34.835041542730416" lon="113.65359997699393">
        <ele>91.315763162449</ele>
        <time>2026-08-20T23:50:06Z</time>
      </trkpt>
      <trkpt lat="34.83499663064885" lon="113.65365182801332">
        <ele>90.799496460706</ele>
        <time>2026-08-20T23:50:09Z</time>
      </trkpt>
      <trkpt lat="34.8348551487432" lon="113.65370005628237">
        <ele>90.57742641121149</ele>
        <time>2026-08-20T23:50:15Z</time>
      </trkpt>
      <trkpt lat="34.83482879937642" lon="113.65375446623894">
        <ele>91.15278796572238</ele>
        <time>2026-08-20T23:50:18Z</time>
      </trkpt>
      <trkpt lat="34.83473381286416" lon="113.65384770961259">
        <ele>91.53414196521044</ele>
        <time>2026-08-20T23:50:24Z</time>
      </trkpt>
      <trkpt lat="34.834546592457414" lon="113.65391712271546">
        <ele>91.3064627777785</ele>
        <time>2026-08-20T23:50:36Z</time>
      </trkpt>
      <trkpt lat="34.834495125256076" lon="113.6539540971376">
        <ele>91.77045150659978</ele>
        <time>2026-08-20T23:50:39Z</time>
      </trkpt>
      <trkpt lat="34.83442417983744" lon="113.65405158141007">
        <ele>91.75049516931176</ele>
        <time>2026-08-20T23:50:45Z</time>
      </trkpt>
      <trkpt lat="34.834302158711445" lon="113.65397892472681">
        <ele>91.21986401453614</ele>
        <time>2026-08-20T23:50:51Z</time>
      </trkpt>
      <trkpt lat="34.8341556293008" lon="113.65392856618195">
        <ele>90.88031470682472</ele>
        <time>2026-08-20T23:50:54Z</time>
      </trkpt>
      <trkpt lat="34.83405583480271" lon="113.65396134154676">
        <ele>91.45631663221866</ele>
        <time>2026-08-20T23:51:00Z</time>
      </trkpt>
      <trkpt lat="34.83396303241242" lon="113.65402677402355">
        <ele>90.80446790717542</ele>
        <time>2026-08-20T23:51:09Z</time>
      </trkpt>
      <trkpt lat="34.83382412572092" lon="113.65403654125171">
        <ele>90.13267721235752</ele>
        <time>2026-08-20T23:51:13Z</time>
      </trkpt>
      <trkpt lat="34.83366238331491" lon="113.65417412108582">
        <ele>89.6451191296801</ele>
        <time>2026-08-20T23:51:25Z</time>
      </trkpt>
      <trkpt lat="34.833633999920366" lon="113.65422996320683">
        <ele>90.26705322880298</ele>
        <time>2026-08-20T23:51:29Z</time>
      </trkpt>
      <trkpt lat="34.8334971784091" lon="113.65417756734955">
        <ele>89.85269443131983</ele>
        <time>2026-08-20T23:51:33Z</time>
      </trkpt>
      <trkpt lat="34.83339365837549" lon="113.6542454495769">
        <ele>91.5537408767268</ele>
        <time>2026-08-20T23:51:39Z</time>
      </trkpt>
      <trkpt lat="34.83322968465594" lon="113.65429208841792">
        <ele>92.83269286248833</ele>
        <time>2026-08-20T23:51:48Z</time>
      </trkpt>
      <trkpt lat="34.83316284004146" lon="113.65433263482356">
        <ele>93.67545309197158</ele>
        <time>2026-08-20T23:51:51Z</time>
      </trkpt>
      <trkpt lat="34.83314030365765" lon="113.65438673596195">
        <ele>93.11862318404019</ele>
        <time>2026-08-20T23:51:57Z</time>
      </trkpt>
      <trkpt lat="34.83319101921627" lon="113.6544239943241">
        <ele>91.80198658723384</ele>
        <time>2026-08-20T23:52:06Z</time>
      </trkpt>
      <trkpt lat="34.83323874720914" lon="113.65476741084035">
        <ele>91.93744250014424</ele>
        <time>2026-08-20T23:52:21Z</time>
      </trkpt>
      <trkpt lat="34.83323529008336" lon="113.65490241418794">
        <ele>91.92732151038945</ele>
        <time>2026-08-20T23:52:27Z</time>
      </trkpt>
      <trkpt lat="34.83328192994457" lon="113.65492781946135">
        <ele>91.19155701436102</ele>
        <time>2026-08-20T23:52:30Z</time>
      </trkpt>
      <trkpt lat="34.83338100010441" lon="113.65486146560654">
        <ele>90.97038423176855</ele>
        <time>2026-08-20T23:52:36Z</time>
      </trkpt>
      <trkpt lat="34.833655758630805" lon="113.65480430490622">
        <ele>90.85565792862326</ele>
        <time>2026-08-20T23:52:51Z</time>
      </trkpt>
      <trkpt lat="34.83387048484087" lon="113.65485549479288">
        <ele>90.89426548033953</ele>
        <time>2026-08-20T23:53:03Z</time>
      </trkpt>
      <trkpt lat="34.83396610868052" lon="113.65491823531995">
        <ele>90.72715715225786</ele>
        <time>2026-08-20T23:53:09Z</time>
      </trkpt>
      <trkpt lat="34.83401392020984" lon="113.65501104888585">
        <ele>89.92061425093561</ele>
        <time>2026-08-20T23:53:15Z</time>
      </trkpt>
      <trkpt lat="34.8341375842747" lon="113.65508598826936">
        <ele>89.92228382825851</ele>
        <time>2026-08-20T23:53:23Z</time>
      </trkpt>
      <trkpt lat="34.83424009082372" lon="113.65535772156618">
        <ele>89.67243143729866</ele>
        <time>2026-08-20T23:53:37Z</time>
      </trkpt>
      <trkpt lat="34.834266902680156" lon="113.65555132825764">
        <ele>90.29406727012247</ele>
        <time>2026-08-20T23:53:46Z</time>
      </trkpt>
      <trkpt lat="34.83423915937833" lon="113.65578201978529">
        <ele>91.72993104346097</ele>
        <time>2026-08-20T23:53:55Z</time>
      </trkpt>
      <trkpt lat="34.834191324112325" lon="113.65591878280443">
        <ele>92.0136483097449</ele>
        <time>2026-08-20T23:54:01Z</time>
      </trkpt>
      <trkpt lat="34.83405763642461" lon="113.65611294960158">
        <ele>91.9125946490094</ele>
        <time>2026-08-20T23:54:13Z</time>
      </trkpt>
      <trkpt lat="34.83391271112617" lon="113.65623397102343">
        <ele>92.04181987978518</ele>
        <time>2026-08-20T23:54:22Z</time>
      </trkpt>
      <trkpt lat="34.83363008592028" lon="113.65636263113008">
        <ele>91.9111553998664</ele>
        <time>2026-08-20T23:54:37Z</time>
      </trkpt>
      <trkpt lat="34.83335543462347" lon="113.656373355102">
        <ele>91.07816635724157</ele>
        <time>2026-08-20T23:54:52Z</time>
      </trkpt>
      <trkpt lat="34.83313777295368" lon="113.65628250285084">
        <ele>90.01876906026155</ele>
        <time>2026-08-20T23:55:04Z</time>
      </trkpt>
      <trkpt lat="34.832921499546636" lon="113.65610384784884">
        <ele>91.23002905398607</ele>
        <time>2026-08-20T23:55:16Z</time>
      </trkpt>
      <trkpt lat="34.832801917234036" lon="113.65591998598681">
        <ele>91.10286587011069</ele>
        <time>2026-08-20T23:55:26Z</time>
      </trkpt>
      <trkpt lat="34.83275878868743" lon="113.65588187567127">
        <ele>91.11440423130989</ele>
        <time>2026-08-20T23:55:29Z</time>
      </trkpt>
      <trkpt lat="34.832694198680144" lon="113.65587326016619">
        <ele>91.54570786934346</ele>
        <time>2026-08-20T23:55:32Z</time>
      </trkpt>
      <trkpt lat="34.83264002996298" lon="113.65590149649283">
        <ele>91.90892011392862</ele>
        <time>2026-08-20T23:55:35Z</time>
      </trkpt>
      <trkpt lat="34.83248895089803" lon="113.65608236000193">
        <ele>91.31725437939167</ele>
        <time>2026-08-20T23:55:47Z</time>
      </trkpt>
      <trkpt lat="34.8324333630093" lon="113.6561224039855">
        <ele>91.90982042066753</ele>
        <time>2026-08-20T23:55:50Z</time>
      </trkpt>
      <trkpt lat="34.83221174036444" lon="113.65614362096882">
        <ele>91.44592654239386</ele>
        <time>2026-08-20T23:56:02Z</time>
      </trkpt>
      <trkpt lat="34.832097967925954" lon="113.65609518411975">
        <ele>91.73291265685111</ele>
        <time>2026-08-20T23:56:08Z</time>
      </trkpt>
      <trkpt lat="34.83196418488833" lon="113.65594853784214">
        <ele>91.8976231245324</ele>
        <time>2026-08-20T23:56:17Z</time>
      </trkpt>
      <trkpt lat="34.83194935400334" lon="113.6558666410902">
        <ele>92.78211887553334</ele>
        <time>2026-08-20T23:56:20Z</time>
      </trkpt>
      <trkpt lat="34.83195683681447" lon="113.65579299275304">
        <ele>92.41103971749544</ele>
        <time>2026-08-20T23:56:23Z</time>
      </trkpt>
      <trkpt lat="34.832006174716845" lon="113.65566688183993">
        <ele>92.41415015142411</ele>
        <time>2026-08-20T23:56:29Z</time>
      </trkpt>
      <trkpt lat="34.83208471341273" lon="113.6556488881948">
        <ele>91.77626365702599</ele>
        <time>2026-08-20T23:56:32Z</time>
      </trkpt>
      <trkpt lat="34.832152244195115" lon="113.65561181928159">
        <ele>91.81712621636689</ele>
        <time>2026-08-20T23:56:35Z</time>
      </trkpt>
      <trkpt lat="34.83223092805546" lon="113.65548803290437">
        <ele>92.36024709418416</ele>
        <time>2026-08-20T23:56:41Z</time>
      </trkpt>
      <trkpt lat="34.83227300406083" lon="113.6552816264547">
        <ele>91.77105564903468</ele>
        <time>2026-08-20T23:56:50Z</time>
      </trkpt>
      <trkpt lat="34.83230387968905" lon="113.65520924128325">
        <ele>93.12826550006866</ele>
        <time>2026-08-20T23:56:53Z</time>
      </trkpt>
      <trkpt lat="34.83239873094969" lon="113.65511645689391">
        <ele>92.51910620182753</ele>
        <time>2026-08-20T23:56:59Z</time>
      </trkpt>
      <trkpt lat="34.83251410724716" lon="113.65509683584784">
        <ele>91.71824041195214</ele>
        <time>2026-08-20T23:57:05Z</time>
      </trkpt>
      <trkpt lat="34.83277965576123" lon="113.65522796287762">
        <ele>92.67639925796539</ele>
        <time>2026-08-20T23:57:20Z</time>
      </trkpt>
      <trkpt lat="34.8329777392587" lon="113.65525270873636">
        <ele>90.89836306497455</ele>
        <time>2026-08-20T23:57:30Z</time>
      </trkpt>
      <trkpt lat="34.83305338917726" lon="113.65524367134743">
        <ele>91.60935453604907</ele>
        <time>2026-08-20T23:57:34Z</time>
      </trkpt>
      <trkpt lat="34.83314200236194" lon="113.65520844232455">
        <ele>91.87584965489805</ele>
        <time>2026-08-20T23:57:38Z</time>
      </trkpt>
      <trkpt lat="34.83324868534519" lon="113.65509911355541">
        <ele>92.49783326499164</ele>
        <time>2026-08-20T23:57:45Z</time>
      </trkpt>
      <trkpt lat="34.83332499610167" lon="113.65499048345313">
        <ele>93.30260584596545</ele>
        <time>2026-08-20T23:57:51Z</time>
      </trkpt>
      <trkpt lat="34.83334825341146" lon="113.6551174377322">
        <ele>90.48029918596148</ele>
        <time>2026-08-20T23:57:57Z</time>
      </trkpt>
      <trkpt lat="34.83332954794146" lon="113.65518444249533">
        <ele>89.69802802987397</ele>
        <time>2026-08-20T23:58:00Z</time>
      </trkpt>
      <trkpt lat="34.833348727386" lon="113.65523963153848">
        <ele>89.42962936777622</ele>
        <time>2026-08-20T23:58:03Z</time>
      </trkpt>
      <trkpt lat="34.833521650988544" lon="113.65522798622567">
        <ele>90.5500850751996</ele>
        <time>2026-08-20T23:58:12Z</time>
      </trkpt>
      <trkpt lat="34.83358234453994" lon="113.65524815663818">
        <ele>90.46711869351566</ele>
        <time>2026-08-20T23:58:15Z</time>
      </trkpt>
      <trkpt lat="34.833622272916614" lon="113.6553013721229">
        <ele>90.53670896217227</ele>
        <time>2026-08-20T23:58:18Z</time>
      </trkpt>
      <trkpt lat="34.83370167573736" lon="113.65562730498635">
        <ele>91.06094870623201</ele>
        <time>2026-08-20T23:58:33Z</time>
      </trkpt>
      <trkpt lat="34.83379935292948" lon="113.6556982290239">
        <ele>90.81611217651516</ele>
        <time>2026-08-20T23:58:39Z</time>
      </trkpt>
      <trkpt lat="34.834040698585554" lon="113.65572411926256">
        <ele>92.1836803201586</ele>
        <time>2026-08-20T23:58:51Z</time>
      </trkpt>
      <trkpt lat="34.83412026864146" lon="113.65575358014422">
        <ele>92.13597646169364</ele>
        <time>2026-08-20T23:58:54Z</time>
      </trkpt>
      <trkpt lat="34.83415207335411" lon="113.65579564039467">
        <ele>92.64556564297527</ele>
        <time>2026-08-20T23:58:57Z</time>
      </trkpt>
      <trkpt lat="34.834155044314464" lon="113.65585486371455">
        <ele>91.8660631487146</ele>
        <time>2026-08-20T23:59:00Z</time>
      </trkpt>
      <trkpt lat="34.8341043884527" lon="113.65599146854738">
        <ele>92.38484794367105</ele>
        <time>2026-08-20T23:59:06Z</time>
      </trkpt>
      <trkpt lat="34.834009489247556" lon="113.65612632209877">
        <ele>92.34497002325952</ele>
        <time>2026-08-20T23:59:12Z</time>
      </trkpt>
      <trkpt lat="34.833957178507326" lon="113.65617450004284">
        <ele>90.86032745800912</ele>
        <time>2026-08-20T23:59:15Z</time>
      </trkpt>
      <trkpt lat="34.833899945868644" lon="113.65618396243582">
        <ele>91.29953535180539</ele>
        <time>2026-08-20T23:59:18Z</time>
      </trkpt>
      <trkpt lat="34.83381771701068" lon="113.65616817431979">
        <ele>91.59681818820536</ele>
        <time>2026-08-20T23:59:21Z</time>
      </trkpt>
      <trkpt lat="34.833654527119506" lon="113.65606609515245">
        <ele>90.77879337500781</ele>
        <time>2026-08-20T23:59:30Z</time>
      </trkpt>
      <trkpt lat="34.833584329531305" lon="113.65604911318755">
        <ele>90.276124115102</ele>
        <time>2026-08-20T23:59:33Z</time>
      </trkpt>
      <trkpt lat="34.83347602646092" lon="113.65606627075309">
        <ele>91.30772147234529</ele>
        <time>2026-08-20T23:59:37Z</time>
      </trkpt>
      <trkpt lat="34.833375984926285" lon="113.65612434947316">
        <ele>93.43626341037452</ele>
        <time>2026-08-20T23:59:43Z</time>
      </trkpt>
      <trkpt lat="34.83325813409258" lon="113.65623184894694">
        <ele>94.26099178381264</ele>
        <time>2026-08-20T23:59:52Z</time>
      </trkpt>
      <trkpt lat="34.83307325437008" lon="113.65619050621399">
        <ele>92.99741421639919</ele>
        <time>2026-08-20T23:59:58Z</time>
      </trkpt>
      <trkpt lat="34.83295687475018" lon="113.65610912143721">
        <ele>92.92028919421136</ele>
        <time>2026-08-21T00:00:04Z</time>
      </trkpt>
      <trkpt lat="34.832776250348196" lon="113.65593250931106">
        <ele>93.17003013379872</ele>
        <time>2026-08-21T00:00:16Z</time>
      </trkpt>
      <trkpt lat="34.832697664928226" lon="113.65581410282526">
        <ele>92.5732122445479</ele>
        <time>2026-08-21T00:00:22Z</time>
      </trkpt>
      <trkpt lat="34.832655882804495" lon="113.65578544558016">
        <ele>92.67057117260993</ele>
        <time>2026-08-21T00:00:25Z</time>
      </trkpt>
      <trkpt lat="34.83259802666018" lon="113.65578962258934">
        <ele>91.86066437792033</ele>
        <time>2026-08-21T00:00:28Z</time>
      </trkpt>
      <trkpt lat="34.8324410426776" lon="113.65566550524414">
        <ele>91.6512613967061</ele>
        <time>2026-08-21T00:00:37Z</time>
      </trkpt>
      <trkpt lat="34.83239307407504" lon="113.65568454172794">
        <ele>91.08673251140863</ele>
        <time>2026-08-21T00:00:40Z</time>
      </trkpt>
      <trkpt lat="34.83221097709107" lon="113.65593140401612">
        <ele>91.37008179165423</ele>
        <time>2026-08-21T00:00:55Z</time>
      </trkpt>
      <trkpt lat="34.832087194246675" lon="113.65602036270444">
        <ele>91.98198708891869</ele>
        <time>2026-08-21T00:01:01Z</time>
      </trkpt>
      <trkpt lat="34.83191936363452" lon="113.65597640934706">
        <ele>91.31480475887656</ele>
        <time>2026-08-21T00:01:10Z</time>
      </trkpt>
      <trkpt lat="34.83181425471128" lon="113.65600879622653">
        <ele>90.4370913458988</ele>
        <time>2026-08-21T00:01:16Z</time>
      </trkpt>
      <trkpt lat="34.831561143378686" lon="113.65619938785565">
        <ele>91.13629474118352</ele>
        <time>2026-08-21T00:01:31Z</time>
      </trkpt>
      <trkpt lat="34.83140548155274" lon="113.65629483255209">
        <ele>91.40480698924512</ele>
        <time>2026-08-21T00:01:40Z</time>
      </trkpt>
      <trkpt lat="34.83132017280669" lon="113.65627407159035">
        <ele>90.42065435554832</ele>
        <time>2026-08-21T00:01:44Z</time>
      </trkpt>
      <trkpt lat="34.83125519869983" lon="113.65622616641629">
        <ele>91.66017918474972</ele>
        <time>2026-08-21T00:01:48Z</time>
      </trkpt>
      <trkpt lat="34.8311007805589" lon="113.65620133900653">
        <ele>91.90737925283611</ele>
        <time>2026-08-21T00:01:56Z</time>
      </trkpt>
      <trkpt lat="34.83098841854934" lon="113.65615270555463">
        <ele>91.19943044520915</ele>
        <time>2026-08-21T00:02:02Z</time>
      </trkpt>
      <trkpt lat="34.83092371236968" lon="113.65615262489767">
        <ele>91.27893388736993</ele>
        <time>2026-08-21T00:02:05Z</time>
      </trkpt>
      <trkpt lat="34.83076702515758" lon="113.65622712182285">
        <ele>90.42526073101908</ele>
        <time>2026-08-21T00:02:14Z</time>
      </trkpt>
      <trkpt lat="34.830674428898774" lon="113.65633400121565">
        <ele>92.0368564883247</ele>
        <time>2026-08-21T00:02:20Z</time>
      </trkpt>
      <trkpt lat="34.83058933959032" lon="113.6565633831958">
        <ele>89.18823747243732</ele>
        <time>2026-08-21T00:02:32Z</time>
      </trkpt>
      <trkpt lat="34.83055259312193" lon="113.65660683167773">
        <ele>87.36759731080383</ele>
        <time>2026-08-21T00:02:35Z</time>
      </trkpt>
      <trkpt lat="34.83030595968763" lon="113.65676306070357">
        <ele>87.98903775494546</ele>
        <time>2026-08-21T00:02:47Z</time>
      </trkpt>
      <trkpt lat="34.83027505923344" lon="113.65681301619927">
        <ele>88.69374037068337</ele>
        <time>2026-08-21T00:02:50Z</time>
      </trkpt>
      <trkpt lat="34.83022842662022" lon="113.65722075385824">
        <ele>89.64974892605096</ele>
        <time>2026-08-21T00:03:11Z</time>
      </trkpt>
      <trkpt lat="34.83022978291697" lon="113.65758316590049">
        <ele>85.14971406478435</ele>
        <time>2026-08-21T00:03:29Z</time>
      </trkpt>
      <trkpt lat="34.830196380010115" lon="113.6577005522981">
        <ele>84.63188650086522</ele>
        <time>2026-08-21T00:03:35Z</time>
      </trkpt>
      <trkpt lat="34.83020666304144" lon="113.6577826330678">
        <ele>85.4156923322007</ele>
        <time>2026-08-21T00:03:38Z</time>
      </trkpt>
      <trkpt lat="34.83018379715799" lon="113.65791289909687">
        <ele>85.72463906183839</ele>
        <time>2026-08-21T00:03:44Z</time>
      </trkpt>
      <trkpt lat="34.83020369775961" lon="113.65813421322187">
        <ele>87.20027892198414</ele>
        <time>2026-08-21T00:03:52Z</time>
      </trkpt>
      <trkpt lat="34.83018888381174" lon="113.65832707432415">
        <ele>88.71068037394434</ele>
        <time>2026-08-21T00:04:00Z</time>
      </trkpt>
      <trkpt lat="34.83013301896201" lon="113.65845345514994">
        <ele>90.42563920468092</ele>
        <time>2026-08-21T00:04:06Z</time>
      </trkpt>
      <trkpt lat="34.83002299695409" lon="113.65851789459">
        <ele>91.7549547990784</ele>
        <time>2026-08-21T00:04:15Z</time>
      </trkpt>
      <trkpt lat="34.82995059497376" lon="113.6585201585855">
        <ele>90.93587947357446</ele>
        <time>2026-08-21T00:04:18Z</time>
      </trkpt>
      <trkpt lat="34.829895921741695" lon="113.65848095123523">
        <ele>91.30163849238306</ele>
        <time>2026-08-21T00:04:24Z</time>
      </trkpt>
      <trkpt lat="34.829937065361236" lon="113.65844185627297">
        <ele>92.58306956384331</ele>
        <time>2026-08-21T00:05:09Z</time>
      </trkpt>
      <trkpt lat="34.829869668944255" lon="113.65846643319341">
        <ele>92.40672160033137</ele>
        <time>2026-08-21T00:05:15Z</time>
      </trkpt>
      <trkpt lat="34.82974430977186" lon="113.65844162628557">
        <ele>90.61384969577193</ele>
        <time>2026-08-21T00:05:24Z</time>
      </trkpt>
      <trkpt lat="34.82967829343891" lon="113.65821993814232">
        <ele>90.91418424341828</ele>
        <time>2026-08-21T00:05:36Z</time>
      </trkpt>
      <trkpt lat="34.82963488799211" lon="113.65817451900766">
        <ele>90.32572860550135</ele>
        <time>2026-08-21T00:05:39Z</time>
      </trkpt>
      <trkpt lat="34.82946887143136" lon="113.6581818569318">
        <ele>90.7078321268782</ele>
        <time>2026-08-21T00:05:51Z</time>
      </trkpt>
      <trkpt lat="34.82934433901445" lon="113.65809385728703">
        <ele>92.21315693482757</ele>
        <time>2026-08-21T00:05:58Z</time>
      </trkpt>
      <trkpt lat="34.82931606315357" lon="113.65802376621698">
        <ele>91.48493949417025</ele>
        <time>2026-08-21T00:06:01Z</time>
      </trkpt>
      <trkpt lat="34.82929332955231" lon="113.65787541504778">
        <ele>89.70345859508961</ele>
        <time>2026-08-21T00:06:07Z</time>
      </trkpt>
      <trkpt lat="34.829322521726645" lon="113.65748436807571">
        <ele>88.85569052677602</ele>
        <time>2026-08-21T00:06:22Z</time>
      </trkpt>
      <trkpt lat="34.82933518065697" lon="113.65713538420292">
        <ele>88.61289608012885</ele>
        <time>2026-08-21T00:06:34Z</time>
      </trkpt>
      <trkpt lat="34.82934132506625" lon="113.65705836203111">
        <ele>89.24749006424099</ele>
        <time>2026-08-21T00:06:37Z</time>
      </trkpt>
      <trkpt lat="34.82932431515143" lon="113.65691863630761">
        <ele>89.33794356603175</ele>
        <time>2026-08-21T00:06:43Z</time>
      </trkpt>
      <trkpt lat="34.829283280117686" lon="113.65684923428027">
        <ele>88.95978893805295</ele>
        <time>2026-08-21T00:06:46Z</time>
      </trkpt>
      <trkpt lat="34.829102063890645" lon="113.65675799960458">
        <ele>88.41164367366582</ele>
        <time>2026-08-21T00:06:55Z</time>
      </trkpt>
      <trkpt lat="34.8289815526614" lon="113.65679044830142">
        <ele>87.66835303977132</ele>
        <time>2026-08-21T00:07:01Z</time>
      </trkpt>
      <trkpt lat="34.828715220490174" lon="113.65690070031171">
        <ele>88.31686865538359</ele>
        <time>2026-08-21T00:07:16Z</time>
      </trkpt>
      <trkpt lat="34.82851622944594" lon="113.65696178280004">
        <ele>88.10003766976297</ele>
        <time>2026-08-21T00:07:28Z</time>
      </trkpt>
      <trkpt lat="34.82833535066445" lon="113.6569408208739">
        <ele>86.90076428093016</ele>
        <time>2026-08-21T00:07:40Z</time>
      </trkpt>
      <trkpt lat="34.828213109077424" lon="113.6568993492012">
        <ele>88.1867588404566</ele>
        <time>2026-08-21T00:07:46Z</time>
      </trkpt>
      <trkpt lat="34.82805232478161" lon="113.65698407740912">
        <ele>90.4461721200496</ele>
        <time>2026-08-21T00:07:58Z</time>
      </trkpt>
      <trkpt lat="34.82802397334955" lon="113.65718219541895">
        <ele>94.11029542516917</ele>
        <time>2026-08-21T00:08:08Z</time>
      </trkpt>
      <trkpt lat="34.82803781373556" lon="113.65731113508785">
        <ele>95.00698603317142</ele>
        <time>2026-08-21T00:08:14Z</time>
      </trkpt>
      <trkpt lat="34.82802277794236" lon="113.65740429500514">
        <ele>95.9815991204232</ele>
        <time>2026-08-21T00:08:17Z</time>
      </trkpt>
      <trkpt lat="34.82803262543203" lon="113.65749409954239">
        <ele>96.1420830162242</ele>
        <time>2026-08-21T00:08:20Z</time>
      </trkpt>
      <trkpt lat="34.828021784362534" lon="113.65756312643599">
        <ele>96.84952175524086</ele>
        <time>2026-08-21T00:08:23Z</time>
      </trkpt>
      <trkpt lat="34.828031123807584" lon="113.65761201857602">
        <ele>96.226025339216</ele>
        <time>2026-08-21T00:08:26Z</time>
      </trkpt>
    </trkseg>
  </trk>
</gpx>