<?xml version="1.0" encoding="UTF-8"?>
<gpx xmlns="http://www.topografix.com/GPX/1/1" xmlns:gpxtpx="http://www.garmin.com/xmlschemas/TrackPointExtension/v1" xmlns:xsi="http://www.w3.org/2001/XMLSchema-instance" xsi:schemaLocation="http://www.topografix.com/GPX/1/1 http://www.topografix.com/GPX/1/1/gpx.xsd" version="1.1" creator="gpx.py -- https://github.com/tkrajina/gpxpy">
  <trk>
    <name>gpx from keep</name>
    <type>Walk</type>
    <trkseg>
      <trkpt lat="34.83892211971707" lon="113.6488754557108">
        <ele>91.30783002730459</ele>
        <time>2026-09-27T23:50:43Z</time>
      </trkpt>
      <trkpt lat="34.83892230548656" lon="113.64905975745798">
        <ele>89.56104674935341</ele>
        <time>2026-09-27T23:50:55Z</time>
      </trkpt>
      <trkpt lat="34.838989470198854" lon="113.64912561485635">
        <ele>89.2653953852132</ele>
        <time>2026-09-27T23:51:01Z</time>
      </trkpt>
      <trkpt lat="34.839038434714645" lon="113.64912033230681">
        <ele>90.87995434179902</ele>
        <time>2026-09-27T23:51:52Z</time>
      </trkpt>
      <trkpt lat="34.83903232731628" lon="113.64921982035754">
        <ele>92.89597010891885</ele>
        <time>2026-09-27T23:52:19Z</time>
      </trkpt>
      <trkpt lat="34.83911543693455" lon="113.64937263277584">
        <ele>90.01767594832927</ele>
        <time>2026-09-27T23:52:28Z</time>
      </trkpt>
      <trkpt lat="34.83916514133019" lon="113.64960574921905">
        <ele>89.78856644313782</ele>
        <time>2026-09-27T23:52:44Z</time>
      </trkpt>
      <trkpt lat="34.839065857514896" lon="113.64974964118686">
        <ele>89.35535231139511</ele>
        <time>2026-09-27T23:52:53Z</time>
      </trkpt>
      <trkpt lat="34.838919874361586" lon="113.64987694596726">
        <ele>90.4004604415968</ele>
        <time>2026-09-27T23:53:05Z</time>
      </trkpt>
      <trkpt lat="34.83870231191129" lon="113.64998282808881">
        <ele>89.30813302472234</ele>
        <time>2026-09-27T23:53:20Z</time>
      </trkpt>
      <trkpt lat="34.83856564935226" lon="113.65002601376668">
        <ele>89.58197891712189</ele>
        <time>2026-09-27T23:53:29Z</time>
      </trkpt>
      <trkpt lat="34.83854705246119" lon="113.65007961123067">
        <ele>90.05145531427115</ele>
        <time>2026-09-27T23:53:32Z</time>
      </trkpt>
      <trkpt lat="34.83854483377242" lon="113.65027034837846">
        <ele>90.83713447116315</ele>
        <time>2026-09-27T23:53:41Z</time>
      </trkpt>
      <trkpt lat="34.838298880247834" lon="113.65041961764679">
        <ele>89.21073839068413</ele>
        <time>2026-09-27T23:53:59Z</time>
      </trkpt>
      <trkpt lat="34.8381093746906" lon="113.65062130520467">
        <ele>88.4017356755212</ele>
        <time>2026-09-27T23:54:14Z</time>
      </trkpt>
      <trkpt lat="34.83784857968356" lon="113.65081282456644">
        <ele>88.71770781651139</ele>
        <time>2026-09-27T23:54:32Z</time>
      </trkpt>
      <trkpt lat="34.83755680250573" lon="113.65100953901862">
        <ele>89.43153808172792</ele>
        <time>2026-09-27T23:54:52Z</time>
      </trkpt>
      <trkpt lat="34.8374208830883" lon="113.65105553142514">
        <ele>90.21413455624133</ele>
        <time>2026-09-27T23:55:00Z</time>
      </trkpt>
      <trkpt lat="34.83711424547848" lon="113.65109281753404">
        <ele>88.88013513293117</ele>
        <time>2026-09-27T23:55:18Z</time>
      </trkpt>
      <trkpt lat="34.83686301283401" lon="113.65098940648774">
        <ele>89.09620396699756</ele>
        <time>2026-09-27T23:55:33Z</time>
      </trkpt>
      <trkpt lat="34.83675963654772" lon="113.65097854406761">
        <ele>89.01986670214683</ele>
        <time>2026-09-27T23:55:39Z</time>
      </trkpt>
      <trkpt lat="34.836600382584066" lon="113.65102416807109">
        <ele>88.90719988010824</ele>
        <time>2026-09-27T23:55:48Z</time>
      </trkpt>
      <trkpt lat="34.83651168574473" lon="113.65089631956221">
        <ele>88.66414399910718</ele>
        <time>2026-09-27T23:55:57Z</time>
      </trkpt>
      <trkpt lat="34.83635178603054" lon="113.65093834293917">
        <ele>87.68698558956385</ele>
        <time>2026-09-27T23:56:06Z</time>
      </trkpt>
      <trkpt lat="34.83630464054636" lon="113.650973014059">
        <ele>87.61214215029031</ele>
        <time>2026-09-27T23:56:09Z</time>
      </trkpt>
      <trkpt lat="34.836200421652336" lon="113.65098746692676">
        <ele>87.72092634718865</ele>
        <time>2026-09-27T23:56:15Z</time>
      </trkpt>
      <trkpt lat="34.83592522404579" lon="113.65111866905941">
        <ele>87.18168237712234</ele>
        <time>2026-09-27T23:56:33Z</time>
      </trkpt>
      <trkpt lat="34.83564994355672" lon="113.6512295288935">
        <ele>87.98068562801927</ele>
        <time>2026-09-27T23:56:51Z</time>
      </trkpt>
      <trkpt lat="34.83552945852357" lon="113.65125280300705">
        <ele>88.0382737442851</ele>
        <time>2026-09-27T23:56:59Z</time>
      </trkpt>
      <trkpt lat="34.83556932926225" lon="113.65134476796908">
        <ele>87.70419375877827</ele>
        <time>2026-09-27T23:57:03Z</time>
      </trkpt>
      <trkpt lat="34.83555263200484" lon="113.65140631039111">
        <ele>88.63209917023778</ele>
        <time>2026-09-27T23:57:07Z</time>
      </trkpt>
      <trkpt lat="34.835568785843385" lon="113.65154406292342">
        <ele>91.10390940401703</ele>
        <time>2026-09-27T23:57:15Z</time>
      </trkpt>
      <trkpt lat="34.8355510632159" lon="113.65160306163868">
        <ele>91.50241846684366</ele>
        <time>2026-09-27T23:57:19Z</time>
      </trkpt>
      <trkpt lat="34.83537036361995" lon="113.65166753080868">
        <ele>90.95274558383971</ele>
        <time>2026-09-27T23:57:31Z</time>
      </trkpt>
      <trkpt lat="34.835300378550706" lon="113.6518066660334">
        <ele>88.9262343691662</ele>
        <time>2026-09-27T23:57:40Z</time>
      </trkpt>
      <trkpt lat="34.83527806325087" lon="113.6519113733238">
        <ele>90.24220312386751</ele>
        <time>2026-09-27T23:57:46Z</time>
      </trkpt>
      <trkpt lat="34.83535779218769" lon="113.65196043885395">
        <ele>91.12637686356902</ele>
        <time>2026-09-27T23:57:52Z</time>
      </trkpt>
      <trkpt lat="34.83535230860672" lon="113.65202416166156">
        <ele>91.17300956975669</ele>
        <time>2026-09-27T23:58:17Z</time>
      </trkpt>
      <trkpt lat="34.835185904070684" lon="113.65210191504192">
        <ele>91.09643642418087</ele>
        <time>2026-09-27T23:58:29Z</time>
      </trkpt>
      <trkpt lat="34.834854631664356" lon="113.65221138964331">
        <ele>91.99293119553477</ele>
        <time>2026-09-27T23:58:50Z</time>
      </trkpt>
      <trkpt lat="34.834771464525126" lon="113.65226613055138">
        <ele>91.86582033708692</ele>
        <time>2026-09-27T23:58:56Z</time>
      </trkpt>
      <trkpt lat="34.83467005196251" lon="113.6523090835911">
        <ele>92.76859147381037</ele>
        <time>2026-09-27T23:59:03Z</time>
      </trkpt>
      <trkpt lat="34.834619009523855" lon="113.6523112384151">
        <ele>92.79138603806496</ele>
        <time>2026-09-27T23:59:06Z</time>
      </trkpt>
      <trkpt lat="34.83434560137751" lon="113.6524251893151">
        <ele>93.24736898206174</ele>
        <time>2026-09-27T23:59:24Z</time>
      </trkpt>
      <trkpt lat="34.834077982417085" lon="113.65250253227816">
        <ele>92.36368126515299</ele>
        <time>2026-09-27T23:59:42Z</time>
      </trkpt>
      <trkpt lat="34.833810350047955" lon="113.65259368638587">
        <ele>92.77279924973845</ele>
        <time>2026-09-28T00:00:00Z</time>
      </trkpt>
      <trkpt lat="34.83357215534435" lon="113.65265113450631">
        <ele>91.01891416311264</ele>
        <time>2026-09-28T00:00:15Z</time>
      </trkpt>
      <trkpt lat="34.8334393600153" lon="113.65273819780161">
        <ele>92.10737434681505</ele>
        <time>2026-09-28T00:00:24Z</time>
      </trkpt>
      <trkpt lat="34.83317138999061" lon="113.65281037769279">
        <ele>91.30564994458109</ele>
        <time>2026-09-28T00:00:48Z</time>
      </trkpt>
      <trkpt lat="34.833082289692555" lon="113.65286567886527">
        <ele>91.57731482945383</ele>
        <time>2026-09-28T00:00:57Z</time>
      </trkpt>
      <trkpt lat="34.833055226143905" lon="113.65319607386483">
        <ele>92.29227838758379</ele>
        <time>2026-09-28T00:01:15Z</time>
      </trkpt>
      <trkpt lat="34.8328051983893" lon="113.65342649935552">
        <ele>95.34261503908783</ele>
        <time>2026-09-28T00:01:36Z</time>
      </trkpt>
      <trkpt lat="34.83276057006707" lon="113.65346221210638">
        <ele>95.60240732412785</ele>
        <time>2026-09-28T00:01:39Z</time>
      </trkpt>
      <trkpt lat="34.832744072683255" lon="113.65351913902909">
        <ele>94.32435604184866</ele>
        <time>2026-09-28T00:01:42Z</time>
      </trkpt>
      <trkpt lat="34.83276367021801" lon="113.65362265986637">
        <ele>93.63019850756973</ele>
        <time>2026-09-28T00:01:48Z</time>
      </trkpt>
      <trkpt lat="34.8328283312599" lon="113.65371364601664">
        <ele>91.7085805926472</ele>
        <time>2026-09-28T00:02:00Z</time>
      </trkpt>
      <trkpt lat="34.832852909304044" lon="113.65381592568417">
        <ele>93.04652212746441</ele>
        <time>2026-09-28T00:02:06Z</time>
      </trkpt>
      <trkpt lat="34.832828686020385" lon="113.65414382165768">
        <ele>93.36006165109575</ele>
        <time>2026-09-28T00:02:21Z</time>
      </trkpt>
      <trkpt lat="34.83281203754304" lon="113.65439887552571">
        <ele>92.22119240276515</ele>
        <time>2026-09-28T00:02:36Z</time>
      </trkpt>
      <trkpt lat="34.83275672399526" lon="113.65446525411643">
        <ele>91.72986453678459</ele>
        <time>2026-09-28T00:02:42Z</time>
      </trkpt>
      <trkpt lat="34.83270659090013" lon="113.65446199392662">
        <ele>90.81034456193447</ele>
        <time>2026-09-28T00:02:45Z</time>
      </trkpt>
      <trkpt lat="34.8324368976243" lon="113.65456374048225">
        <ele>91.82457242161036</ele>
        <time>2026-09-28T00:03:03Z</time>
      </trkpt>
      <trkpt lat="34.83212664827847" lon="113.65463426594386">
        <ele>89.9716438734904</ele>
        <time>2026-09-28T00:03:22Z</time>
      </trkpt>
      <trkpt lat="34.83189448542079" lon="113.6546968684853">
        <ele>90.4180769957602</ele>
        <time>2026-09-28T00:03:37Z</time>
      </trkpt>
      <trkpt lat="34.83180966528067" lon="113.65476900419252">
        <ele>91.02251729462296</ele>
        <time>2026-09-28T00:03:43Z</time>
      </trkpt>
      <trkpt lat="34.831758417937706" lon="113.65478316690749">
        <ele>91.2664884943515</ele>
        <time>2026-09-28T00:03:46Z</time>
      </trkpt>
      <trkpt lat="34.8315137861415" lon="113.65497270164148">
        <ele>91.33391400706023</ele>
        <time>2026-09-28T00:04:04Z</time>
      </trkpt>
      <trkpt lat="34.83122328050599" lon="113.65503124059298">
        <ele>90.70772449020296</ele>
        <time>2026-09-28T00:04:22Z</time>
      </trkpt>
      <trkpt lat="34.83117482516062" lon="113.65503372243117">
        <ele>91.15845986269414</ele>
        <time>2026-09-28T00:04:25Z</time>
      </trkpt>
      <trkpt lat="34.83093310568502" lon="113.65513966372848">
        <ele>89.8991680778563</ele>
        <time>2026-09-28T00:04:40Z</time>
      </trkpt>
      <trkpt lat="34.83075137208673" lon="113.65523636155194">
        <ele>90.34341723192483</ele>
        <time>2026-09-28T00:04:52Z</time>
      </trkpt>
      <trkpt lat="34.83061439257888" lon="113.6552540893996">
        <ele>91.391636101529</ele>
        <time>2026-09-28T00:05:01Z</time>
      </trkpt>
      <trkpt lat="34.830529290397365" lon="113.65531549508796">
        <ele>90.64843667391688</ele>
        <time>2026-09-28T00:05:07Z</time>
      </trkpt>
      <trkpt lat="34.830495241460454" lon="113.65536333223677">
        <ele>90.63763686828315</ele>
        <time>2026-09-28T00:05:10Z</time>
      </trkpt>
      <trkpt lat="34.83032061637506" lon="113.65542073019158">
        <ele>90.47830124665052</ele>
        <time>2026-09-28T00:05:21Z</time>
      </trkpt>
      <trkpt lat="34.83027422332134" lon="113.65572409662826">
        <ele>90.25511290039867</ele>
        <time>2026-09-28T00:05:55Z</time>
      </trkpt>
      <trkpt lat="34.830244010085885" lon="113.65584061030609">
        <ele>90.47284903097898</ele>
        <time>2026-09-28T00:06:01Z</time>
      </trkpt>
      <trkpt lat="34.83018258880653" lon="113.65589684445061">
        <ele>89.05167080275714</ele>
        <time>2026-09-28T00:07:27Z</time>
      </trkpt>
      <trkpt lat="34.829881331494185" lon="113.65600706450253">
        <ele>88.0710393851623</ele>
        <time>2026-09-28T00:07:47Z</time>
      </trkpt>
      <trkpt lat="34.82982713330926" lon="113.65608289307893">
        <ele>88.764787719585</ele>
        <time>2026-09-28T00:07:53Z</time>
      </trkpt>
      <trkpt lat="34.829766606264435" lon="113.65645015267197">
        <ele>89.63850805629045</ele>
        <time>2026-09-28T00:08:14Z</time>
      </trkpt>
      <trkpt lat="34.829724478358465" lon="113.65669257649422">
        <ele>91.64263853989542</ele>
        <time>2026-09-28T00:08:26Z</time>
      </trkpt>
      <trkpt lat="34.82972823519569" lon="113.65680189194113">
        <ele>91.46572266984731</ele>
        <time>2026-09-28T00:08:32Z</time>
      </trkpt>
      <trkpt lat="34.82970517826297" lon="113.6570039911577">
        <ele>90.1486405339092</ele>
        <time>2026-09-28T00:08:44Z</time>
      </trkpt>
      <trkpt lat="34.829714284497385" lon="113.65720289273284">
        <ele>89.02975899074227</ele>
        <time>2026-09-28T00:08:56Z</time>
      </trkpt>
      <trkpt lat="34.82966052467078" lon="113.65742078328489">
        <ele>91.4677771916613</ele>
        <time>2026-09-28T00:09:08Z</time>
      </trkpt>
      <trkpt lat="34.829679095169816" lon="113.65752271850488">
        <ele>92.30411984212697</ele>
        <time>2026-09-28T00:09:14Z</time>
      </trkpt>
      <trkpt lat="34.82972821738177" lon="113.65756719611345">
        <ele>92.43171284347773</ele>
        <time>2026-09-28T00:09:26Z</time>
      </trkpt>
      <trkpt lat="34.829939816042184" lon="113.65747963680143">
        <ele>92.50791942328215</ele>
        <time>2026-09-28T00:09:40Z</time>
      </trkpt>
      <trkpt lat="34.829846350277116" lon="113.65755156539872">
        <ele>90.66508475784212</ele>
        <time>2026-09-28T00:09:52Z</time>
      </trkpt>
      <trkpt lat="34.82990358469955" lon="113.65756850247689">
        <ele>83.60935888066888</ele>
        <time>2026-09-28T00:10:01Z</time>
      </trkpt>
      <trkpt lat="34.83012453177413" lon="113.65752534401817">
        <ele>85.20509922131896</ele>
        <time>2026-09-28T00:10:13Z</time>
      </trkpt>
      <trkpt lat="34.8298675708449" lon="113.6575187306708">
        <ele>90.40957219246775</ele>
        <time>2026-09-28T00:10:19Z</time>
      </trkpt>
      <trkpt lat="34.83039071068931" lon="113.65748756188619">
        <ele>92.95538539066911</ele>
        <time>2026-09-28T00:10:34Z</time>
      </trkpt>
      <trkpt lat="34.830013125092194" lon="113.6575210585559">
        <ele>89.262691069663</ele>
        <time>2026-09-28T00:10:50Z</time>
      </trkpt>
      <trkpt lat="34.83005677991003" lon="113.6575940342684">
        <ele>89.262691069663</ele>
        <time>2026-09-28T00:10:53Z</time>
      </trkpt>
      <trkpt lat="34.83002816725772" lon="113.65746338487489">
        <ele>89.1496367058732</ele>
        <time>2026-09-28T00:11:02Z</time>
      </trkpt>
      <trkpt lat="34.829881951721305" lon="113.65756867148757">
        <ele>89.15382745593654</ele>
        <time>2026-09-28T00:11:14Z</time>
      </trkpt>
      <trkpt lat="34.830017586497846" lon="113.65767375646409">
        <ele>89.17577523798118</ele>
        <time>2026-09-28T00:11:20Z</time>
      </trkpt>
      <trkpt lat="34.82987897947961" lon="113.65751165412664">
        <ele>90.15063741058111</ele>
        <time>2026-09-28T00:11:30Z</time>
      </trkpt>
      <trkpt lat="34.830190407819615" lon="113.6578130510585">
        <ele>114.66119291167706</ele>
        <time>2026-09-28T00:11:40Z</time>
      </trkpt>
      <trkpt lat="34.829882260836875" lon="113.65751825125066">
        <ele>90.38434451632202</ele>
        <time>2026-09-28T00:11:49Z</time>
      </trkpt>
      <trkpt lat="34.83019556878661" lon="113.65770845105412">
        <ele>112.22388745937496</ele>
        <time>2026-09-28T00:11:58Z</time>
      </trkpt>
      <trkpt lat="34.82987853962935" lon="113.6574923738888">
        <ele>91.25276190880686</ele>
        <time>2026-09-28T00:12:16Z</time>
      </trkpt>
      <trkpt lat="34.83019556878661" lon="113.65770845105412">
        <ele>112.22388745937496</ele>
        <time>2026-09-28T00:12:28Z</time>
      </trkpt>
      <trkpt lat="34.829883095097266" lon="113.65751318401783">
        <ele>91.12673595454544</ele>
        <time>2026-09-28T00:12:34Z</time>
      </trkpt>
      <trkpt lat="34.83019556878661" lon="113.65770845105412">
        <ele>112.22388745937496</ele>
        <time>2026-09-28T00:13:01Z</time>
      </trkpt>
      <trkpt lat="34.83017952424294" lon="113.65759303911217">
        <ele>108.48573781829327</ele>
        <time>2026-09-28T00:13:28Z</time>
      </trkpt>
      <trkpt lat="34.83017952424294" lon="113.65759303911217">
        <ele>108.48573781829327</ele>
        <time>2026-09-28T00:13:29Z</time>
      </trkpt>
    </trkseg>
  </trk>
</gpx>