<?xml version="1.0" encoding="UTF-8"?>
<gpx xmlns="http://www.topografix.com/GPX/1/1" xmlns:gpxtpx="http://www.garmin.com/xmlschemas/TrackPointExtension/v1" xmlns:xsi="http://www.w3.org/2001/XMLSchema-instance" xsi:schemaLocation="http://www.topografix.com/GPX/1/1 http://www.topografix.com/GPX/1/1/gpx.xsd" version="1.1" creator="gpx.py -- https://github.com/tkrajina/gpxpy">
  <trk>
    <name>gpx from keep</name>
    <type>Ride</type>
    <trkseg>
      <trkpt lat="34.829952758653874" lon="113.65552393465238">
        <ele>84.36236572265625</ele>
        <time>2026-10-10T10:03:49Z</time>
      </trkpt>
      <trkpt lat="34.8300422849909" lon="113.65554611581106">
        <ele>91.49156394321471</ele>
        <time>2026-10-10T10:04:44Z</time>
      </trkpt>
      <trkpt lat="34.830121642947184" lon="113.65553278068798">
        <ele>91.20436169020832</ele>
        <time>2026-10-10T10:04:50Z</time>
      </trkpt>
      <trkpt lat="34.830341220924026" lon="113.65540515950333">
        <ele>92.32190342340618</ele>
        <time>2026-10-10T10:05:03Z</time>
      </trkpt>
      <trkpt lat="34.83037574492122" lon="113.65509441585183">
        <ele>93.09881027042866</ele>
        <time>2026-10-10T10:05:13Z</time>
      </trkpt>
      <trkpt lat="34.830373821464455" lon="113.65497834561779">
        <ele>92.73925836291164</ele>
        <time>2026-10-10T10:05:16Z</time>
      </trkpt>
      <trkpt lat="34.8304241319794" lon="113.65479037460041">
        <ele>93.2683683205396</ele>
        <time>2026-10-10T10:05:22Z</time>
      </trkpt>
      <trkpt lat="34.8304311927406" lon="113.65437503492463">
        <ele>92.85732571501285</ele>
        <time>2026-10-10T10:05:35Z</time>
      </trkpt>
      <trkpt lat="34.83045690668335" lon="113.65415164613417">
        <ele>91.63350563123822</ele>
        <time>2026-10-10T10:05:41Z</time>
      </trkpt>
      <trkpt lat="34.83055606985773" lon="113.65387142568127">
        <ele>91.20283290557563</ele>
        <time>2026-10-10T10:05:49Z</time>
      </trkpt>
      <trkpt lat="34.830613895357054" lon="113.65381268413415">
        <ele>91.49059965088964</ele>
        <time>2026-10-10T10:05:53Z</time>
      </trkpt>
      <trkpt lat="34.83078531827826" lon="113.65383357584288">
        <ele>91.94665705878288</ele>
        <time>2026-10-10T10:06:04Z</time>
      </trkpt>
      <trkpt lat="34.831259734280934" lon="113.65362178905713">
        <ele>92.39246655069292</ele>
        <time>2026-10-10T10:06:18Z</time>
      </trkpt>
      <trkpt lat="34.83142430285837" lon="113.65354188023221">
        <ele>91.55989673547447</ele>
        <time>2026-10-10T10:06:22Z</time>
      </trkpt>
      <trkpt lat="34.83150964597968" lon="113.65353594604105">
        <ele>89.76328175608069</ele>
        <time>2026-10-10T10:06:24Z</time>
      </trkpt>
      <trkpt lat="34.83166946817802" lon="113.65356603021938">
        <ele>90.69768793042749</ele>
        <time>2026-10-10T10:06:28Z</time>
      </trkpt>
      <trkpt lat="34.83186316150756" lon="113.6535605643621">
        <ele>90.34770397748798</ele>
        <time>2026-10-10T10:06:33Z</time>
      </trkpt>
      <trkpt lat="34.83204710114781" lon="113.6534929853641">
        <ele>90.76283052377403</ele>
        <time>2026-10-10T10:06:38Z</time>
      </trkpt>
      <trkpt lat="34.8320936624124" lon="113.65341204243967">
        <ele>91.12496901769191</ele>
        <time>2026-10-10T10:06:41Z</time>
      </trkpt>
      <trkpt lat="34.83205754483782" lon="113.65330155671053">
        <ele>90.38712760340422</ele>
        <time>2026-10-10T10:06:44Z</time>
      </trkpt>
      <trkpt lat="34.83209614607552" lon="113.65320367625104">
        <ele>91.579430882819</ele>
        <time>2026-10-10T10:06:48Z</time>
      </trkpt>
      <trkpt lat="34.83238974421978" lon="113.65317577527367">
        <ele>91.22839463036507</ele>
        <time>2026-10-10T10:06:57Z</time>
      </trkpt>
      <trkpt lat="34.8327928392273" lon="113.65296629769905">
        <ele>89.9750311570242</ele>
        <time>2026-10-10T10:07:08Z</time>
      </trkpt>
      <trkpt lat="34.833045770678915" lon="113.65282991721304">
        <ele>90.45182701945305</ele>
        <time>2026-10-10T10:07:17Z</time>
      </trkpt>
      <trkpt lat="34.83313562236564" lon="113.65280460281872">
        <ele>90.33479427173734</ele>
        <time>2026-10-10T10:07:20Z</time>
      </trkpt>
      <trkpt lat="34.833334382698595" lon="113.6528103515052">
        <ele>90.4716607350856</ele>
        <time>2026-10-10T10:07:26Z</time>
      </trkpt>
      <trkpt lat="34.83342369896806" lon="113.65278933478959">
        <ele>90.1364854183048</ele>
        <time>2026-10-10T10:07:29Z</time>
      </trkpt>
      <trkpt lat="34.83350404826447" lon="113.65273522012556">
        <ele>89.48104332573712</ele>
        <time>2026-10-10T10:07:32Z</time>
      </trkpt>
      <trkpt lat="34.83358220788369" lon="113.65254939554956">
        <ele>90.5827875379473</ele>
        <time>2026-10-10T10:07:38Z</time>
      </trkpt>
      <trkpt lat="34.83383577910184" lon="113.65231609581458">
        <ele>89.14254468120635</ele>
        <time>2026-10-10T10:07:46Z</time>
      </trkpt>
      <trkpt lat="34.833905904029706" lon="113.65227318383769">
        <ele>88.52053634636104</ele>
        <time>2026-10-10T10:07:48Z</time>
      </trkpt>
      <trkpt lat="34.83426030130772" lon="113.65192439753804">
        <ele>89.02172254398465</ele>
        <time>2026-10-10T10:08:00Z</time>
      </trkpt>
      <trkpt lat="34.83440306419415" lon="113.6518542587168">
        <ele>89.05786191020161</ele>
        <time>2026-10-10T10:08:04Z</time>
      </trkpt>
      <trkpt lat="34.834488452350364" lon="113.65178878382532">
        <ele>88.62243159301579</ele>
        <time>2026-10-10T10:08:08Z</time>
      </trkpt>
      <trkpt lat="34.834546949362895" lon="113.65170745955223">
        <ele>88.63103314675391</ele>
        <time>2026-10-10T10:08:12Z</time>
      </trkpt>
      <trkpt lat="34.83467746871603" lon="113.6516609872744">
        <ele>88.69963986240327</ele>
        <time>2026-10-10T10:08:16Z</time>
      </trkpt>
      <trkpt lat="34.83475274511933" lon="113.65158766638164">
        <ele>87.94625534396619</ele>
        <time>2026-10-10T10:08:19Z</time>
      </trkpt>
      <trkpt lat="34.83478899630472" lon="113.65150916573889">
        <ele>88.56960960663855</ele>
        <time>2026-10-10T10:08:23Z</time>
      </trkpt>
      <trkpt lat="34.8347845471636" lon="113.65141261631365">
        <ele>87.726586939767</ele>
        <time>2026-10-10T10:08:27Z</time>
      </trkpt>
      <trkpt lat="34.835206582788025" lon="113.65123557536302">
        <ele>89.73777933605015</ele>
        <time>2026-10-10T10:08:45Z</time>
      </trkpt>
      <trkpt lat="34.83549577832387" lon="113.65109222227673">
        <ele>87.83949459530413</ele>
        <time>2026-10-10T10:08:54Z</time>
      </trkpt>
      <trkpt lat="34.83593446300981" lon="113.65093704972476">
        <ele>88.0392874404788</ele>
        <time>2026-10-10T10:09:09Z</time>
      </trkpt>
      <trkpt lat="34.83633717020363" lon="113.65078897438426">
        <ele>88.59879200998694</ele>
        <time>2026-10-10T10:09:24Z</time>
      </trkpt>
      <trkpt lat="34.836777338728155" lon="113.65060188738578">
        <ele>89.24972096364945</ele>
        <time>2026-10-10T10:09:40Z</time>
      </trkpt>
      <trkpt lat="34.83724494125772" lon="113.65041507437839">
        <ele>88.66671084333211</ele>
        <time>2026-10-10T10:09:55Z</time>
      </trkpt>
      <trkpt lat="34.837672557213736" lon="113.65023610937544">
        <ele>88.63252923917025</ele>
        <time>2026-10-10T10:10:11Z</time>
      </trkpt>
      <trkpt lat="34.83802713276639" lon="113.65008828361194">
        <ele>90.96103113889694</ele>
        <time>2026-10-10T10:10:24Z</time>
      </trkpt>
      <trkpt lat="34.838284976895004" lon="113.6500179542352">
        <ele>89.0712113538757</ele>
        <time>2026-10-10T10:10:33Z</time>
      </trkpt>
      <trkpt lat="34.83835983044162" lon="113.64996607868756">
        <ele>88.8971605617553</ele>
        <time>2026-10-10T10:10:36Z</time>
      </trkpt>
      <trkpt lat="34.83880974456069" lon="113.64977855127024">
        <ele>88.05084491986781</ele>
        <time>2026-10-10T10:10:51Z</time>
      </trkpt>
      <trkpt lat="34.83887676865606" lon="113.64973221730862">
        <ele>86.80490676593035</ele>
        <time>2026-10-10T10:10:53Z</time>
      </trkpt>
      <trkpt lat="34.83912411080687" lon="113.6496479575546">
        <ele>87.38511027023196</ele>
        <time>2026-10-10T10:11:02Z</time>
      </trkpt>
      <trkpt lat="34.83917967340986" lon="113.6495867065897">
        <ele>88.15210137981921</ele>
        <time>2026-10-10T10:11:06Z</time>
      </trkpt>
      <trkpt lat="34.83917662983672" lon="113.64947533593738">
        <ele>89.03682231344283</ele>
        <time>2026-10-10T10:11:15Z</time>
      </trkpt>
      <trkpt lat="34.83911203184095" lon="113.64919400092722">
        <ele>88.97806862741709</ele>
        <time>2026-10-10T10:11:40Z</time>
      </trkpt>
      <trkpt lat="34.838987042239374" lon="113.64905630416601">
        <ele>88.66596686467528</ele>
        <time>2026-10-10T10:11:48Z</time>
      </trkpt>
      <trkpt lat="34.838986157315816" lon="113.64875867750364">
        <ele>90.80279295239598</ele>
        <time>2026-10-10T10:11:58Z</time>
      </trkpt>
      <trkpt lat="34.83897297676571" lon="113.64855645109327">
        <ele>91.09352314379066</ele>
        <time>2026-10-10T10:12:04Z</time>
      </trkpt>
      <trkpt lat="34.83893185349836" lon="113.64846266228963">
        <ele>90.67384125385433</ele>
        <time>2026-10-10T10:12:07Z</time>
      </trkpt>
      <trkpt lat="34.83886154890067" lon="113.64843078294228">
        <ele>89.45292082894593</ele>
        <time>2026-10-10T10:12:13Z</time>
      </trkpt>
      <trkpt lat="34.83878850036024" lon="113.64845874091668">
        <ele>92.32756293658167</ele>
        <time>2026-10-10T10:12:29Z</time>
      </trkpt>
      <trkpt lat="34.8387320361049" lon="113.6485164540851">
        <ele>92.61506943311542</ele>
        <time>2026-10-10T10:12:37Z</time>
      </trkpt>
      <trkpt lat="34.838658189752095" lon="113.64854398770566">
        <ele>90.82202236261219</ele>
        <time>2026-10-10T10:12:49Z</time>
      </trkpt>
      <trkpt lat="34.83858283259702" lon="113.64853425456656">
        <ele>91.09445023350418</ele>
        <time>2026-10-10T10:12:58Z</time>
      </trkpt>
      <trkpt lat="34.838494420451546" lon="113.6485484156014">
        <ele>93.27170819044113</ele>
        <time>2026-10-10T10:13:04Z</time>
      </trkpt>
      <trkpt lat="34.83843198971536" lon="113.64848973563568">
        <ele>92.83378373924643</ele>
        <time>2026-10-10T10:13:11Z</time>
      </trkpt>
      <trkpt lat="34.838501237676745" lon="113.64822491675463">
        <ele>89.69239314924926</ele>
        <time>2026-10-10T10:13:28Z</time>
      </trkpt>
      <trkpt lat="34.83855761400271" lon="113.64784855356172">
        <ele>85.77500637434423</ele>
        <time>2026-10-10T10:13:52Z</time>
      </trkpt>
      <trkpt lat="34.83855761400271" lon="113.64784855356172">
        <ele>85.77500637434423</ele>
        <time>2026-10-10T10:14:16Z</time>
      </trkpt>
    </trkseg>
  </trk>
</gpx>