<?xml version="1.0" encoding="UTF-8"?>
<gpx xmlns="http://www.topografix.com/GPX/1/1" xmlns:gpxtpx="http://www.garmin.com/xmlschemas/TrackPointExtension/v1" xmlns:xsi="http://www.w3.org/2001/XMLSchema-instance" xsi:schemaLocation="http://www.topografix.com/GPX/1/1 http://www.topografix.com/GPX/1/1/gpx.xsd" version="1.1" creator="gpx.py -- https://github.com/tkrajina/gpxpy">
  <trk>
    <name>gpx from keep</name>
    <type>Run</type>
    <trkseg>
      <trkpt lat="34.82969866824434" lon="113.65697998215911">
        <ele>89.24781724438071</ele>
        <time>2026-09-02T01:07:49Z</time>
      </trkpt>
      <trkpt lat="34.8297428741874" lon="113.65672789490456">
        <ele>90.27538056857884</ele>
        <time>2026-09-02T01:07:58Z</time>
      </trkpt>
      <trkpt lat="34.82976940320259" lon="113.65640622350865">
        <ele>91.80615202151239</ele>
        <time>2026-09-02T01:08:10Z</time>
      </trkpt>
      <trkpt lat="34.82979375951531" lon="113.65634087372682">
        <ele>90.69481623265892</ele>
        <time>2026-09-02T01:08:13Z</time>
      </trkpt>
      <trkpt lat="34.82985822144975" lon="113.65597191970045">
        <ele>90.40602933056653</ele>
        <time>2026-09-02T01:08:28Z</time>
      </trkpt>
      <trkpt lat="34.830059028616716" lon="113.65596826402414">
        <ele>89.66815742757171</ele>
        <time>2026-09-02T01:08:37Z</time>
      </trkpt>
      <trkpt lat="34.830118005930274" lon="113.65592672707737">
        <ele>89.78325390350074</ele>
        <time>2026-09-02T01:08:40Z</time>
      </trkpt>
      <trkpt lat="34.83031313473809" lon="113.65588152469789">
        <ele>91.72546517010778</ele>
        <time>2026-09-02T01:08:49Z</time>
      </trkpt>
      <trkpt lat="34.83037526618789" lon="113.65592008743353">
        <ele>91.2748784776777</ele>
        <time>2026-09-02T01:08:52Z</time>
      </trkpt>
      <trkpt lat="34.83043077053628" lon="113.65611298655853">
        <ele>90.0829844288528</ele>
        <time>2026-09-02T01:09:01Z</time>
      </trkpt>
      <trkpt lat="34.8305290184657" lon="113.6562034634401">
        <ele>89.91069105826318</ele>
        <time>2026-09-02T01:09:07Z</time>
      </trkpt>
      <trkpt lat="34.83070799415807" lon="113.65627461348292">
        <ele>89.16297265514731</ele>
        <time>2026-09-02T01:09:16Z</time>
      </trkpt>
      <trkpt lat="34.83076512360756" lon="113.65632133317753">
        <ele>89.22841911297292</ele>
        <time>2026-09-02T01:09:19Z</time>
      </trkpt>
      <trkpt lat="34.830801866597795" lon="113.6564122804286">
        <ele>88.69760991912335</ele>
        <time>2026-09-02T01:09:22Z</time>
      </trkpt>
      <trkpt lat="34.83091139209991" lon="113.65650802054134">
        <ele>88.83937138598412</ele>
        <time>2026-09-02T01:09:28Z</time>
      </trkpt>
      <trkpt lat="34.83098031492657" lon="113.65652362532278">
        <ele>88.86024522129446</ele>
        <time>2026-09-02T01:09:31Z</time>
      </trkpt>
      <trkpt lat="34.83106455892296" lon="113.65643329781788">
        <ele>88.92420891486108</ele>
        <time>2026-09-02T01:09:37Z</time>
      </trkpt>
      <trkpt lat="34.83116288755832" lon="113.65639010125334">
        <ele>89.65373130701482</ele>
        <time>2026-09-02T01:09:41Z</time>
      </trkpt>
      <trkpt lat="34.831332620907595" lon="113.65639001740568">
        <ele>89.66994422953576</ele>
        <time>2026-09-02T01:09:50Z</time>
      </trkpt>
      <trkpt lat="34.83139563369358" lon="113.65636549056929">
        <ele>90.53380527719855</ele>
        <time>2026-09-02T01:09:53Z</time>
      </trkpt>
      <trkpt lat="34.831437949524144" lon="113.65632799615764">
        <ele>90.38187943678349</ele>
        <time>2026-09-02T01:09:56Z</time>
      </trkpt>
      <trkpt lat="34.83161930119864" lon="113.65633302570728">
        <ele>88.9572791364044</ele>
        <time>2026-09-02T01:10:05Z</time>
      </trkpt>
      <trkpt lat="34.831702002574936" lon="113.6561476442759">
        <ele>88.55782378930598</ele>
        <time>2026-09-02T01:10:14Z</time>
      </trkpt>
      <trkpt lat="34.831759104108855" lon="113.65609713313565">
        <ele>89.11143619567156</ele>
        <time>2026-09-02T01:10:17Z</time>
      </trkpt>
      <trkpt lat="34.83182181185994" lon="113.65607511198938">
        <ele>89.46710994653404</ele>
        <time>2026-09-02T01:10:20Z</time>
      </trkpt>
      <trkpt lat="34.83190044121614" lon="113.65608944857837">
        <ele>90.76357165444642</ele>
        <time>2026-09-02T01:10:23Z</time>
      </trkpt>
      <trkpt lat="34.8319588441523" lon="113.65606313712415">
        <ele>90.36392363440245</ele>
        <time>2026-09-02T01:10:26Z</time>
      </trkpt>
      <trkpt lat="34.83203148677111" lon="113.6560650608858">
        <ele>90.9463024251163</ele>
        <time>2026-09-02T01:10:29Z</time>
      </trkpt>
      <trkpt lat="34.8322420198329" lon="113.65613948881129">
        <ele>91.11941441334784</ele>
        <time>2026-09-02T01:10:39Z</time>
      </trkpt>
      <trkpt lat="34.83231075004074" lon="113.65614189865828">
        <ele>90.82929219864309</ele>
        <time>2026-09-02T01:10:42Z</time>
      </trkpt>
      <trkpt lat="34.832452385663295" lon="113.65610461582692">
        <ele>90.6945617152378</ele>
        <time>2026-09-02T01:10:48Z</time>
      </trkpt>
      <trkpt lat="34.83255573155932" lon="113.65602284061208">
        <ele>89.59072123467922</ele>
        <time>2026-09-02T01:10:54Z</time>
      </trkpt>
      <trkpt lat="34.83268915914553" lon="113.65586491503677">
        <ele>89.70096395444125</ele>
        <time>2026-09-02T01:11:03Z</time>
      </trkpt>
      <trkpt lat="34.83273841388748" lon="113.65585038819147">
        <ele>88.52690169680864</ele>
        <time>2026-09-02T01:11:06Z</time>
      </trkpt>
      <trkpt lat="34.832808237130884" lon="113.65588484288288">
        <ele>89.21885631140321</ele>
        <time>2026-09-02T01:11:09Z</time>
      </trkpt>
      <trkpt lat="34.83285192626893" lon="113.65593683404919">
        <ele>88.58669289108366</ele>
        <time>2026-09-02T01:11:12Z</time>
      </trkpt>
      <trkpt lat="34.83288084117113" lon="113.65601485163874">
        <ele>88.72668661922216</ele>
        <time>2026-09-02T01:11:15Z</time>
      </trkpt>
      <trkpt lat="34.83311207642797" lon="113.65624693710477">
        <ele>90.5281843636185</ele>
        <time>2026-09-02T01:11:30Z</time>
      </trkpt>
      <trkpt lat="34.83327261262632" lon="113.65632754278991">
        <ele>90.4433905351907</ele>
        <time>2026-09-02T01:11:39Z</time>
      </trkpt>
      <trkpt lat="34.83348005243902" lon="113.65636395650272">
        <ele>89.40194078721106</ele>
        <time>2026-09-02T01:11:50Z</time>
      </trkpt>
      <trkpt lat="34.83357613454863" lon="113.6563641792254">
        <ele>88.2137580672279</ele>
        <time>2026-09-02T01:11:54Z</time>
      </trkpt>
      <trkpt lat="34.83383544086575" lon="113.65623528703317">
        <ele>90.67935610935092</ele>
        <time>2026-09-02T01:12:08Z</time>
      </trkpt>
      <trkpt lat="34.83395536004449" lon="113.65618558984434">
        <ele>92.00276559125632</ele>
        <time>2026-09-02T01:12:14Z</time>
      </trkpt>
      <trkpt lat="34.83417975100834" lon="113.65592149991402">
        <ele>91.69143137615174</ele>
        <time>2026-09-02T01:12:29Z</time>
      </trkpt>
      <trkpt lat="34.834262110558825" lon="113.65573360682772">
        <ele>91.86838209442794</ele>
        <time>2026-09-02T01:12:38Z</time>
      </trkpt>
      <trkpt lat="34.83428829165022" lon="113.65546015566294">
        <ele>90.63853952195495</ele>
        <time>2026-09-02T01:12:50Z</time>
      </trkpt>
      <trkpt lat="34.83418994683543" lon="113.65513699916596">
        <ele>89.84015637543052</ele>
        <time>2026-09-02T01:13:05Z</time>
      </trkpt>
      <trkpt lat="34.83415396947824" lon="113.65509471767747">
        <ele>89.74769598990679</ele>
        <time>2026-09-02T01:13:08Z</time>
      </trkpt>
      <trkpt lat="34.834078443467334" lon="113.65507950223113">
        <ele>88.58686233125627</ele>
        <time>2026-09-02T01:13:14Z</time>
      </trkpt>
      <trkpt lat="34.83402045581101" lon="113.65498374984892">
        <ele>87.51588854566216</ele>
        <time>2026-09-02T01:13:20Z</time>
      </trkpt>
      <trkpt lat="34.8338777667091" lon="113.65487263793062">
        <ele>87.83991531282663</ele>
        <time>2026-09-02T01:13:29Z</time>
      </trkpt>
      <trkpt lat="34.83371269325528" lon="113.65482807494793">
        <ele>89.76461686752737</ele>
        <time>2026-09-02T01:13:38Z</time>
      </trkpt>
      <trkpt lat="34.83347922921248" lon="113.65484624975953">
        <ele>90.40273066516966</ele>
        <time>2026-09-02T01:13:51Z</time>
      </trkpt>
      <trkpt lat="34.83336840820548" lon="113.65490243273871">
        <ele>90.65724804904312</ele>
        <time>2026-09-02T01:13:57Z</time>
      </trkpt>
      <trkpt lat="34.833210614702644" lon="113.65517579254751">
        <ele>91.27760903257877</ele>
        <time>2026-09-02T01:14:12Z</time>
      </trkpt>
      <trkpt lat="34.833176400704254" lon="113.65522646631932">
        <ele>91.53754635807127</ele>
        <time>2026-09-02T01:14:15Z</time>
      </trkpt>
      <trkpt lat="34.83303182210209" lon="113.65531022485492">
        <ele>91.18476107995957</ele>
        <time>2026-09-02T01:14:24Z</time>
      </trkpt>
      <trkpt lat="34.832799062730665" lon="113.65528676232121">
        <ele>90.46910552121699</ele>
        <time>2026-09-02T01:14:36Z</time>
      </trkpt>
      <trkpt lat="34.832611576038865" lon="113.65515359599429">
        <ele>89.52826002053916</ele>
        <time>2026-09-02T01:14:48Z</time>
      </trkpt>
      <trkpt lat="34.83242235726369" lon="113.65515267791386">
        <ele>89.08792786858976</ele>
        <time>2026-09-02T01:14:57Z</time>
      </trkpt>
      <trkpt lat="34.832330436662865" lon="113.65522766741746">
        <ele>89.2491515269503</ele>
        <time>2026-09-02T01:15:03Z</time>
      </trkpt>
      <trkpt lat="34.83229121065066" lon="113.65529258507904">
        <ele>89.29190903995186</ele>
        <time>2026-09-02T01:15:06Z</time>
      </trkpt>
      <trkpt lat="34.83225557443574" lon="113.65549780122902">
        <ele>90.81276544928551</ele>
        <time>2026-09-02T01:15:15Z</time>
      </trkpt>
      <trkpt lat="34.83223272455814" lon="113.65555800712423">
        <ele>89.68837427720428</ele>
        <time>2026-09-02T01:15:18Z</time>
      </trkpt>
      <trkpt lat="34.83214599932513" lon="113.6556547690435">
        <ele>90.02787313703448</ele>
        <time>2026-09-02T01:15:24Z</time>
      </trkpt>
      <trkpt lat="34.83209094260762" lon="113.65568518064727">
        <ele>90.3455856628716</ele>
        <time>2026-09-02T01:15:27Z</time>
      </trkpt>
      <trkpt lat="34.832005604743884" lon="113.65577311947733">
        <ele>90.06570125184953</ele>
        <time>2026-09-02T01:15:33Z</time>
      </trkpt>
      <trkpt lat="34.83196249822004" lon="113.65591015408557">
        <ele>90.53569011949003</ele>
        <time>2026-09-02T01:15:39Z</time>
      </trkpt>
      <trkpt lat="34.83192419983813" lon="113.65596522469394">
        <ele>89.68087113369256</ele>
        <time>2026-09-02T01:15:42Z</time>
      </trkpt>
      <trkpt lat="34.83185115910583" lon="113.65599015305642">
        <ele>88.54906851798296</ele>
        <time>2026-09-02T01:15:45Z</time>
      </trkpt>
      <trkpt lat="34.83177519003797" lon="113.65608762985977">
        <ele>88.72758793924004</ele>
        <time>2026-09-02T01:15:51Z</time>
      </trkpt>
      <trkpt lat="34.83166178023543" lon="113.65617892915992">
        <ele>87.92546617798507</ele>
        <time>2026-09-02T01:15:58Z</time>
      </trkpt>
      <trkpt lat="34.83153114264503" lon="113.65623121920764">
        <ele>89.26366409286857</ele>
        <time>2026-09-02T01:16:04Z</time>
      </trkpt>
      <trkpt lat="34.831444290488264" lon="113.65630227648091">
        <ele>90.4801335381344</ele>
        <time>2026-09-02T01:16:10Z</time>
      </trkpt>
      <trkpt lat="34.83137828435586" lon="113.65628674454899">
        <ele>89.55889574345201</ele>
        <time>2026-09-02T01:16:13Z</time>
      </trkpt>
      <trkpt lat="34.83130092706976" lon="113.65623577170646">
        <ele>89.16248509287834</ele>
        <time>2026-09-02T01:16:19Z</time>
      </trkpt>
      <trkpt lat="34.83106726909166" lon="113.65619965021412">
        <ele>90.50334901362658</ele>
        <time>2026-09-02T01:16:31Z</time>
      </trkpt>
      <trkpt lat="34.830998101210035" lon="113.65617079543425">
        <ele>90.56802044436336</ele>
        <time>2026-09-02T01:16:34Z</time>
      </trkpt>
      <trkpt lat="34.83092649688585" lon="113.65616945202665">
        <ele>91.122767098248</ele>
        <time>2026-09-02T01:16:37Z</time>
      </trkpt>
      <trkpt lat="34.83083160523705" lon="113.65622890620503">
        <ele>90.89700708910823</ele>
        <time>2026-09-02T01:16:43Z</time>
      </trkpt>
      <trkpt lat="34.83074628680502" lon="113.65639069940438">
        <ele>89.996940725483</ele>
        <time>2026-09-02T01:16:52Z</time>
      </trkpt>
      <trkpt lat="34.83064037150925" lon="113.65646099933835">
        <ele>89.39840189181268</ele>
        <time>2026-09-02T01:16:58Z</time>
      </trkpt>
      <trkpt lat="34.83058011169905" lon="113.65661717913778">
        <ele>89.27088599838316</ele>
        <time>2026-09-02T01:17:04Z</time>
      </trkpt>
      <trkpt lat="34.83032192250159" lon="113.65679458482632">
        <ele>88.5762031339109</ele>
        <time>2026-09-02T01:17:19Z</time>
      </trkpt>
      <trkpt lat="34.830268744315056" lon="113.6568439401021">
        <ele>88.61836071964353</ele>
        <time>2026-09-02T01:17:22Z</time>
      </trkpt>
      <trkpt lat="34.830245524610305" lon="113.65691465628716">
        <ele>88.86183384619653</ele>
        <time>2026-09-02T01:17:25Z</time>
      </trkpt>
      <trkpt lat="34.8302549363848" lon="113.65704983549405">
        <ele>87.54296961985528</ele>
        <time>2026-09-02T01:17:31Z</time>
      </trkpt>
      <trkpt lat="34.8303145477669" lon="113.65705987540828">
        <ele>87.75363386701792</ele>
        <time>2026-09-02T01:17:34Z</time>
      </trkpt>
      <trkpt lat="34.8305913090739" lon="113.65703066303504">
        <ele>87.90620836056769</ele>
        <time>2026-09-02T01:17:52Z</time>
      </trkpt>
      <trkpt lat="34.83068475378704" lon="113.65716778195169">
        <ele>86.41427742596716</ele>
        <time>2026-09-02T01:18:02Z</time>
      </trkpt>
      <trkpt lat="34.830995845000665" lon="113.6571772894261">
        <ele>88.45802423730493</ele>
        <time>2026-09-02T01:18:16Z</time>
      </trkpt>
      <trkpt lat="34.83113195455777" lon="113.65716360581267">
        <ele>90.42819856852293</ele>
        <time>2026-09-02T01:18:22Z</time>
      </trkpt>
      <trkpt lat="34.83118923465581" lon="113.65717805246153">
        <ele>90.1798546873033</ele>
        <time>2026-09-02T01:18:25Z</time>
      </trkpt>
      <trkpt lat="34.8313098041776" lon="113.65716248009751">
        <ele>91.3623920949176</ele>
        <time>2026-09-02T01:18:31Z</time>
      </trkpt>
      <trkpt lat="34.831608585497136" lon="113.65719425440685">
        <ele>91.1518170107156</ele>
        <time>2026-09-02T01:18:43Z</time>
      </trkpt>
      <trkpt lat="34.83170572349772" lon="113.65716465358136">
        <ele>90.27078566048294</ele>
        <time>2026-09-02T01:18:46Z</time>
      </trkpt>
      <trkpt lat="34.83175203375047" lon="113.65721476128189">
        <ele>89.99923329148442</ele>
        <time>2026-09-02T01:18:49Z</time>
      </trkpt>
      <trkpt lat="34.83208394151568" lon="113.65726573678745">
        <ele>89.28622547909617</ele>
        <time>2026-09-02T01:19:04Z</time>
      </trkpt>
      <trkpt lat="34.83214846248782" lon="113.65727354877129">
        <ele>91.03850030619651</ele>
        <time>2026-09-02T01:19:07Z</time>
      </trkpt>
      <trkpt lat="34.83219110272581" lon="113.65733566248744">
        <ele>90.73942640144378</ele>
        <time>2026-09-02T01:19:10Z</time>
      </trkpt>
      <trkpt lat="34.83221489532985" lon="113.65740422365887">
        <ele>90.22212689183652</ele>
        <time>2026-09-02T01:19:13Z</time>
      </trkpt>
      <trkpt lat="34.83220969962464" lon="113.65754561019078">
        <ele>87.60119474958628</ele>
        <time>2026-09-02T01:19:19Z</time>
      </trkpt>
      <trkpt lat="34.83222247503362" lon="113.65763420934357">
        <ele>87.33745490945876</ele>
        <time>2026-09-02T01:19:22Z</time>
      </trkpt>
      <trkpt lat="34.832171555445825" lon="113.65796026858006">
        <ele>87.49965488165617</ele>
        <time>2026-09-02T01:19:34Z</time>
      </trkpt>
      <trkpt lat="34.83214091452134" lon="113.65810416088001">
        <ele>89.9437164850533</ele>
        <time>2026-09-02T01:19:40Z</time>
      </trkpt>
      <trkpt lat="34.83207971682364" lon="113.65809313774038">
        <ele>89.04530423413962</ele>
        <time>2026-09-02T01:19:43Z</time>
      </trkpt>
      <trkpt lat="34.83196556679269" lon="113.6581083753657">
        <ele>90.09398336801678</ele>
        <time>2026-09-02T01:19:49Z</time>
      </trkpt>
      <trkpt lat="34.831909079539415" lon="113.65808604072932">
        <ele>89.46562307327986</ele>
        <time>2026-09-02T01:19:55Z</time>
      </trkpt>
      <trkpt lat="34.83186722032138" lon="113.65801913872228">
        <ele>88.7232118267566</ele>
        <time>2026-09-02T01:19:58Z</time>
      </trkpt>
      <trkpt lat="34.831693763282146" lon="113.658042850785">
        <ele>87.96878106612712</ele>
        <time>2026-09-02T01:20:01Z</time>
      </trkpt>
      <trkpt lat="34.83152276485836" lon="113.6582383932372">
        <ele>88.36563525907695</ele>
        <time>2026-09-02T01:20:08Z</time>
      </trkpt>
      <trkpt lat="34.831465628041684" lon="113.65832587945475">
        <ele>87.28953102044761</ele>
        <time>2026-09-02T01:20:12Z</time>
      </trkpt>
      <trkpt lat="34.831474123748954" lon="113.65868053290744">
        <ele>87.46069314517081</ele>
        <time>2026-09-02T01:20:23Z</time>
      </trkpt>
      <trkpt lat="34.83143127287956" lon="113.65885382951916">
        <ele>87.79104019515216</ele>
        <time>2026-09-02T01:20:29Z</time>
      </trkpt>
      <trkpt lat="34.831343662152044" lon="113.65902699109563">
        <ele>88.34457198623568</ele>
        <time>2026-09-02T01:20:35Z</time>
      </trkpt>
      <trkpt lat="34.83119172747979" lon="113.65911112445461">
        <ele>88.48075596895069</ele>
        <time>2026-09-02T01:20:41Z</time>
      </trkpt>
      <trkpt lat="34.831050271185894" lon="113.659152894364">
        <ele>89.70311607047915</ele>
        <time>2026-09-02T01:20:47Z</time>
      </trkpt>
      <trkpt lat="34.830905557018426" lon="113.65913526463602">
        <ele>89.79273282270879</ele>
        <time>2026-09-02T01:20:53Z</time>
      </trkpt>
      <trkpt lat="34.83085291744299" lon="113.65905441528852">
        <ele>89.87908429279923</ele>
        <time>2026-09-02T01:20:59Z</time>
      </trkpt>
      <trkpt lat="34.830821398541175" lon="113.65885611992854">
        <ele>87.45399717334658</ele>
        <time>2026-09-02T01:21:11Z</time>
      </trkpt>
      <trkpt lat="34.83086645734946" lon="113.6587609500379">
        <ele>86.35115577187389</ele>
        <time>2026-09-02T01:21:14Z</time>
      </trkpt>
      <trkpt lat="34.83080170199444" lon="113.65847285534424">
        <ele>92.0434505790472</ele>
        <time>2026-09-02T01:21:23Z</time>
      </trkpt>
      <trkpt lat="34.830741503933574" lon="113.65843189978592">
        <ele>91.22714346181601</ele>
        <time>2026-09-02T01:21:26Z</time>
      </trkpt>
      <trkpt lat="34.8306903380575" lon="113.65843521894467">
        <ele>90.99676790740341</ele>
        <time>2026-09-02T01:21:29Z</time>
      </trkpt>
      <trkpt lat="34.83050678880565" lon="113.65826279353658">
        <ele>91.61084144655615</ele>
        <time>2026-09-02T01:21:41Z</time>
      </trkpt>
      <trkpt lat="34.83034928882012" lon="113.65827496360178">
        <ele>90.82440950535238</ele>
        <time>2026-09-02T01:21:47Z</time>
      </trkpt>
      <trkpt lat="34.8302112648111" lon="113.65841827635403">
        <ele>92.61842211149633</ele>
        <time>2026-09-02T01:21:53Z</time>
      </trkpt>
      <trkpt lat="34.82998636682273" lon="113.65852253664346">
        <ele>88.2521345121786</ele>
        <time>2026-09-02T01:22:02Z</time>
      </trkpt>
      <trkpt lat="34.829913914494966" lon="113.65854008997688">
        <ele>88.78096668701619</ele>
        <time>2026-09-02T01:22:05Z</time>
      </trkpt>
      <trkpt lat="34.829846994085536" lon="113.65852132527543">
        <ele>88.60495625156909</ele>
        <time>2026-09-02T01:22:08Z</time>
      </trkpt>
      <trkpt lat="34.82976971919436" lon="113.65853808258089">
        <ele>88.65680468361825</ele>
        <time>2026-09-02T01:22:11Z</time>
      </trkpt>
      <trkpt lat="34.82967347078558" lon="113.6584504604677">
        <ele>86.88050460349768</ele>
        <time>2026-09-02T01:22:19Z</time>
      </trkpt>
      <trkpt lat="34.82967864406925" lon="113.65825480197601">
        <ele>89.01965297851712</ele>
        <time>2026-09-02T01:22:23Z</time>
      </trkpt>
      <trkpt lat="34.82962666331572" lon="113.65821175267257">
        <ele>89.38627424929291</ele>
        <time>2026-09-02T01:22:27Z</time>
      </trkpt>
      <trkpt lat="34.82931478514038" lon="113.65815474286848">
        <ele>87.53695059660822</ele>
        <time>2026-09-02T01:22:45Z</time>
      </trkpt>
      <trkpt lat="34.82928149943386" lon="113.65809926089241">
        <ele>86.63323489017785</ele>
        <time>2026-09-02T01:22:48Z</time>
      </trkpt>
      <trkpt lat="34.82929799486542" lon="113.65790903164573">
        <ele>86.50690663605928</ele>
        <time>2026-09-02T01:22:57Z</time>
      </trkpt>
      <trkpt lat="34.82932938480323" lon="113.65773603550467">
        <ele>88.48971758503467</ele>
        <time>2026-09-02T01:23:03Z</time>
      </trkpt>
      <trkpt lat="34.829317633786864" lon="113.65748882664455">
        <ele>86.86531393416226</ele>
        <time>2026-09-02T01:23:12Z</time>
      </trkpt>
      <trkpt lat="34.82934329041577" lon="113.6573107677535">
        <ele>84.73228511679918</ele>
        <time>2026-09-02T01:23:18Z</time>
      </trkpt>
      <trkpt lat="34.829326020319684" lon="113.65708105133125">
        <ele>85.80745246168226</ele>
        <time>2026-09-02T01:23:27Z</time>
      </trkpt>
      <trkpt lat="34.8292641907949" lon="113.65685506842904">
        <ele>86.51413376070559</ele>
        <time>2026-09-02T01:23:36Z</time>
      </trkpt>
      <trkpt lat="34.829226699412345" lon="113.65681494826245">
        <ele>86.77121976297349</ele>
        <time>2026-09-02T01:23:39Z</time>
      </trkpt>
      <trkpt lat="34.82905856522635" lon="113.65679235510052">
        <ele>85.51338268816471</ele>
        <time>2026-09-02T01:23:48Z</time>
      </trkpt>
    </trkseg>
  </trk>
</gpx>