<?xml version="1.0" encoding="UTF-8"?>
<gpx xmlns="http://www.topografix.com/GPX/1/1" xmlns:gpxtpx="http://www.garmin.com/xmlschemas/TrackPointExtension/v1" xmlns:xsi="http://www.w3.org/2001/XMLSchema-instance" xsi:schemaLocation="http://www.topografix.com/GPX/1/1 http://www.topografix.com/GPX/1/1/gpx.xsd" version="1.1" creator="gpx.py -- https://github.com/tkrajina/gpxpy">
  <trk>
    <name>gpx from keep</name>
    <type>Run</type>
    <trkseg>
      <trkpt lat="34.82972195314038" lon="113.65828241460945">
        <ele>89.01132674011116</ele>
        <time>2026-09-14T23:18:39Z</time>
      </trkpt>
      <trkpt lat="34.829702003610386" lon="113.65839405178176">
        <ele>99.173095703125</ele>
        <time>2026-09-14T23:18:43Z</time>
      </trkpt>
      <trkpt lat="34.82972817462271" lon="113.65851719114679">
        <ele>98.94059113133699</ele>
        <time>2026-09-14T23:18:49Z</time>
      </trkpt>
      <trkpt lat="34.829863007085414" lon="113.65851015148704">
        <ele>94.35302680078894</ele>
        <time>2026-09-14T23:19:01Z</time>
      </trkpt>
      <trkpt lat="34.830039510025436" lon="113.65852367455354">
        <ele>93.34141201339662</ele>
        <time>2026-09-14T23:19:07Z</time>
      </trkpt>
      <trkpt lat="34.83016135728561" lon="113.65847648300218">
        <ele>92.12710044998676</ele>
        <time>2026-09-14T23:19:13Z</time>
      </trkpt>
      <trkpt lat="34.830285321759625" lon="113.65844262692143">
        <ele>93.6974617652595</ele>
        <time>2026-09-14T23:19:22Z</time>
      </trkpt>
      <trkpt lat="34.830341480355536" lon="113.65838105158052">
        <ele>94.96851669345051</ele>
        <time>2026-09-14T23:19:25Z</time>
      </trkpt>
      <trkpt lat="34.83046563984621" lon="113.65833683985815">
        <ele>94.31653042603284</ele>
        <time>2026-09-14T23:19:37Z</time>
      </trkpt>
      <trkpt lat="34.83069444897184" lon="113.65822408861318">
        <ele>94.30047904327512</ele>
        <time>2026-09-14T23:19:49Z</time>
      </trkpt>
      <trkpt lat="34.830780710545525" lon="113.65830752520715">
        <ele>94.22804246190935</ele>
        <time>2026-09-14T23:19:52Z</time>
      </trkpt>
      <trkpt lat="34.83087247060729" lon="113.6585293033376">
        <ele>93.57272609043866</ele>
        <time>2026-09-14T23:19:55Z</time>
      </trkpt>
      <trkpt lat="34.830827246759775" lon="113.65867616792832">
        <ele>92.91121461801231</ele>
        <time>2026-09-14T23:19:58Z</time>
      </trkpt>
      <trkpt lat="34.83081495934566" lon="113.65881346364475">
        <ele>92.6294037476182</ele>
        <time>2026-09-14T23:20:07Z</time>
      </trkpt>
      <trkpt lat="34.83083610358149" lon="113.65886990952953">
        <ele>93.24615625943989</ele>
        <time>2026-09-14T23:20:10Z</time>
      </trkpt>
      <trkpt lat="34.83085222721255" lon="113.65900180532854">
        <ele>92.63908249791712</ele>
        <time>2026-09-14T23:20:13Z</time>
      </trkpt>
      <trkpt lat="34.830895666229445" lon="113.65906360619354">
        <ele>93.5873585510999</ele>
        <time>2026-09-14T23:20:16Z</time>
      </trkpt>
      <trkpt lat="34.83102768117815" lon="113.65912619753148">
        <ele>93.06018513441086</ele>
        <time>2026-09-14T23:20:22Z</time>
      </trkpt>
      <trkpt lat="34.83114911021826" lon="113.65912534401699">
        <ele>92.82331174984574</ele>
        <time>2026-09-14T23:20:28Z</time>
      </trkpt>
      <trkpt lat="34.831316969173386" lon="113.65903877293245">
        <ele>92.99829018861055</ele>
        <time>2026-09-14T23:20:37Z</time>
      </trkpt>
      <trkpt lat="34.831408256221174" lon="113.65892997153246">
        <ele>93.9213003218174</ele>
        <time>2026-09-14T23:20:43Z</time>
      </trkpt>
      <trkpt lat="34.83147651125891" lon="113.65888736197242">
        <ele>92.3709945436567</ele>
        <time>2026-09-14T23:20:47Z</time>
      </trkpt>
      <trkpt lat="34.8315146258367" lon="113.65881607917534">
        <ele>91.34900064580142</ele>
        <time>2026-09-14T23:20:50Z</time>
      </trkpt>
      <trkpt lat="34.831685188032225" lon="113.65884553724405">
        <ele>91.23230142984539</ele>
        <time>2026-09-14T23:20:59Z</time>
      </trkpt>
      <trkpt lat="34.831918395478745" lon="113.65875458621352">
        <ele>91.89679360762239</ele>
        <time>2026-09-14T23:21:11Z</time>
      </trkpt>
      <trkpt lat="34.831995195888624" lon="113.65863999305355">
        <ele>91.44071630202234</ele>
        <time>2026-09-14T23:21:17Z</time>
      </trkpt>
      <trkpt lat="34.83209434564763" lon="113.65857328083833">
        <ele>90.52177536301315</ele>
        <time>2026-09-14T23:21:23Z</time>
      </trkpt>
      <trkpt lat="34.832160393772114" lon="113.65847389882853">
        <ele>91.5682180179283</ele>
        <time>2026-09-14T23:21:29Z</time>
      </trkpt>
      <trkpt lat="34.83219286588234" lon="113.6580938305384">
        <ele>91.00382984708995</ele>
        <time>2026-09-14T23:21:47Z</time>
      </trkpt>
      <trkpt lat="34.832206219611784" lon="113.65788059546824">
        <ele>90.98248879145831</ele>
        <time>2026-09-14T23:21:56Z</time>
      </trkpt>
      <trkpt lat="34.832194445863294" lon="113.65770696723985">
        <ele>88.49830147996545</ele>
        <time>2026-09-14T23:22:02Z</time>
      </trkpt>
      <trkpt lat="34.83225227195952" lon="113.65753396752856">
        <ele>87.27853446174413</ele>
        <time>2026-09-14T23:22:08Z</time>
      </trkpt>
      <trkpt lat="34.83226836141491" lon="113.65715678773721">
        <ele>86.99139715917408</ele>
        <time>2026-09-14T23:22:20Z</time>
      </trkpt>
      <trkpt lat="34.83227996694791" lon="113.65683327796852">
        <ele>88.26187457889318</ele>
        <time>2026-09-14T23:22:32Z</time>
      </trkpt>
      <trkpt lat="34.83230283826" lon="113.65675303344999">
        <ele>88.47388901468366</ele>
        <time>2026-09-14T23:22:35Z</time>
      </trkpt>
      <trkpt lat="34.83264033424115" lon="113.65674308242524">
        <ele>90.13241783622652</ele>
        <time>2026-09-14T23:22:50Z</time>
      </trkpt>
      <trkpt lat="34.832973938458544" lon="113.65676221097753">
        <ele>90.5496040051803</ele>
        <time>2026-09-14T23:23:06Z</time>
      </trkpt>
      <trkpt lat="34.83322534838579" lon="113.6567632134486">
        <ele>90.4767418820411</ele>
        <time>2026-09-14T23:23:18Z</time>
      </trkpt>
      <trkpt lat="34.83326170981594" lon="113.65667798898937">
        <ele>90.06032468937337</ele>
        <time>2026-09-14T23:23:22Z</time>
      </trkpt>
      <trkpt lat="34.83328285145998" lon="113.65640431548931">
        <ele>89.49828008469194</ele>
        <time>2026-09-14T23:23:35Z</time>
      </trkpt>
      <trkpt lat="34.83356027532372" lon="113.65634692149209">
        <ele>89.22593231871724</ele>
        <time>2026-09-14T23:23:47Z</time>
      </trkpt>
      <trkpt lat="34.83385578178475" lon="113.6562382333622">
        <ele>90.348976733163</ele>
        <time>2026-09-14T23:24:02Z</time>
      </trkpt>
      <trkpt lat="34.83409469180937" lon="113.65604577146395">
        <ele>90.42642967030406</ele>
        <time>2026-09-14T23:24:17Z</time>
      </trkpt>
      <trkpt lat="34.83419001048499" lon="113.65593190384037">
        <ele>89.88676718529314</ele>
        <time>2026-09-14T23:24:23Z</time>
      </trkpt>
      <trkpt lat="34.83426908960899" lon="113.6557048840564">
        <ele>90.7797328773886</ele>
        <time>2026-09-14T23:24:32Z</time>
      </trkpt>
      <trkpt lat="34.834279883323674" lon="113.65541987279323">
        <ele>90.85247708205134</ele>
        <time>2026-09-14T23:24:44Z</time>
      </trkpt>
      <trkpt lat="34.83419927589242" lon="113.65516988292758">
        <ele>90.20142466574907</ele>
        <time>2026-09-14T23:24:56Z</time>
      </trkpt>
      <trkpt lat="34.83415930707894" lon="113.6550977156468">
        <ele>90.19120488781482</ele>
        <time>2026-09-14T23:25:00Z</time>
      </trkpt>
      <trkpt lat="34.83402213421638" lon="113.65504250369003">
        <ele>90.03669086098671</ele>
        <time>2026-09-14T23:25:08Z</time>
      </trkpt>
      <trkpt lat="34.83397852069269" lon="113.65495645803384">
        <ele>89.792076587677</ele>
        <time>2026-09-14T23:25:12Z</time>
      </trkpt>
      <trkpt lat="34.833826991386374" lon="113.65483474254206">
        <ele>90.17222335375845</ele>
        <time>2026-09-14T23:25:20Z</time>
      </trkpt>
      <trkpt lat="34.833623091942655" lon="113.65480320406245">
        <ele>90.25138760264963</ele>
        <time>2026-09-14T23:25:30Z</time>
      </trkpt>
      <trkpt lat="34.833501934753436" lon="113.65482637998905">
        <ele>90.07432131376117</ele>
        <time>2026-09-14T23:25:36Z</time>
      </trkpt>
      <trkpt lat="34.83329171828435" lon="113.65494081950037">
        <ele>90.13865829724818</ele>
        <time>2026-09-14T23:25:48Z</time>
      </trkpt>
      <trkpt lat="34.83322958884098" lon="113.65491754166194">
        <ele>89.3027597879991</ele>
        <time>2026-09-14T23:25:51Z</time>
      </trkpt>
      <trkpt lat="34.83309455808352" lon="113.65503423861904">
        <ele>89.30626633577049</ele>
        <time>2026-09-14T23:26:00Z</time>
      </trkpt>
      <trkpt lat="34.833035705789655" lon="113.65505120351443">
        <ele>89.63705572858453</ele>
        <time>2026-09-14T23:26:03Z</time>
      </trkpt>
      <trkpt lat="34.832809765134016" lon="113.65498376225776">
        <ele>90.06376264989376</ele>
        <time>2026-09-14T23:26:15Z</time>
      </trkpt>
      <trkpt lat="34.832710954354006" lon="113.6548238217272">
        <ele>90.55572717264295</ele>
        <time>2026-09-14T23:26:24Z</time>
      </trkpt>
      <trkpt lat="34.832627381400954" lon="113.65457105243746">
        <ele>90.5551153421402</ele>
        <time>2026-09-14T23:26:42Z</time>
      </trkpt>
      <trkpt lat="34.83271808166548" lon="113.65449620541101">
        <ele>90.33222061488777</ele>
        <time>2026-09-14T23:26:48Z</time>
      </trkpt>
      <trkpt lat="34.832823217461865" lon="113.65445544818755">
        <ele>89.49755711946636</ele>
        <time>2026-09-14T23:26:54Z</time>
      </trkpt>
      <trkpt lat="34.83290841949479" lon="113.65428098661974">
        <ele>90.88749894034117</ele>
        <time>2026-09-14T23:27:03Z</time>
      </trkpt>
      <trkpt lat="34.832854824819826" lon="113.6542914634686">
        <ele>89.85235950630158</ele>
        <time>2026-09-14T23:27:11Z</time>
      </trkpt>
      <trkpt lat="34.83286298106407" lon="113.65387514248785">
        <ele>90.80975987110287</ele>
        <time>2026-09-14T23:27:28Z</time>
      </trkpt>
      <trkpt lat="34.83287420164456" lon="113.65375745776302">
        <ele>90.13082064967602</ele>
        <time>2026-09-14T23:27:34Z</time>
      </trkpt>
      <trkpt lat="34.83278469654295" lon="113.6535984502028">
        <ele>89.15655942261219</ele>
        <time>2026-09-14T23:27:43Z</time>
      </trkpt>
      <trkpt lat="34.8327692135852" lon="113.65352686293578">
        <ele>89.38181040808558</ele>
        <time>2026-09-14T23:27:46Z</time>
      </trkpt>
      <trkpt lat="34.832780324691086" lon="113.65345480918667">
        <ele>89.4251225553453</ele>
        <time>2026-09-14T23:27:49Z</time>
      </trkpt>
      <trkpt lat="34.83302629515668" lon="113.65325787298916">
        <ele>89.9513545781374</ele>
        <time>2026-09-14T23:28:04Z</time>
      </trkpt>
      <trkpt lat="34.83311559440336" lon="113.65317457044688">
        <ele>89.76439052354544</ele>
        <time>2026-09-14T23:28:10Z</time>
      </trkpt>
      <trkpt lat="34.83310817437205" lon="113.65303716148364">
        <ele>90.35003418661654</ele>
        <time>2026-09-14T23:28:16Z</time>
      </trkpt>
      <trkpt lat="34.83314464143761" lon="113.65289346707844">
        <ele>90.25392211042345</ele>
        <time>2026-09-14T23:28:22Z</time>
      </trkpt>
      <trkpt lat="34.8334465325995" lon="113.65278882075944">
        <ele>89.0149251203984</ele>
        <time>2026-09-14T23:28:37Z</time>
      </trkpt>
      <trkpt lat="34.83364632555924" lon="113.65264466728787">
        <ele>89.65004876069725</ele>
        <time>2026-09-14T23:28:49Z</time>
      </trkpt>
      <trkpt lat="34.83394810529123" lon="113.65258630952842">
        <ele>89.29975435510278</ele>
        <time>2026-09-14T23:29:04Z</time>
      </trkpt>
      <trkpt lat="34.83422810490603" lon="113.65249513703297">
        <ele>90.19276256021112</ele>
        <time>2026-09-14T23:29:19Z</time>
      </trkpt>
      <trkpt lat="34.834475813819466" lon="113.6524039228946">
        <ele>89.47729955520481</ele>
        <time>2026-09-14T23:29:32Z</time>
      </trkpt>
      <trkpt lat="34.83451543457675" lon="113.65237150655395">
        <ele>89.87007706146687</ele>
        <time>2026-09-14T23:29:35Z</time>
      </trkpt>
      <trkpt lat="34.83475032060775" lon="113.6523000817926">
        <ele>89.97462985571474</ele>
        <time>2026-09-14T23:29:47Z</time>
      </trkpt>
      <trkpt lat="34.83501459587613" lon="113.6521752121745">
        <ele>90.35087816789746</ele>
        <time>2026-09-14T23:30:02Z</time>
      </trkpt>
      <trkpt lat="34.835308800529" lon="113.65207106448553">
        <ele>90.58968945592642</ele>
        <time>2026-09-14T23:30:17Z</time>
      </trkpt>
      <trkpt lat="34.83541808705437" lon="113.65203506849026">
        <ele>90.72764321044087</ele>
        <time>2026-09-14T23:30:23Z</time>
      </trkpt>
      <trkpt lat="34.83556775161357" lon="113.65193529329453">
        <ele>91.0618951804936</ele>
        <time>2026-09-14T23:30:32Z</time>
      </trkpt>
      <trkpt lat="34.83572180735217" lon="113.65187053633483">
        <ele>90.9961188621819</ele>
        <time>2026-09-14T23:30:41Z</time>
      </trkpt>
      <trkpt lat="34.83574470752615" lon="113.6518107909143">
        <ele>90.98510787077248</ele>
        <time>2026-09-14T23:30:44Z</time>
      </trkpt>
      <trkpt lat="34.83569004126843" lon="113.6517711034047">
        <ele>90.78869461920112</ele>
        <time>2026-09-14T23:30:47Z</time>
      </trkpt>
      <trkpt lat="34.83558122616498" lon="113.65162585268331">
        <ele>91.83388038259</ele>
        <time>2026-09-14T23:30:56Z</time>
      </trkpt>
      <trkpt lat="34.83558580205451" lon="113.65132529990453">
        <ele>88.47911441791803</ele>
        <time>2026-09-14T23:31:11Z</time>
      </trkpt>
      <trkpt lat="34.83560038388448" lon="113.65124263666353">
        <ele>88.78556990809739</ele>
        <time>2026-09-14T23:31:14Z</time>
      </trkpt>
      <trkpt lat="34.83588435431711" lon="113.65112909440501">
        <ele>89.03885169234127</ele>
        <time>2026-09-14T23:31:30Z</time>
      </trkpt>
      <trkpt lat="34.836167209694054" lon="113.65104282239653">
        <ele>87.58826075587422</ele>
        <time>2026-09-14T23:31:45Z</time>
      </trkpt>
      <trkpt lat="34.83627026434679" lon="113.65101257887885">
        <ele>88.43972188141197</ele>
        <time>2026-09-14T23:31:51Z</time>
      </trkpt>
      <trkpt lat="34.836319527193965" lon="113.65096921816779">
        <ele>85.96998448204249</ele>
        <time>2026-09-14T23:31:54Z</time>
      </trkpt>
      <trkpt lat="34.83653266409702" lon="113.65090127508891">
        <ele>87.94106292631477</ele>
        <time>2026-09-14T23:32:09Z</time>
      </trkpt>
      <trkpt lat="34.836795824874194" lon="113.65072998412124">
        <ele>87.47786094248295</ele>
        <time>2026-09-14T23:32:23Z</time>
      </trkpt>
      <trkpt lat="34.837066044577064" lon="113.6506180262304">
        <ele>90.48395873978734</ele>
        <time>2026-09-14T23:32:38Z</time>
      </trkpt>
      <trkpt lat="34.83733785526199" lon="113.65056232342495">
        <ele>88.40095606725663</ele>
        <time>2026-09-14T23:32:53Z</time>
      </trkpt>
      <trkpt lat="34.837627133106" lon="113.65058267957507">
        <ele>90.15886368975043</ele>
        <time>2026-09-14T23:33:08Z</time>
      </trkpt>
      <trkpt lat="34.83791769413981" lon="113.65044906363075">
        <ele>90.1369554148987</ele>
        <time>2026-09-14T23:33:24Z</time>
      </trkpt>
      <trkpt lat="34.83810742461023" lon="113.65027987406714">
        <ele>90.43392612971365</ele>
        <time>2026-09-14T23:33:36Z</time>
      </trkpt>
      <trkpt lat="34.83827413360952" lon="113.6501753466728">
        <ele>90.63923337496817</ele>
        <time>2026-09-14T23:33:45Z</time>
      </trkpt>
      <trkpt lat="34.83844496911748" lon="113.6501233579134">
        <ele>90.94474059715867</ele>
        <time>2026-09-14T23:33:54Z</time>
      </trkpt>
      <trkpt lat="34.83871400551253" lon="113.64996575579288">
        <ele>90.83652615640312</ele>
        <time>2026-09-14T23:34:09Z</time>
      </trkpt>
      <trkpt lat="34.83899131558867" lon="113.64978851285231">
        <ele>90.57745526079088</ele>
        <time>2026-09-14T23:34:27Z</time>
      </trkpt>
      <trkpt lat="34.83916515479424" lon="113.6496461675856">
        <ele>90.00628407951444</ele>
        <time>2026-09-14T23:34:39Z</time>
      </trkpt>
      <trkpt lat="34.8392259295452" lon="113.64957588852232">
        <ele>90.24357164651155</ele>
        <time>2026-09-14T23:34:45Z</time>
      </trkpt>
      <trkpt lat="34.8395273025691" lon="113.64944947442501">
        <ele>90.78555117361248</ele>
        <time>2026-09-14T23:35:00Z</time>
      </trkpt>
      <trkpt lat="34.83963273651009" lon="113.6494116286086">
        <ele>89.63976609893143</ele>
        <time>2026-09-14T23:35:06Z</time>
      </trkpt>
      <trkpt lat="34.83964415340409" lon="113.64947867078233">
        <ele>89.00230990722775</ele>
        <time>2026-09-14T23:35:09Z</time>
      </trkpt>
      <trkpt lat="34.83963667512854" lon="113.64961823084066">
        <ele>87.76209588348866</ele>
        <time>2026-09-14T23:35:15Z</time>
      </trkpt>
      <trkpt lat="34.83965930563494" lon="113.64968280088351">
        <ele>87.9992271726951</ele>
        <time>2026-09-14T23:35:18Z</time>
      </trkpt>
      <trkpt lat="34.839719203381506" lon="113.64966663350783">
        <ele>87.7281356593594</ele>
        <time>2026-09-14T23:35:24Z</time>
      </trkpt>
      <trkpt lat="34.83977550466342" lon="113.6497004525606">
        <ele>87.83637921605259</ele>
        <time>2026-09-14T23:35:27Z</time>
      </trkpt>
      <trkpt lat="34.839841192346775" lon="113.64983343958579">
        <ele>88.15595267992467</ele>
        <time>2026-09-14T23:35:34Z</time>
      </trkpt>
      <trkpt lat="34.83993313289244" lon="113.64992425665245">
        <ele>86.60152123775333</ele>
        <time>2026-09-14T23:35:40Z</time>
      </trkpt>
      <trkpt lat="34.84003873185364" lon="113.65010213973784">
        <ele>88.02634943462908</ele>
        <time>2026-09-14T23:35:49Z</time>
      </trkpt>
      <trkpt lat="34.84005492304127" lon="113.65026198067258">
        <ele>88.88801447208971</ele>
        <time>2026-09-14T23:35:55Z</time>
      </trkpt>
      <trkpt lat="34.840020731134885" lon="113.65038603912697">
        <ele>88.18494119867682</ele>
        <time>2026-09-14T23:36:01Z</time>
      </trkpt>
      <trkpt lat="34.83993366227233" lon="113.65047940990864">
        <ele>88.18119197897613</ele>
        <time>2026-09-14T23:36:07Z</time>
      </trkpt>
      <trkpt lat="34.839816978462025" lon="113.6505396626299">
        <ele>87.34971555229276</ele>
        <time>2026-09-14T23:36:13Z</time>
      </trkpt>
      <trkpt lat="34.83988950892023" lon="113.65064160066918">
        <ele>84.50866007059813</ele>
        <time>2026-09-14T23:36:25Z</time>
      </trkpt>
      <trkpt lat="34.839952718610654" lon="113.65065327656677">
        <ele>85.10523196589202</ele>
        <time>2026-09-14T23:36:28Z</time>
      </trkpt>
      <trkpt lat="34.83999604462005" lon="113.6506381082178">
        <ele>85.96511744242162</ele>
        <time>2026-09-14T23:36:31Z</time>
      </trkpt>
      <trkpt lat="34.84015898131485" lon="113.65033624666614">
        <ele>86.52386638801545</ele>
        <time>2026-09-14T23:36:49Z</time>
      </trkpt>
      <trkpt lat="34.84022235767778" lon="113.65024501989956">
        <ele>86.32411868777126</ele>
        <time>2026-09-14T23:36:55Z</time>
      </trkpt>
      <trkpt lat="34.84017926213462" lon="113.65032315664607">
        <ele>87.16094781737775</ele>
        <time>2026-09-14T23:36:58Z</time>
      </trkpt>
      <trkpt lat="34.84020024686196" lon="113.65026071794777">
        <ele>86.80066981259733</ele>
        <time>2026-09-14T23:37:01Z</time>
      </trkpt>
      <trkpt lat="34.84033147105479" lon="113.6500605019946">
        <ele>84.27800444420427</ele>
        <time>2026-09-14T23:37:07Z</time>
      </trkpt>
      <trkpt lat="34.84049734666739" lon="113.65013657889783">
        <ele>85.43629395402968</ele>
        <time>2026-09-14T23:37:10Z</time>
      </trkpt>
      <trkpt lat="34.84063476235183" lon="113.65009067427461">
        <ele>87.12731559667736</ele>
        <time>2026-09-14T23:37:16Z</time>
      </trkpt>
      <trkpt lat="34.84068572104065" lon="113.65005688200705">
        <ele>87.35735105071217</ele>
        <time>2026-09-14T23:37:19Z</time>
      </trkpt>
      <trkpt lat="34.840713511812154" lon="113.65000895750391">
        <ele>86.74267254956067</ele>
        <time>2026-09-14T23:37:22Z</time>
      </trkpt>
      <trkpt lat="34.84095944128361" lon="113.64992814485328">
        <ele>88.64120253082365</ele>
        <time>2026-09-14T23:37:35Z</time>
      </trkpt>
      <trkpt lat="34.841091261931474" lon="113.64985989512502">
        <ele>87.04167147353292</ele>
        <time>2026-09-14T23:37:44Z</time>
      </trkpt>
      <trkpt lat="34.84121159847149" lon="113.64983342273092">
        <ele>87.55904926080257</ele>
        <time>2026-09-14T23:37:50Z</time>
      </trkpt>
      <trkpt lat="34.84147028020778" lon="113.64973138963593">
        <ele>89.03326932992786</ele>
        <time>2026-09-14T23:38:05Z</time>
      </trkpt>
      <trkpt lat="34.84166924410264" lon="113.64965687281111">
        <ele>87.74230561871082</ele>
        <time>2026-09-14T23:38:14Z</time>
      </trkpt>
      <trkpt lat="34.84181196462291" lon="113.64956828413833">
        <ele>87.45192082691938</ele>
        <time>2026-09-14T23:38:23Z</time>
      </trkpt>
      <trkpt lat="34.84212907049884" lon="113.6494642395978">
        <ele>88.2845548922196</ele>
        <time>2026-09-14T23:38:45Z</time>
      </trkpt>
      <trkpt lat="34.84248394325528" lon="113.64930369624116">
        <ele>85.48608815576881</ele>
        <time>2026-09-14T23:39:08Z</time>
      </trkpt>
      <trkpt lat="34.84274220506337" lon="113.64914341499538">
        <ele>82.64067905396223</ele>
        <time>2026-09-14T23:39:23Z</time>
      </trkpt>
      <trkpt lat="34.842928902195226" lon="113.6490512596924">
        <ele>84.39206756465137</ele>
        <time>2026-09-14T23:39:32Z</time>
      </trkpt>
      <trkpt lat="34.84304440744887" lon="113.64901601137154">
        <ele>86.06576456222683</ele>
        <time>2026-09-14T23:39:38Z</time>
      </trkpt>
      <trkpt lat="34.8431597039268" lon="113.64901317779629">
        <ele>87.65667788498104</ele>
        <time>2026-09-14T23:39:45Z</time>
      </trkpt>
      <trkpt lat="34.843142726548976" lon="113.64893994590054">
        <ele>89.47414775658399</ele>
        <time>2026-09-14T23:39:51Z</time>
      </trkpt>
      <trkpt lat="34.84315176479095" lon="113.64882515406404">
        <ele>89.18420822359622</ele>
        <time>2026-09-14T23:39:57Z</time>
      </trkpt>
      <trkpt lat="34.84319031387003" lon="113.64878757141433">
        <ele>89.33964037243277</ele>
        <time>2026-09-14T23:40:00Z</time>
      </trkpt>
      <trkpt lat="34.84323893471438" lon="113.64877740620223">
        <ele>90.50334832910448</ele>
        <time>2026-09-14T23:40:03Z</time>
      </trkpt>
      <trkpt lat="34.84335437207046" lon="113.64884107852082">
        <ele>89.68426924943924</ele>
        <time>2026-09-14T23:40:12Z</time>
      </trkpt>
      <trkpt lat="34.84337289832899" lon="113.64918751471694">
        <ele>90.30787238199264</ele>
        <time>2026-09-14T23:40:27Z</time>
      </trkpt>
      <trkpt lat="34.84338698878108" lon="113.64952552176946">
        <ele>89.47376627475023</ele>
        <time>2026-09-14T23:40:42Z</time>
      </trkpt>
      <trkpt lat="34.84338455002749" lon="113.64964810266441">
        <ele>88.89408434461802</ele>
        <time>2026-09-14T23:40:48Z</time>
      </trkpt>
      <trkpt lat="34.843097683262805" lon="113.64979393210575">
        <ele>89.45495482720435</ele>
        <time>2026-09-14T23:41:03Z</time>
      </trkpt>
      <trkpt lat="34.84280405374561" lon="113.64993323698417">
        <ele>89.6058184588328</ele>
        <time>2026-09-14T23:41:18Z</time>
      </trkpt>
      <trkpt lat="34.84251706919976" lon="113.65006457229194">
        <ele>87.63728491403162</ele>
        <time>2026-09-14T23:41:33Z</time>
      </trkpt>
      <trkpt lat="34.842198312142614" lon="113.65019786938497">
        <ele>88.5678781028837</ele>
        <time>2026-09-14T23:41:49Z</time>
      </trkpt>
      <trkpt lat="34.84190179048093" lon="113.65030438159842">
        <ele>87.20862121228129</ele>
        <time>2026-09-14T23:42:05Z</time>
      </trkpt>
      <trkpt lat="34.84160809940654" lon="113.65034944371315">
        <ele>87.38931031804532</ele>
        <time>2026-09-14T23:42:20Z</time>
      </trkpt>
      <trkpt lat="34.84130346823957" lon="113.65042997387472">
        <ele>86.7664944017306</ele>
        <time>2026-09-14T23:42:35Z</time>
      </trkpt>
      <trkpt lat="34.840994215702864" lon="113.6505773389983">
        <ele>89.27312485314906</ele>
        <time>2026-09-14T23:42:50Z</time>
      </trkpt>
      <trkpt lat="34.840883174476566" lon="113.65059145061821">
        <ele>88.01123688090593</ele>
        <time>2026-09-14T23:42:56Z</time>
      </trkpt>
      <trkpt lat="34.840661885042124" lon="113.65055480367775">
        <ele>88.30054710619152</ele>
        <time>2026-09-14T23:43:08Z</time>
      </trkpt>
      <trkpt lat="34.8404112328371" lon="113.65066444230374">
        <ele>88.09107262641191</ele>
        <time>2026-09-14T23:43:20Z</time>
      </trkpt>
      <trkpt lat="34.84020561299381" lon="113.65081604644018">
        <ele>88.61397320590913</ele>
        <time>2026-09-14T23:43:29Z</time>
      </trkpt>
      <trkpt lat="34.840153523525395" lon="113.65079060026851">
        <ele>87.206563311629</ele>
        <time>2026-09-14T23:43:32Z</time>
      </trkpt>
      <trkpt lat="34.83987663868489" lon="113.65101666184243">
        <ele>88.72940308135003</ele>
        <time>2026-09-14T23:43:54Z</time>
      </trkpt>
      <trkpt lat="34.83961227700511" lon="113.65124098608464">
        <ele>88.64806928299367</ele>
        <time>2026-09-14T23:44:10Z</time>
      </trkpt>
      <trkpt lat="34.83930898694587" lon="113.65132635654095">
        <ele>89.24954855255783</ele>
        <time>2026-09-14T23:44:25Z</time>
      </trkpt>
      <trkpt lat="34.839022150376145" lon="113.65143951254944">
        <ele>90.3248196002096</ele>
        <time>2026-09-14T23:44:40Z</time>
      </trkpt>
      <trkpt lat="34.838751158067836" lon="113.65156891177398">
        <ele>89.69161588419229</ele>
        <time>2026-09-14T23:44:55Z</time>
      </trkpt>
      <trkpt lat="34.83849161859448" lon="113.65170279089372">
        <ele>89.54612674936652</ele>
        <time>2026-09-14T23:45:10Z</time>
      </trkpt>
      <trkpt lat="34.83835141870934" lon="113.65180038009568">
        <ele>89.34222399443388</ele>
        <time>2026-09-14T23:45:19Z</time>
      </trkpt>
      <trkpt lat="34.8382937732736" lon="113.65186158991749">
        <ele>89.32476944290102</ele>
        <time>2026-09-14T23:45:22Z</time>
      </trkpt>
      <trkpt lat="34.838042364117996" lon="113.6520371625103">
        <ele>88.94820006657392</ele>
        <time>2026-09-14T23:45:37Z</time>
      </trkpt>
      <trkpt lat="34.83774770741177" lon="113.65216376158656">
        <ele>89.32962108496577</ele>
        <time>2026-09-14T23:45:52Z</time>
      </trkpt>
      <trkpt lat="34.83745520226701" lon="113.65226773359356">
        <ele>89.39812144823372</ele>
        <time>2026-09-14T23:46:07Z</time>
      </trkpt>
      <trkpt lat="34.83720983924149" lon="113.6523699367909">
        <ele>89.1888328930363</ele>
        <time>2026-09-14T23:46:19Z</time>
      </trkpt>
      <trkpt lat="34.83694515224209" lon="113.65257511124243">
        <ele>89.18844361882657</ele>
        <time>2026-09-14T23:46:34Z</time>
      </trkpt>
      <trkpt lat="34.83666729724299" lon="113.65276694054764">
        <ele>88.16783660743386</ele>
        <time>2026-09-14T23:46:49Z</time>
      </trkpt>
      <trkpt lat="34.83640076590439" lon="113.65294039575835">
        <ele>87.50146479159594</ele>
        <time>2026-09-14T23:47:04Z</time>
      </trkpt>
      <trkpt lat="34.83629866029052" lon="113.65302157617015">
        <ele>86.53545408323407</ele>
        <time>2026-09-14T23:47:10Z</time>
      </trkpt>
      <trkpt lat="34.836313444404155" lon="113.6530848184603">
        <ele>85.32878911774606</ele>
        <time>2026-09-14T23:47:13Z</time>
      </trkpt>
      <trkpt lat="34.83627389840211" lon="113.65312378918517">
        <ele>85.98326118011028</ele>
        <time>2026-09-14T23:47:16Z</time>
      </trkpt>
      <trkpt lat="34.83596513772632" lon="113.65325295409374">
        <ele>86.99579513072968</ele>
        <time>2026-09-14T23:47:31Z</time>
      </trkpt>
      <trkpt lat="34.83566304620194" lon="113.65338076054861">
        <ele>86.13465269375592</ele>
        <time>2026-09-14T23:47:46Z</time>
      </trkpt>
      <trkpt lat="34.835370274953185" lon="113.65348873381073">
        <ele>86.05478662159294</ele>
        <time>2026-09-14T23:48:01Z</time>
      </trkpt>
      <trkpt lat="34.83503952997315" lon="113.65361522188796">
        <ele>87.5364353088662</ele>
        <time>2026-09-14T23:48:17Z</time>
      </trkpt>
      <trkpt lat="34.834751825279355" lon="113.65376167103395">
        <ele>88.08554857224226</ele>
        <time>2026-09-14T23:48:31Z</time>
      </trkpt>
      <trkpt lat="34.83445736158976" lon="113.65389432439741">
        <ele>88.68266166187823</ele>
        <time>2026-09-14T23:48:46Z</time>
      </trkpt>
      <trkpt lat="34.83440236393488" lon="113.65386011105173">
        <ele>88.87490972410887</ele>
        <time>2026-09-14T23:48:49Z</time>
      </trkpt>
      <trkpt lat="34.83434306151343" lon="113.65384963359062">
        <ele>89.50235690921545</ele>
        <time>2026-09-14T23:48:52Z</time>
      </trkpt>
      <trkpt lat="34.834169117747294" lon="113.65392869736247">
        <ele>89.24883904960006</ele>
        <time>2026-09-14T23:49:01Z</time>
      </trkpt>
      <trkpt lat="34.83414221931338" lon="113.65398803260231">
        <ele>88.7400730587542</ele>
        <time>2026-09-14T23:49:04Z</time>
      </trkpt>
      <trkpt lat="34.83410333400111" lon="113.6540246525084">
        <ele>87.44192548375577</ele>
        <time>2026-09-14T23:49:07Z</time>
      </trkpt>
      <trkpt lat="34.83379838178884" lon="113.6541259764099">
        <ele>88.113928203471</ele>
        <time>2026-09-14T23:49:22Z</time>
      </trkpt>
      <trkpt lat="34.83354239960453" lon="113.65423566241047">
        <ele>88.66826584283262</ele>
        <time>2026-09-14T23:49:37Z</time>
      </trkpt>
      <trkpt lat="34.833327733899175" lon="113.65433198291012">
        <ele>89.34635085519403</ele>
        <time>2026-09-14T23:49:49Z</time>
      </trkpt>
      <trkpt lat="34.83302399922349" lon="113.65442792630222">
        <ele>89.66870731208473</ele>
        <time>2026-09-14T23:50:04Z</time>
      </trkpt>
      <trkpt lat="34.83275170513431" lon="113.65453652697691">
        <ele>89.27734679263085</ele>
        <time>2026-09-14T23:50:18Z</time>
      </trkpt>
      <trkpt lat="34.8326497154977" lon="113.6545844888967">
        <ele>88.86961103975773</ele>
        <time>2026-09-14T23:50:24Z</time>
      </trkpt>
      <trkpt lat="34.83266343665016" lon="113.65469219352717">
        <ele>89.15133431833237</ele>
        <time>2026-09-14T23:50:30Z</time>
      </trkpt>
      <trkpt lat="34.83282937533914" lon="113.65501285551166">
        <ele>87.92434050887823</ele>
        <time>2026-09-14T23:50:51Z</time>
      </trkpt>
      <trkpt lat="34.832821464965214" lon="113.65506813168025">
        <ele>87.22305366862565</ele>
        <time>2026-09-14T23:50:54Z</time>
      </trkpt>
      <trkpt lat="34.83279042622582" lon="113.6551332104975">
        <ele>87.4998282790184</ele>
        <time>2026-09-14T23:50:57Z</time>
      </trkpt>
      <trkpt lat="34.8327830361049" lon="113.65518783006745">
        <ele>87.50127667654306</ele>
        <time>2026-09-14T23:51:00Z</time>
      </trkpt>
      <trkpt lat="34.83283030335873" lon="113.65529433493984">
        <ele>87.8071061912924</ele>
        <time>2026-09-14T23:51:06Z</time>
      </trkpt>
      <trkpt lat="34.832784108832" lon="113.65533855417313">
        <ele>87.6754659274593</ele>
        <time>2026-09-14T23:51:09Z</time>
      </trkpt>
      <trkpt lat="34.83274406750166" lon="113.65541044875425">
        <ele>88.02679959777743</ele>
        <time>2026-09-14T23:51:12Z</time>
      </trkpt>
      <trkpt lat="34.8327148066011" lon="113.65555142488932">
        <ele>87.36951314471662</ele>
        <time>2026-09-14T23:51:18Z</time>
      </trkpt>
      <trkpt lat="34.83271703224429" lon="113.65561860593618">
        <ele>87.99982838053256</ele>
        <time>2026-09-14T23:51:21Z</time>
      </trkpt>
      <trkpt lat="34.83267264601072" lon="113.65571374490932">
        <ele>86.85754892975092</ele>
        <time>2026-09-14T23:51:27Z</time>
      </trkpt>
      <trkpt lat="34.83263360523501" lon="113.65575778189097">
        <ele>87.69723079446703</ele>
        <time>2026-09-14T23:51:30Z</time>
      </trkpt>
      <trkpt lat="34.83257133485113" lon="113.65575945365549">
        <ele>88.07442129589617</ele>
        <time>2026-09-14T23:51:33Z</time>
      </trkpt>
      <trkpt lat="34.83246312864574" lon="113.65571056641805">
        <ele>87.64649078529328</ele>
        <time>2026-09-14T23:51:39Z</time>
      </trkpt>
      <trkpt lat="34.832344886521156" lon="113.65573407403797">
        <ele>86.92927465494722</ele>
        <time>2026-09-14T23:51:45Z</time>
      </trkpt>
      <trkpt lat="34.83224844233078" lon="113.65590057077671">
        <ele>87.60402384307235</ele>
        <time>2026-09-14T23:51:54Z</time>
      </trkpt>
      <trkpt lat="34.83216156795672" lon="113.65597586338347">
        <ele>86.47584364004433</ele>
        <time>2026-09-14T23:52:00Z</time>
      </trkpt>
      <trkpt lat="34.83216156795672" lon="113.65597586338347">
        <ele>86.47584364004433</ele>
        <time>2026-09-14T23:52:03Z</time>
      </trkpt>
    </trkseg>
  </trk>
</gpx>