<?xml version="1.0" encoding="UTF-8"?>
<gpx xmlns="http://www.topografix.com/GPX/1/1" xmlns:gpxtpx="http://www.garmin.com/xmlschemas/TrackPointExtension/v1" xmlns:xsi="http://www.w3.org/2001/XMLSchema-instance" xsi:schemaLocation="http://www.topografix.com/GPX/1/1 http://www.topografix.com/GPX/1/1/gpx.xsd" version="1.1" creator="gpx.py -- https://github.com/tkrajina/gpxpy">
  <trk>
    <name>gpx from keep</name>
    <type>Ride</type>
    <trkseg>
      <trkpt lat="34.83639740173924" lon="113.650940426886">
        <ele>82.419364717789</ele>
        <time>2026-10-06T10:08:01Z</time>
      </trkpt>
      <trkpt lat="34.83677342445747" lon="113.65073420859548">
        <ele>82.2369034877047</ele>
        <time>2026-10-06T10:08:12Z</time>
      </trkpt>
      <trkpt lat="34.837022180753706" lon="113.65062365244162">
        <ele>82.87815704382956</ele>
        <time>2026-10-06T10:08:18Z</time>
      </trkpt>
      <trkpt lat="34.837116376005426" lon="113.65062093248244">
        <ele>82.98285934329033</ele>
        <time>2026-10-06T10:08:20Z</time>
      </trkpt>
      <trkpt lat="34.837201096903065" lon="113.65057203543988">
        <ele>83.17629623133689</ele>
        <time>2026-10-06T10:08:22Z</time>
      </trkpt>
      <trkpt lat="34.83728831164146" lon="113.65055211160654">
        <ele>83.2504091244191</ele>
        <time>2026-10-06T10:08:24Z</time>
      </trkpt>
      <trkpt lat="34.83756071210623" lon="113.65059922240641">
        <ele>82.23719888087362</ele>
        <time>2026-10-06T10:08:30Z</time>
      </trkpt>
      <trkpt lat="34.83781230998564" lon="113.65047919427798">
        <ele>81.8918492058292</ele>
        <time>2026-10-06T10:08:37Z</time>
      </trkpt>
      <trkpt lat="34.837992982231064" lon="113.65045630020764">
        <ele>84.47472288180143</ele>
        <time>2026-10-06T10:08:41Z</time>
      </trkpt>
      <trkpt lat="34.83810916952973" lon="113.65029945270014">
        <ele>83.6411392018199</ele>
        <time>2026-10-06T10:08:45Z</time>
      </trkpt>
      <trkpt lat="34.8382510733697" lon="113.65018240148751">
        <ele>84.01753782574087</ele>
        <time>2026-10-06T10:08:49Z</time>
      </trkpt>
      <trkpt lat="34.83843264168779" lon="113.65010608499863">
        <ele>84.60873874928802</ele>
        <time>2026-10-06T10:08:56Z</time>
      </trkpt>
      <trkpt lat="34.83877998463678" lon="113.64992494997493">
        <ele>82.63265100866556</ele>
        <time>2026-10-06T10:09:03Z</time>
      </trkpt>
      <trkpt lat="34.83889175400203" lon="113.64990968356508">
        <ele>81.58341374527663</ele>
        <time>2026-10-06T10:09:06Z</time>
      </trkpt>
      <trkpt lat="34.838980574938624" lon="113.64984611129418">
        <ele>81.93475085217506</ele>
        <time>2026-10-06T10:09:09Z</time>
      </trkpt>
      <trkpt lat="34.839129772122746" lon="113.64968933351408">
        <ele>81.92630673758686</ele>
        <time>2026-10-06T10:09:15Z</time>
      </trkpt>
      <trkpt lat="34.83915245351673" lon="113.64958728879891">
        <ele>79.57196747232229</ele>
        <time>2026-10-06T10:09:20Z</time>
      </trkpt>
      <trkpt lat="34.839146996741235" lon="113.6494802778794">
        <ele>81.0264379568398</ele>
        <time>2026-10-06T10:09:50Z</time>
      </trkpt>
      <trkpt lat="34.83907595055151" lon="113.64918966413303">
        <ele>82.60174614842981</ele>
        <time>2026-10-06T10:10:16Z</time>
      </trkpt>
      <trkpt lat="34.839056208114386" lon="113.64897960049548">
        <ele>82.64686472900212</ele>
        <time>2026-10-06T10:10:25Z</time>
      </trkpt>
      <trkpt lat="34.83896370335386" lon="113.64868395919625">
        <ele>83.08485612645745</ele>
        <time>2026-10-06T10:10:34Z</time>
      </trkpt>
      <trkpt lat="34.83894419481228" lon="113.6484814087247">
        <ele>81.65076604951173</ele>
        <time>2026-10-06T10:10:41Z</time>
      </trkpt>
      <trkpt lat="34.83898623348273" lon="113.64794852711685">
        <ele>81.77440382540226</ele>
        <time>2026-10-06T10:10:54Z</time>
      </trkpt>
      <trkpt lat="34.83896786314497" lon="113.64782506732334">
        <ele>82.55336335860193</ele>
        <time>2026-10-06T10:10:57Z</time>
      </trkpt>
      <trkpt lat="34.83900088768513" lon="113.64763107108173">
        <ele>82.667873499915</ele>
        <time>2026-10-06T10:11:02Z</time>
      </trkpt>
      <trkpt lat="34.838991319657666" lon="113.6474268432079">
        <ele>82.00954835768789</ele>
        <time>2026-10-06T10:11:07Z</time>
      </trkpt>
      <trkpt lat="34.83896180519444" lon="113.64734543178386">
        <ele>86.05154260061681</ele>
        <time>2026-10-06T10:11:39Z</time>
      </trkpt>
      <trkpt lat="34.83891068271454" lon="113.6472839527199">
        <ele>87.10007334686816</ele>
        <time>2026-10-06T10:11:45Z</time>
      </trkpt>
      <trkpt lat="34.838828720016295" lon="113.64724810007961">
        <ele>87.77983632218093</ele>
        <time>2026-10-06T10:11:51Z</time>
      </trkpt>
      <trkpt lat="34.83867696931317" lon="113.64724212662672">
        <ele>85.69455673545599</ele>
        <time>2026-10-06T10:12:06Z</time>
      </trkpt>
      <trkpt lat="34.83863394519443" lon="113.64732343768358">
        <ele>82.10401810146868</ele>
        <time>2026-10-06T10:12:25Z</time>
      </trkpt>
      <trkpt lat="34.83868530259186" lon="113.64769622356702">
        <ele>81.39684046339244</ele>
        <time>2026-10-06T10:12:56Z</time>
      </trkpt>
      <trkpt lat="34.83864924386439" lon="113.64779631752732">
        <ele>82.92114211339504</ele>
        <time>2026-10-06T10:13:04Z</time>
      </trkpt>
      <trkpt lat="34.83843197532357" lon="113.64787655483747">
        <ele>83.08793802559376</ele>
        <time>2026-10-06T10:13:16Z</time>
      </trkpt>
      <trkpt lat="34.838368928301655" lon="113.64792428447555">
        <ele>83.03296987432986</ele>
        <time>2026-10-06T10:13:20Z</time>
      </trkpt>
      <trkpt lat="34.838447440145586" lon="113.64779985862765">
        <ele>157.28364064265043</ele>
        <time>2026-10-06T10:24:00Z</time>
      </trkpt>
      <trkpt lat="34.83892861274576" lon="113.64804788175445">
        <ele>125.09771539457142</ele>
        <time>2026-10-06T10:24:12Z</time>
      </trkpt>
      <trkpt lat="34.83847199811825" lon="113.64782259189467">
        <ele>124.1597900390625</ele>
        <time>2026-10-06T10:24:15Z</time>
      </trkpt>
      <trkpt lat="34.83847199811825" lon="113.64782259189467">
        <ele>124.1597900390625</ele>
        <time>2026-10-06T10:24:28Z</time>
      </trkpt>
    </trkseg>
  </trk>
</gpx>