<?xml version="1.0" encoding="UTF-8"?>
<gpx xmlns="http://www.topografix.com/GPX/1/1" xmlns:gpxtpx="http://www.garmin.com/xmlschemas/TrackPointExtension/v1" xmlns:xsi="http://www.w3.org/2001/XMLSchema-instance" xsi:schemaLocation="http://www.topografix.com/GPX/1/1 http://www.topografix.com/GPX/1/1/gpx.xsd" version="1.1" creator="gpx.py -- https://github.com/tkrajina/gpxpy">
  <trk>
    <name>gpx from keep</name>
    <type>Run</type>
    <trkseg>
      <trkpt lat="34.82548119900272" lon="113.65017749994574">
        <ele>92.58942033536732</ele>
        <time>2026-08-03T13:05:07Z</time>
      </trkpt>
      <trkpt lat="34.82522562980053" lon="113.65019095820024">
        <ele>91.09191978722811</ele>
        <time>2026-08-03T13:05:28Z</time>
      </trkpt>
      <trkpt lat="34.82514540694555" lon="113.65021050699974">
        <ele>90.60810644831508</ele>
        <time>2026-08-03T13:05:31Z</time>
      </trkpt>
      <trkpt lat="34.82506508070028" lon="113.65020287741602">
        <ele>90.59074192028493</ele>
        <time>2026-08-03T13:05:34Z</time>
      </trkpt>
      <trkpt lat="34.82497643395243" lon="113.65022633662889">
        <ele>90.00359215307981</ele>
        <time>2026-08-03T13:05:38Z</time>
      </trkpt>
      <trkpt lat="34.824944652142946" lon="113.65026538646114">
        <ele>89.50937061943114</ele>
        <time>2026-08-03T13:05:42Z</time>
      </trkpt>
      <trkpt lat="34.82500726839029" lon="113.6503368587305">
        <ele>90.02711871359497</ele>
        <time>2026-08-03T13:05:46Z</time>
      </trkpt>
      <trkpt lat="34.82529756805873" lon="113.65030198897333">
        <ele>89.54500056058168</ele>
        <time>2026-08-03T13:05:54Z</time>
      </trkpt>
      <trkpt lat="34.825590566767566" lon="113.65030576894524">
        <ele>90.05520230717957</ele>
        <time>2026-08-03T13:06:02Z</time>
      </trkpt>
      <trkpt lat="34.82570628764757" lon="113.65030345783781">
        <ele>90.18476896546781</ele>
        <time>2026-08-03T13:06:06Z</time>
      </trkpt>
      <trkpt lat="34.82576888246465" lon="113.65045180732844">
        <ele>89.75539471488446</ele>
        <time>2026-08-03T13:06:10Z</time>
      </trkpt>
      <trkpt lat="34.82575664678558" lon="113.65060248709611">
        <ele>89.92214429937303</ele>
        <time>2026-08-03T13:06:14Z</time>
      </trkpt>
      <trkpt lat="34.825717244003094" lon="113.65076380666608">
        <ele>89.64035189989954</ele>
        <time>2026-08-03T13:06:18Z</time>
      </trkpt>
      <trkpt lat="34.82571594887897" lon="113.65090746237402">
        <ele>89.7957498813048</ele>
        <time>2026-08-03T13:06:22Z</time>
      </trkpt>
      <trkpt lat="34.82573428267305" lon="113.65106177206493">
        <ele>89.49735058564693</ele>
        <time>2026-08-03T13:06:26Z</time>
      </trkpt>
      <trkpt lat="34.82570018866624" lon="113.65123346515541">
        <ele>89.49605080112815</ele>
        <time>2026-08-03T13:06:30Z</time>
      </trkpt>
      <trkpt lat="34.82567974623032" lon="113.65158100385673">
        <ele>89.3031216301024</ele>
        <time>2026-08-03T13:06:38Z</time>
      </trkpt>
      <trkpt lat="34.825646624491284" lon="113.65192315672222">
        <ele>89.49507870245725</ele>
        <time>2026-08-03T13:06:46Z</time>
      </trkpt>
      <trkpt lat="34.825643118421794" lon="113.65209922563615">
        <ele>89.51985236257315</ele>
        <time>2026-08-03T13:06:50Z</time>
      </trkpt>
      <trkpt lat="34.82559407600077" lon="113.65235729986262">
        <ele>89.23109155707061</ele>
        <time>2026-08-03T13:06:56Z</time>
      </trkpt>
      <trkpt lat="34.825595564081446" lon="113.65264936966257">
        <ele>90.95032001752406</ele>
        <time>2026-08-03T13:07:02Z</time>
      </trkpt>
      <trkpt lat="34.82557331635931" lon="113.65279410084796">
        <ele>90.30686317570508</ele>
        <time>2026-08-03T13:07:05Z</time>
      </trkpt>
      <trkpt lat="34.825574035903344" lon="113.65322689786679">
        <ele>90.40408317930996</ele>
        <time>2026-08-03T13:07:14Z</time>
      </trkpt>
      <trkpt lat="34.825528260433785" lon="113.65366635982551">
        <ele>90.5997952055186</ele>
        <time>2026-08-03T13:07:23Z</time>
      </trkpt>
      <trkpt lat="34.825477489299885" lon="113.65411225906182">
        <ele>90.28744778875262</ele>
        <time>2026-08-03T13:07:32Z</time>
      </trkpt>
      <trkpt lat="34.82547983723569" lon="113.65454949062472">
        <ele>92.84345514141023</ele>
        <time>2026-08-03T13:07:41Z</time>
      </trkpt>
      <trkpt lat="34.82554249458551" lon="113.65467270364879">
        <ele>94.27160706929862</ele>
        <time>2026-08-03T13:07:44Z</time>
      </trkpt>
      <trkpt lat="34.82563610882098" lon="113.65475534362227">
        <ele>93.11882842704654</ele>
        <time>2026-08-03T13:07:47Z</time>
      </trkpt>
      <trkpt lat="34.82585621407308" lon="113.65484705562582">
        <ele>94.1544472174719</ele>
        <time>2026-08-03T13:07:53Z</time>
      </trkpt>
      <trkpt lat="34.82609940603823" lon="113.65483326183109">
        <ele>95.3650856167078</ele>
        <time>2026-08-03T13:07:59Z</time>
      </trkpt>
      <trkpt lat="34.826360654362404" lon="113.65471587130656">
        <ele>94.08602065127343</ele>
        <time>2026-08-03T13:08:05Z</time>
      </trkpt>
      <trkpt lat="34.826623316276574" lon="113.65462124374069">
        <ele>93.799536078237</ele>
        <time>2026-08-03T13:08:11Z</time>
      </trkpt>
      <trkpt lat="34.82700514680695" lon="113.65445720790005">
        <ele>92.31223441939801</ele>
        <time>2026-08-03T13:08:20Z</time>
      </trkpt>
      <trkpt lat="34.82727489438201" lon="113.65433847303701">
        <ele>91.58399695623666</ele>
        <time>2026-08-03T13:08:26Z</time>
      </trkpt>
      <trkpt lat="34.8275749547264" lon="113.65422872585766">
        <ele>90.82264879066497</ele>
        <time>2026-08-03T13:08:32Z</time>
      </trkpt>
      <trkpt lat="34.82783273132617" lon="113.65411222055936">
        <ele>90.45587887428701</ele>
        <time>2026-08-03T13:08:38Z</time>
      </trkpt>
      <trkpt lat="34.82794937737717" lon="113.65405250250356">
        <ele>89.2265650369227</ele>
        <time>2026-08-03T13:08:41Z</time>
      </trkpt>
      <trkpt lat="34.82824656313381" lon="113.65395408431014">
        <ele>88.06893306504935</ele>
        <time>2026-08-03T13:08:47Z</time>
      </trkpt>
      <trkpt lat="34.82854128573287" lon="113.65383101038279">
        <ele>90.1326381964609</ele>
        <time>2026-08-03T13:08:53Z</time>
      </trkpt>
      <trkpt lat="34.828843448566055" lon="113.6537058385671">
        <ele>90.65933787915856</ele>
        <time>2026-08-03T13:09:00Z</time>
      </trkpt>
      <trkpt lat="34.829192275242846" lon="113.65358360073722">
        <ele>92.48780013434589</ele>
        <time>2026-08-03T13:09:09Z</time>
      </trkpt>
      <trkpt lat="34.82955772183863" lon="113.65340612433843">
        <ele>91.94820048101246</ele>
        <time>2026-08-03T13:09:18Z</time>
      </trkpt>
      <trkpt lat="34.829824042288095" lon="113.65329447498587">
        <ele>91.09744431357831</ele>
        <time>2026-08-03T13:09:24Z</time>
      </trkpt>
      <trkpt lat="34.83001058005646" lon="113.6532496807261">
        <ele>91.370355383493</ele>
        <time>2026-08-03T13:09:30Z</time>
      </trkpt>
      <trkpt lat="34.830067065196815" lon="113.65329850731291">
        <ele>92.06687338277698</ele>
        <time>2026-08-03T13:09:33Z</time>
      </trkpt>
      <trkpt lat="34.83004365272578" lon="113.65368465240716">
        <ele>92.96389763243496</ele>
        <time>2026-08-03T13:09:42Z</time>
      </trkpt>
      <trkpt lat="34.82999894658688" lon="113.6540763662696">
        <ele>93.43825425580144</ele>
        <time>2026-08-03T13:09:51Z</time>
      </trkpt>
      <trkpt lat="34.829978945898404" lon="113.65441377888735">
        <ele>93.37184569239616</ele>
        <time>2026-08-03T13:09:57Z</time>
      </trkpt>
      <trkpt lat="34.82997859223805" lon="113.65459292827425">
        <ele>93.9116830136627</ele>
        <time>2026-08-03T13:10:00Z</time>
      </trkpt>
      <trkpt lat="34.82991928721266" lon="113.65503305773096">
        <ele>94.07917238492519</ele>
        <time>2026-08-03T13:10:09Z</time>
      </trkpt>
      <trkpt lat="34.82989699339844" lon="113.65531491836059">
        <ele>94.63122035097331</ele>
        <time>2026-08-03T13:10:15Z</time>
      </trkpt>
      <trkpt lat="34.82989539182006" lon="113.65573313209528">
        <ele>95.17579516302794</ele>
        <time>2026-08-03T13:10:24Z</time>
      </trkpt>
      <trkpt lat="34.82988259004471" lon="113.6560788736098">
        <ele>95.12919657118618</ele>
        <time>2026-08-03T13:10:33Z</time>
      </trkpt>
      <trkpt lat="34.8298741029147" lon="113.65647006757011">
        <ele>94.1828374247998</ele>
        <time>2026-08-03T13:10:42Z</time>
      </trkpt>
      <trkpt lat="34.82985958020809" lon="113.65675583695948">
        <ele>93.89107964094728</ele>
        <time>2026-08-03T13:10:48Z</time>
      </trkpt>
      <trkpt lat="34.829830778032374" lon="113.65688480640877">
        <ele>93.65814403072</ele>
        <time>2026-08-03T13:10:51Z</time>
      </trkpt>
      <trkpt lat="34.82981162418414" lon="113.65725027723434">
        <ele>92.74131433106959</ele>
        <time>2026-08-03T13:11:00Z</time>
      </trkpt>
      <trkpt lat="34.82979972666025" lon="113.65759287290618">
        <ele>91.8658499121666</ele>
        <time>2026-08-03T13:11:07Z</time>
      </trkpt>
      <trkpt lat="34.82978847564618" lon="113.65774304502902">
        <ele>91.94803132582456</ele>
        <time>2026-08-03T13:11:10Z</time>
      </trkpt>
      <trkpt lat="34.829798882645306" lon="113.65797674748207">
        <ele>91.62828301917762</ele>
        <time>2026-08-03T13:11:16Z</time>
      </trkpt>
      <trkpt lat="34.82978872053398" lon="113.65803457951142">
        <ele>91.89081990532577</ele>
        <time>2026-08-03T13:11:19Z</time>
      </trkpt>
      <trkpt lat="34.82957795444158" lon="113.65799825996092">
        <ele>90.1378467278555</ele>
        <time>2026-08-03T13:11:34Z</time>
      </trkpt>
    </trkseg>
  </trk>
</gpx>