<?xml version="1.0" encoding="UTF-8"?>
<gpx xmlns="http://www.topografix.com/GPX/1/1" xmlns:gpxtpx="http://www.garmin.com/xmlschemas/TrackPointExtension/v1" xmlns:xsi="http://www.w3.org/2001/XMLSchema-instance" xsi:schemaLocation="http://www.topografix.com/GPX/1/1 http://www.topografix.com/GPX/1/1/gpx.xsd" version="1.1" creator="gpx.py -- https://github.com/tkrajina/gpxpy">
  <trk>
    <name>gpx from keep</name>
    <type>Run</type>
    <trkseg>
      <trkpt lat="34.82887355119454" lon="113.65617849882227">
        <ele>99.42071533203125</ele>
        <time>2026-08-04T00:55:15Z</time>
      </trkpt>
      <trkpt lat="34.82872846369665" lon="113.65630867041553">
        <ele>92.81005859375</ele>
        <time>2026-08-04T00:55:23Z</time>
      </trkpt>
      <trkpt lat="34.82871459554328" lon="113.65638745892797">
        <ele>92.7701316298917</ele>
        <time>2026-08-04T00:55:27Z</time>
      </trkpt>
      <trkpt lat="34.82863670953492" lon="113.65643023394564">
        <ele>92.06186527572572</ele>
        <time>2026-08-04T00:55:31Z</time>
      </trkpt>
      <trkpt lat="34.828271223144164" lon="113.65625992586365">
        <ele>91.63507696799934</ele>
        <time>2026-08-04T00:55:39Z</time>
      </trkpt>
      <trkpt lat="34.827934481736854" lon="113.65640774131892">
        <ele>89.68041204009205</ele>
        <time>2026-08-04T00:55:55Z</time>
      </trkpt>
      <trkpt lat="34.82765841662958" lon="113.65649221347033">
        <ele>91.95598425902426</ele>
        <time>2026-08-04T00:56:07Z</time>
      </trkpt>
      <trkpt lat="34.82750929854718" lon="113.65654842880633">
        <ele>91.4407486366108</ele>
        <time>2026-08-04T00:56:15Z</time>
      </trkpt>
      <trkpt lat="34.827434600761606" lon="113.6566004989259">
        <ele>91.12632954027504</ele>
        <time>2026-08-04T00:56:19Z</time>
      </trkpt>
      <trkpt lat="34.82726587223541" lon="113.65665137072052">
        <ele>89.86980786081403</ele>
        <time>2026-08-04T00:56:27Z</time>
      </trkpt>
      <trkpt lat="34.82719191046189" lon="113.65663954005288">
        <ele>91.60703404806554</ele>
        <time>2026-08-04T00:56:31Z</time>
      </trkpt>
      <trkpt lat="34.82709254207947" lon="113.65669995415156">
        <ele>91.9548856690526</ele>
        <time>2026-08-04T00:56:43Z</time>
      </trkpt>
      <trkpt lat="34.82703818855676" lon="113.65669836080406">
        <ele>92.32691527809948</ele>
        <time>2026-08-04T00:56:49Z</time>
      </trkpt>
      <trkpt lat="34.82686990680839" lon="113.65663605461654">
        <ele>94.80548574216664</ele>
        <time>2026-08-04T00:57:10Z</time>
      </trkpt>
      <trkpt lat="34.82693128920188" lon="113.65664910484563">
        <ele>94.80548574216664</ele>
        <time>2026-08-04T00:57:26Z</time>
      </trkpt>
      <trkpt lat="34.82697483807211" lon="113.65666390730873">
        <ele>91.86262621171772</ele>
        <time>2026-08-04T00:57:41Z</time>
      </trkpt>
      <trkpt lat="34.82703141539182" lon="113.656731660072">
        <ele>91.86262895353138</ele>
        <time>2026-08-04T00:57:53Z</time>
      </trkpt>
      <trkpt lat="34.82699718815898" lon="113.65660102049598">
        <ele>93.63894273433834</ele>
        <time>2026-08-04T00:58:14Z</time>
      </trkpt>
      <trkpt lat="34.82704757077523" lon="113.65675509166792">
        <ele>90.76620987989008</ele>
        <time>2026-08-04T00:58:17Z</time>
      </trkpt>
      <trkpt lat="34.827020713648054" lon="113.65667750025523">
        <ele>95.3066692519933</ele>
        <time>2026-08-04T00:58:32Z</time>
      </trkpt>
      <trkpt lat="34.82688088474126" lon="113.65667310021146">
        <ele>98.36822606809437</ele>
        <time>2026-08-04T00:58:35Z</time>
      </trkpt>
      <trkpt lat="34.82681425261285" lon="113.65661082675891">
        <ele>97.5494384933263</ele>
        <time>2026-08-04T00:58:44Z</time>
      </trkpt>
      <trkpt lat="34.82691047273784" lon="113.65657241053717">
        <ele>101.07368767540902</ele>
        <time>2026-08-04T00:58:50Z</time>
      </trkpt>
      <trkpt lat="34.82697743253634" lon="113.65670500048574">
        <ele>91.08776846993715</ele>
        <time>2026-08-04T00:58:56Z</time>
      </trkpt>
      <trkpt lat="34.82703462382637" lon="113.65672518582004">
        <ele>89.06100261304528</ele>
        <time>2026-08-04T00:58:59Z</time>
      </trkpt>
      <trkpt lat="34.827118260215585" lon="113.65665762562529">
        <ele>91.20138853508979</ele>
        <time>2026-08-04T00:59:05Z</time>
      </trkpt>
      <trkpt lat="34.827079965279964" lon="113.65649547897624">
        <ele>91.39581812173128</ele>
        <time>2026-08-04T00:59:14Z</time>
      </trkpt>
      <trkpt lat="34.826840893523126" lon="113.65655438762583">
        <ele>91.14870412554592</ele>
        <time>2026-08-04T00:59:26Z</time>
      </trkpt>
      <trkpt lat="34.82664286684736" lon="113.65653175156275">
        <ele>90.03324230480939</ele>
        <time>2026-08-04T00:59:37Z</time>
      </trkpt>
      <trkpt lat="34.82659963703119" lon="113.65641985491537">
        <ele>87.45620672032237</ele>
        <time>2026-08-04T00:59:45Z</time>
      </trkpt>
      <trkpt lat="34.82655864332733" lon="113.65635864038693">
        <ele>85.91369561478496</ele>
        <time>2026-08-04T00:59:49Z</time>
      </trkpt>
      <trkpt lat="34.82635086779638" lon="113.65646770307762">
        <ele>86.98965165484697</ele>
        <time>2026-08-04T01:00:04Z</time>
      </trkpt>
      <trkpt lat="34.8262277331031" lon="113.65648648358223">
        <ele>88.12972076889127</ele>
        <time>2026-08-04T01:00:13Z</time>
      </trkpt>
      <trkpt lat="34.826162518562654" lon="113.65654449140169">
        <ele>88.99594086501747</ele>
        <time>2026-08-04T01:00:19Z</time>
      </trkpt>
      <trkpt lat="34.826082055439215" lon="113.65653682258032">
        <ele>88.4392295461148</ele>
        <time>2026-08-04T01:00:25Z</time>
      </trkpt>
      <trkpt lat="34.82579006025393" lon="113.65669184056176">
        <ele>88.73483421187848</ele>
        <time>2026-08-04T01:00:46Z</time>
      </trkpt>
      <trkpt lat="34.82555069348828" lon="113.65683780530297">
        <ele>84.93575649615377</ele>
        <time>2026-08-04T01:01:04Z</time>
      </trkpt>
      <trkpt lat="34.82526497582564" lon="113.65694227820865">
        <ele>85.38802737835795</ele>
        <time>2026-08-04T01:01:25Z</time>
      </trkpt>
      <trkpt lat="34.82517846778895" lon="113.65696309318751">
        <ele>86.93484230712056</ele>
        <time>2026-08-04T01:01:31Z</time>
      </trkpt>
      <trkpt lat="34.82497171861383" lon="113.65706559810224">
        <ele>85.63301315531135</ele>
        <time>2026-08-04T01:01:44Z</time>
      </trkpt>
      <trkpt lat="34.824804211697405" lon="113.65710173638628">
        <ele>86.66656908858567</ele>
        <time>2026-08-04T01:01:53Z</time>
      </trkpt>
      <trkpt lat="34.82467024599655" lon="113.65714816884486">
        <ele>86.86161259375513</ele>
        <time>2026-08-04T01:01:59Z</time>
      </trkpt>
      <trkpt lat="34.82461052200302" lon="113.65720262702379">
        <ele>86.50842020567507</ele>
        <time>2026-08-04T01:02:02Z</time>
      </trkpt>
      <trkpt lat="34.824459613066736" lon="113.65724064156605">
        <ele>86.33759926445782</ele>
        <time>2026-08-04T01:02:08Z</time>
      </trkpt>
      <trkpt lat="34.82432831917352" lon="113.65730425271164">
        <ele>88.18457532860339</ele>
        <time>2026-08-04T01:02:14Z</time>
      </trkpt>
      <trkpt lat="34.82428285614092" lon="113.65734396697391">
        <ele>87.26767185796052</ele>
        <time>2026-08-04T01:02:17Z</time>
      </trkpt>
      <trkpt lat="34.824223409323565" lon="113.65735253628">
        <ele>86.94946934748441</ele>
        <time>2026-08-04T01:02:20Z</time>
      </trkpt>
      <trkpt lat="34.82393391862349" lon="113.65748000558128">
        <ele>86.32312484458089</ele>
        <time>2026-08-04T01:02:32Z</time>
      </trkpt>
      <trkpt lat="34.82364860667361" lon="113.65757671752253">
        <ele>87.51890779007226</ele>
        <time>2026-08-04T01:02:44Z</time>
      </trkpt>
      <trkpt lat="34.82333485001194" lon="113.65770937288306">
        <ele>86.98854811489582</ele>
        <time>2026-08-04T01:02:59Z</time>
      </trkpt>
      <trkpt lat="34.823225034347004" lon="113.6577895205016">
        <ele>86.27238416764885</ele>
        <time>2026-08-04T01:03:05Z</time>
      </trkpt>
      <trkpt lat="34.822952497600234" lon="113.6578857254733">
        <ele>86.0532718077302</ele>
        <time>2026-08-04T01:03:17Z</time>
      </trkpt>
      <trkpt lat="34.82267787689791" lon="113.65799397576548">
        <ele>85.11675388272852</ele>
        <time>2026-08-04T01:03:29Z</time>
      </trkpt>
      <trkpt lat="34.822408111154935" lon="113.65808459802744">
        <ele>86.37728569470346</ele>
        <time>2026-08-04T01:03:41Z</time>
      </trkpt>
      <trkpt lat="34.82215586709425" lon="113.65820782337975">
        <ele>86.67603622749448</ele>
        <time>2026-08-04T01:03:54Z</time>
      </trkpt>
      <trkpt lat="34.82205545437161" lon="113.65826709210508">
        <ele>87.13951621204615</ele>
        <time>2026-08-04T01:04:00Z</time>
      </trkpt>
      <trkpt lat="34.82189790445842" lon="113.65831344305496">
        <ele>87.623973085545</ele>
        <time>2026-08-04T01:04:06Z</time>
      </trkpt>
      <trkpt lat="34.82158499878365" lon="113.6584451110369">
        <ele>87.08987973909825</ele>
        <time>2026-08-04T01:04:21Z</time>
      </trkpt>
      <trkpt lat="34.82154414704819" lon="113.6584854808669">
        <ele>85.20584538206458</ele>
        <time>2026-08-04T01:04:24Z</time>
      </trkpt>
      <trkpt lat="34.82133179356662" lon="113.65857715070491">
        <ele>82.87485191505402</ele>
        <time>2026-08-04T01:04:36Z</time>
      </trkpt>
      <trkpt lat="34.821058001156494" lon="113.6586649690228">
        <ele>84.4984674109146</ele>
        <time>2026-08-04T01:04:51Z</time>
      </trkpt>
      <trkpt lat="34.82091801518677" lon="113.65870597042861">
        <ele>85.20627300720662</ele>
        <time>2026-08-04T01:04:57Z</time>
      </trkpt>
      <trkpt lat="34.820851992344174" lon="113.65875001365026">
        <ele>85.54747092258185</ele>
        <time>2026-08-04T01:05:00Z</time>
      </trkpt>
      <trkpt lat="34.82074038384996" lon="113.6587876045001">
        <ele>84.9897902244702</ele>
        <time>2026-08-04T01:05:06Z</time>
      </trkpt>
      <trkpt lat="34.82066202058463" lon="113.65878888893987">
        <ele>87.08145107980818</ele>
        <time>2026-08-04T01:05:12Z</time>
      </trkpt>
      <trkpt lat="34.82059504482958" lon="113.65873524335629">
        <ele>88.17201490979642</ele>
        <time>2026-08-04T01:05:18Z</time>
      </trkpt>
      <trkpt lat="34.820600956725535" lon="113.6583723455283">
        <ele>88.67257595993578</ele>
        <time>2026-08-04T01:05:36Z</time>
      </trkpt>
      <trkpt lat="34.82060042775807" lon="113.65815478565926">
        <ele>89.40845725499094</ele>
        <time>2026-08-04T01:05:45Z</time>
      </trkpt>
      <trkpt lat="34.82065156360754" lon="113.65810416256937">
        <ele>90.0361525984481</ele>
        <time>2026-08-04T01:05:49Z</time>
      </trkpt>
      <trkpt lat="34.8208719466294" lon="113.65798538940308">
        <ele>88.68077394552529</ele>
        <time>2026-08-04T01:06:04Z</time>
      </trkpt>
      <trkpt lat="34.820970906674894" lon="113.65796187971513">
        <ele>88.83997716102749</ele>
        <time>2026-08-04T01:06:10Z</time>
      </trkpt>
      <trkpt lat="34.82103728081216" lon="113.6578930930898">
        <ele>89.51365416310728</ele>
        <time>2026-08-04T01:06:16Z</time>
      </trkpt>
      <trkpt lat="34.82114252384441" lon="113.65790316762312">
        <ele>88.1058835061267</ele>
        <time>2026-08-04T01:06:19Z</time>
      </trkpt>
      <trkpt lat="34.821297198396046" lon="113.65783524703848">
        <ele>88.60121342912316</ele>
        <time>2026-08-04T01:06:28Z</time>
      </trkpt>
      <trkpt lat="34.821436431519366" lon="113.65774878159684">
        <ele>86.67215898260474</ele>
        <time>2026-08-04T01:06:37Z</time>
      </trkpt>
      <trkpt lat="34.821713385944335" lon="113.65765733455534">
        <ele>87.3356860363856</ele>
        <time>2026-08-04T01:06:52Z</time>
      </trkpt>
      <trkpt lat="34.82200606633852" lon="113.65754278764933">
        <ele>87.47447153553367</ele>
        <time>2026-08-04T01:07:07Z</time>
      </trkpt>
      <trkpt lat="34.822276793665765" lon="113.65743120502808">
        <ele>87.91765268798918</ele>
        <time>2026-08-04T01:07:19Z</time>
      </trkpt>
      <trkpt lat="34.82246048703144" lon="113.65735691920258">
        <ele>90.28186460118741</ele>
        <time>2026-08-04T01:07:28Z</time>
      </trkpt>
      <trkpt lat="34.82254211287945" lon="113.65729140921593">
        <ele>91.2810478368774</ele>
        <time>2026-08-04T01:07:34Z</time>
      </trkpt>
      <trkpt lat="34.822661296758156" lon="113.65725658492">
        <ele>90.3920891834423</ele>
        <time>2026-08-04T01:07:40Z</time>
      </trkpt>
      <trkpt lat="34.82293032702959" lon="113.65711844039431">
        <ele>88.63282952457666</ele>
        <time>2026-08-04T01:07:56Z</time>
      </trkpt>
      <trkpt lat="34.82323215183383" lon="113.65702026346163">
        <ele>88.79638462141156</ele>
        <time>2026-08-04T01:08:11Z</time>
      </trkpt>
      <trkpt lat="34.82354266234674" lon="113.65691140973044">
        <ele>91.81914888322353</ele>
        <time>2026-08-04T01:08:29Z</time>
      </trkpt>
      <trkpt lat="34.82383404956552" lon="113.65679684657194">
        <ele>91.61771919205785</ele>
        <time>2026-08-04T01:08:44Z</time>
      </trkpt>
      <trkpt lat="34.82393568195678" lon="113.65674921232794">
        <ele>91.34903183020651</ele>
        <time>2026-08-04T01:08:50Z</time>
      </trkpt>
      <trkpt lat="34.82405095333373" lon="113.65672300888767">
        <ele>90.52603808790445</ele>
        <time>2026-08-04T01:08:56Z</time>
      </trkpt>
      <trkpt lat="34.824311532334335" lon="113.65659970611568">
        <ele>89.94549491815269</ele>
        <time>2026-08-04T01:09:11Z</time>
      </trkpt>
      <trkpt lat="34.82446975491106" lon="113.65656951481692">
        <ele>91.41252766177058</ele>
        <time>2026-08-04T01:09:17Z</time>
      </trkpt>
      <trkpt lat="34.82476319511772" lon="113.65643227528744">
        <ele>91.15946634765714</ele>
        <time>2026-08-04T01:09:32Z</time>
      </trkpt>
      <trkpt lat="34.8250639429508" lon="113.65629369163898">
        <ele>90.99434059672058</ele>
        <time>2026-08-04T01:09:47Z</time>
      </trkpt>
      <trkpt lat="34.82536316573556" lon="113.65618247885426">
        <ele>91.18685821350664</ele>
        <time>2026-08-04T01:10:03Z</time>
      </trkpt>
      <trkpt lat="34.825624680554135" lon="113.65606088470385">
        <ele>89.96513625793159</ele>
        <time>2026-08-04T01:10:17Z</time>
      </trkpt>
      <trkpt lat="34.825887673632856" lon="113.65596815203952">
        <ele>88.69241775944829</ele>
        <time>2026-08-04T01:10:32Z</time>
      </trkpt>
      <trkpt lat="34.826173722652506" lon="113.65584154545272">
        <ele>89.47582811489701</ele>
        <time>2026-08-04T01:10:47Z</time>
      </trkpt>
      <trkpt lat="34.826492222872844" lon="113.65570768222842">
        <ele>89.80053116939962</ele>
        <time>2026-08-04T01:11:02Z</time>
      </trkpt>
      <trkpt lat="34.8267822672214" lon="113.65556773193731">
        <ele>90.26677138451487</ele>
        <time>2026-08-04T01:11:17Z</time>
      </trkpt>
      <trkpt lat="34.82683939406017" lon="113.65552076406306">
        <ele>90.47623811941594</ele>
        <time>2026-08-04T01:11:20Z</time>
      </trkpt>
      <trkpt lat="34.826911795264834" lon="113.65553253692798">
        <ele>90.31509823072702</ele>
        <time>2026-08-04T01:11:23Z</time>
      </trkpt>
      <trkpt lat="34.826965067620456" lon="113.65549386830332">
        <ele>92.86363856028765</ele>
        <time>2026-08-04T01:11:26Z</time>
      </trkpt>
      <trkpt lat="34.82724164876402" lon="113.65539641171937">
        <ele>91.93781429622322</ele>
        <time>2026-08-04T01:11:38Z</time>
      </trkpt>
      <trkpt lat="34.82745293711946" lon="113.65533643007804">
        <ele>88.82395876850933</ele>
        <time>2026-08-04T01:11:50Z</time>
      </trkpt>
      <trkpt lat="34.82760502749275" lon="113.6552474958012">
        <ele>88.2741035129875</ele>
        <time>2026-08-04T01:11:59Z</time>
      </trkpt>
      <trkpt lat="34.827801679726704" lon="113.6551469469561">
        <ele>90.71622406784445</ele>
        <time>2026-08-04T01:12:09Z</time>
      </trkpt>
      <trkpt lat="34.82785618694194" lon="113.65510229086462">
        <ele>89.66886611282825</ele>
        <time>2026-08-04T01:12:13Z</time>
      </trkpt>
      <trkpt lat="34.82814608752019" lon="113.65497547850497">
        <ele>91.14023385476321</ele>
        <time>2026-08-04T01:12:30Z</time>
      </trkpt>
      <trkpt lat="34.82844704291222" lon="113.65486478233849">
        <ele>90.81166793964803</ele>
        <time>2026-08-04T01:12:45Z</time>
      </trkpt>
      <trkpt lat="34.82850209436595" lon="113.6548584443013">
        <ele>90.69101847615093</ele>
        <time>2026-08-04T01:12:48Z</time>
      </trkpt>
      <trkpt lat="34.8285572967559" lon="113.65478355031021">
        <ele>91.84990137815475</ele>
        <time>2026-08-04T01:12:51Z</time>
      </trkpt>
      <trkpt lat="34.82886040381557" lon="113.65469030282874">
        <ele>91.12340459600091</ele>
        <time>2026-08-04T01:13:06Z</time>
      </trkpt>
      <trkpt lat="34.829037626071354" lon="113.65461414238321">
        <ele>91.28991354163736</ele>
        <time>2026-08-04T01:13:15Z</time>
      </trkpt>
      <trkpt lat="34.82935097424758" lon="113.65450389076373">
        <ele>90.16626851726323</ele>
        <time>2026-08-04T01:13:30Z</time>
      </trkpt>
      <trkpt lat="34.82967687738744" lon="113.65433603801036">
        <ele>88.84859676100314</ele>
        <time>2026-08-04T01:13:48Z</time>
      </trkpt>
      <trkpt lat="34.82978920383437" lon="113.65429828456644">
        <ele>89.85912972129881</ele>
        <time>2026-08-04T01:13:54Z</time>
      </trkpt>
      <trkpt lat="34.82986862987613" lon="113.65429209969271">
        <ele>90.30256019439548</ele>
        <time>2026-08-04T01:14:00Z</time>
      </trkpt>
      <trkpt lat="34.82990399161817" lon="113.65434482151439">
        <ele>89.81167397648096</ele>
        <time>2026-08-04T01:14:03Z</time>
      </trkpt>
      <trkpt lat="34.829894001970295" lon="113.65470237154848">
        <ele>91.28510137181729</ele>
        <time>2026-08-04T01:14:16Z</time>
      </trkpt>
      <trkpt lat="34.82988679623993" lon="113.65496150472359">
        <ele>92.25868196878582</ele>
        <time>2026-08-04T01:14:28Z</time>
      </trkpt>
      <trkpt lat="34.82989936864497" lon="113.65501614330216">
        <ele>91.48702679947019</ele>
        <time>2026-08-04T01:14:31Z</time>
      </trkpt>
      <trkpt lat="34.82985220138299" lon="113.65537394313647">
        <ele>90.31389766838402</ele>
        <time>2026-08-04T01:14:43Z</time>
      </trkpt>
      <trkpt lat="34.829821240542216" lon="113.65566960999423">
        <ele>89.51425808295608</ele>
        <time>2026-08-04T01:14:55Z</time>
      </trkpt>
      <trkpt lat="34.8298213054942" lon="113.65591617168667">
        <ele>89.41484272386879</ele>
        <time>2026-08-04T01:15:04Z</time>
      </trkpt>
      <trkpt lat="34.82978680446985" lon="113.6559888921851">
        <ele>88.08931622933596</ele>
        <time>2026-08-04T01:15:07Z</time>
      </trkpt>
      <trkpt lat="34.82972471818101" lon="113.65602292726365">
        <ele>86.90070755034685</ele>
        <time>2026-08-04T01:15:10Z</time>
      </trkpt>
      <trkpt lat="34.829674444492554" lon="113.65601390314993">
        <ele>87.58908768184483</ele>
        <time>2026-08-04T01:15:13Z</time>
      </trkpt>
      <trkpt lat="34.82964564040284" lon="113.65603605996803">
        <ele>86.68849897384644</ele>
        <time>2026-08-04T01:15:17Z</time>
      </trkpt>
    </trkseg>
  </trk>
</gpx>