<?xml version="1.0" encoding="UTF-8"?>
<gpx xmlns="http://www.topografix.com/GPX/1/1" xmlns:gpxtpx="http://www.garmin.com/xmlschemas/TrackPointExtension/v1" xmlns:xsi="http://www.w3.org/2001/XMLSchema-instance" xsi:schemaLocation="http://www.topografix.com/GPX/1/1 http://www.topografix.com/GPX/1/1/gpx.xsd" version="1.1" creator="gpx.py -- https://github.com/tkrajina/gpxpy">
  <trk>
    <name>gpx from keep</name>
    <type>Run</type>
    <trkseg>
      <trkpt lat="34.83015280574673" lon="113.65872838758946">
        <ele>112.84661865234375</ele>
        <time>2026-09-20T23:52:42Z</time>
      </trkpt>
      <trkpt lat="34.83018192781318" lon="113.65882234373595">
        <ele>110.93670654296875</ele>
        <time>2026-09-20T23:52:45Z</time>
      </trkpt>
      <trkpt lat="34.830258634914884" lon="113.65899898187381">
        <ele>110.17719133291394</ele>
        <time>2026-09-20T23:52:51Z</time>
      </trkpt>
      <trkpt lat="34.83029142672692" lon="113.65935189901725">
        <ele>104.73263811226934</ele>
        <time>2026-09-20T23:53:04Z</time>
      </trkpt>
      <trkpt lat="34.830308148670674" lon="113.65950824761688">
        <ele>103.57851069048047</ele>
        <time>2026-09-20T23:53:10Z</time>
      </trkpt>
      <trkpt lat="34.83025675599772" lon="113.65979206258127">
        <ele>101.94009604956955</ele>
        <time>2026-09-20T23:53:16Z</time>
      </trkpt>
      <trkpt lat="34.83024975967421" lon="113.65992406335069">
        <ele>101.70196939539164</ele>
        <time>2026-09-20T23:53:19Z</time>
      </trkpt>
      <trkpt lat="34.83033797655025" lon="113.65990983731557">
        <ele>98.98094906006008</ele>
        <time>2026-09-20T23:53:25Z</time>
      </trkpt>
      <trkpt lat="34.83053768665764" lon="113.65998008938257">
        <ele>98.31496182177216</ele>
        <time>2026-09-20T23:53:37Z</time>
      </trkpt>
      <trkpt lat="34.83060369524294" lon="113.65996372604873">
        <ele>97.67072324827313</ele>
        <time>2026-09-20T23:53:40Z</time>
      </trkpt>
      <trkpt lat="34.830663587920064" lon="113.6599255970429">
        <ele>97.20505274366587</ele>
        <time>2026-09-20T23:53:43Z</time>
      </trkpt>
      <trkpt lat="34.830787765596355" lon="113.6598901772992">
        <ele>96.81477051787078</ele>
        <time>2026-09-20T23:53:49Z</time>
      </trkpt>
      <trkpt lat="34.830936040683945" lon="113.65987232805747">
        <ele>96.00927561428398</ele>
        <time>2026-09-20T23:53:55Z</time>
      </trkpt>
      <trkpt lat="34.83101967274807" lon="113.65977731317747">
        <ele>95.44681393168867</ele>
        <time>2026-09-20T23:53:58Z</time>
      </trkpt>
      <trkpt lat="34.831134382673774" lon="113.65978439703011">
        <ele>94.1802771370858</ele>
        <time>2026-09-20T23:54:04Z</time>
      </trkpt>
      <trkpt lat="34.8312805220556" lon="113.65983195041407">
        <ele>94.91174335125834</ele>
        <time>2026-09-20T23:54:10Z</time>
      </trkpt>
      <trkpt lat="34.83134320341588" lon="113.65982040074732">
        <ele>93.93542339839041</ele>
        <time>2026-09-20T23:54:13Z</time>
      </trkpt>
      <trkpt lat="34.831415788040694" lon="113.65987858510482">
        <ele>94.2096407301724</ele>
        <time>2026-09-20T23:54:16Z</time>
      </trkpt>
      <trkpt lat="34.83147670620028" lon="113.65983104966745">
        <ele>91.26718047820032</ele>
        <time>2026-09-20T23:54:22Z</time>
      </trkpt>
      <trkpt lat="34.831584856918056" lon="113.65998635818177">
        <ele>95.11361352726817</ele>
        <time>2026-09-20T23:54:25Z</time>
      </trkpt>
      <trkpt lat="34.83165045812945" lon="113.66000866057414">
        <ele>97.75556990597397</ele>
        <time>2026-09-20T23:54:28Z</time>
      </trkpt>
      <trkpt lat="34.831794786768725" lon="113.6599382263837">
        <ele>100.68628193996847</ele>
        <time>2026-09-20T23:54:31Z</time>
      </trkpt>
      <trkpt lat="34.83209893857048" lon="113.65989266842507">
        <ele>97.02496439125389</ele>
        <time>2026-09-20T23:54:46Z</time>
      </trkpt>
      <trkpt lat="34.832141881721974" lon="113.6598567725866">
        <ele>97.7150531988591</ele>
        <time>2026-09-20T23:54:49Z</time>
      </trkpt>
      <trkpt lat="34.832128243918945" lon="113.65975115320487">
        <ele>96.80350618995726</ele>
        <time>2026-09-20T23:54:53Z</time>
      </trkpt>
      <trkpt lat="34.83217501189748" lon="113.65958102473643">
        <ele>97.41131994593889</ele>
        <time>2026-09-20T23:54:59Z</time>
      </trkpt>
      <trkpt lat="34.8321155012526" lon="113.65943936221716">
        <ele>96.88720841426402</ele>
        <time>2026-09-20T23:55:02Z</time>
      </trkpt>
      <trkpt lat="34.83212676147" lon="113.6593548005405">
        <ele>96.40661222301424</ele>
        <time>2026-09-20T23:55:05Z</time>
      </trkpt>
      <trkpt lat="34.83210637245176" lon="113.6592336775878">
        <ele>96.80371355079114</ele>
        <time>2026-09-20T23:55:11Z</time>
      </trkpt>
      <trkpt lat="34.832119072459534" lon="113.65917233209795">
        <ele>98.84658522251993</ele>
        <time>2026-09-20T23:55:14Z</time>
      </trkpt>
      <trkpt lat="34.832154090319605" lon="113.659110196853">
        <ele>95.90954162366688</ele>
        <time>2026-09-20T23:55:17Z</time>
      </trkpt>
      <trkpt lat="34.83212784090689" lon="113.65897232991297">
        <ele>98.03301241528243</ele>
        <time>2026-09-20T23:55:23Z</time>
      </trkpt>
      <trkpt lat="34.832142076181576" lon="113.65881061574522">
        <ele>98.20828004833311</ele>
        <time>2026-09-20T23:55:29Z</time>
      </trkpt>
      <trkpt lat="34.83218121003783" lon="113.65873158232507">
        <ele>98.13286442309618</ele>
        <time>2026-09-20T23:55:32Z</time>
      </trkpt>
      <trkpt lat="34.832161900407954" lon="113.65859722926315">
        <ele>96.98590159695596</ele>
        <time>2026-09-20T23:55:38Z</time>
      </trkpt>
      <trkpt lat="34.832182146917525" lon="113.65852200910498">
        <ele>96.21387544367462</ele>
        <time>2026-09-20T23:55:41Z</time>
      </trkpt>
      <trkpt lat="34.83216195762668" lon="113.65838894548632">
        <ele>95.7976707816124</ele>
        <time>2026-09-20T23:55:47Z</time>
      </trkpt>
      <trkpt lat="34.832163791083694" lon="113.6580627118582">
        <ele>96.0823433669284</ele>
        <time>2026-09-20T23:56:02Z</time>
      </trkpt>
      <trkpt lat="34.83215010503276" lon="113.65782299714907">
        <ele>96.69474794343114</ele>
        <time>2026-09-20T23:56:11Z</time>
      </trkpt>
      <trkpt lat="34.83221453050639" lon="113.65773709669195">
        <ele>96.79773062840104</ele>
        <time>2026-09-20T23:56:14Z</time>
      </trkpt>
      <trkpt lat="34.83220880025008" lon="113.65740881396484">
        <ele>93.71451322734356</ele>
        <time>2026-09-20T23:56:29Z</time>
      </trkpt>
      <trkpt lat="34.83220262851144" lon="113.6573409410619">
        <ele>94.72551226243377</ele>
        <time>2026-09-20T23:56:32Z</time>
      </trkpt>
      <trkpt lat="34.83211727384223" lon="113.65724094938132">
        <ele>93.93097530864179</ele>
        <time>2026-09-20T23:56:38Z</time>
      </trkpt>
      <trkpt lat="34.83206463283216" lon="113.65720541590261">
        <ele>94.44849035795778</ele>
        <time>2026-09-20T23:56:41Z</time>
      </trkpt>
      <trkpt lat="34.83195794213868" lon="113.65722132972793">
        <ele>93.93709967564791</ele>
        <time>2026-09-20T23:56:47Z</time>
      </trkpt>
      <trkpt lat="34.831892996055885" lon="113.6571969840482">
        <ele>94.32821373268962</ele>
        <time>2026-09-20T23:56:50Z</time>
      </trkpt>
      <trkpt lat="34.83189035701797" lon="113.65706777975409">
        <ele>93.74896529037505</ele>
        <time>2026-09-20T23:56:57Z</time>
      </trkpt>
      <trkpt lat="34.83197246603852" lon="113.65702019663901">
        <ele>92.70691230334342</ele>
        <time>2026-09-20T23:57:04Z</time>
      </trkpt>
      <trkpt lat="34.83210698520475" lon="113.6570416383529">
        <ele>92.50593814626336</ele>
        <time>2026-09-20T23:57:11Z</time>
      </trkpt>
      <trkpt lat="34.83224699542702" lon="113.65699613678304">
        <ele>92.71440780162811</ele>
        <time>2026-09-20T23:57:17Z</time>
      </trkpt>
      <trkpt lat="34.832271410320075" lon="113.65690170999376">
        <ele>91.73993315175176</ele>
        <time>2026-09-20T23:57:23Z</time>
      </trkpt>
      <trkpt lat="34.83227872676243" lon="113.65696004077024">
        <ele>91.26648028660566</ele>
        <time>2026-09-20T23:57:29Z</time>
      </trkpt>
      <trkpt lat="34.8323031834983" lon="113.65690198726418">
        <ele>91.18407086189836</ele>
        <time>2026-09-20T23:57:32Z</time>
      </trkpt>
      <trkpt lat="34.83234709018228" lon="113.65685597361833">
        <ele>92.1374104404822</ele>
        <time>2026-09-20T23:57:35Z</time>
      </trkpt>
      <trkpt lat="34.832377764486694" lon="113.65679390485708">
        <ele>91.4715526541695</ele>
        <time>2026-09-20T23:57:38Z</time>
      </trkpt>
      <trkpt lat="34.83242584224758" lon="113.65674911820484">
        <ele>91.92317808046937</ele>
        <time>2026-09-20T23:57:41Z</time>
      </trkpt>
      <trkpt lat="34.832499888252876" lon="113.65673808556281">
        <ele>91.74413662403822</ele>
        <time>2026-09-20T23:57:44Z</time>
      </trkpt>
      <trkpt lat="34.832542511848835" lon="113.65676865943702">
        <ele>92.10510699637234</ele>
        <time>2026-09-20T23:57:47Z</time>
      </trkpt>
      <trkpt lat="34.83266562331438" lon="113.65678964605786">
        <ele>92.07556290365756</ele>
        <time>2026-09-20T23:57:53Z</time>
      </trkpt>
      <trkpt lat="34.83280430564025" lon="113.65676448628842">
        <ele>91.16083193104714</ele>
        <time>2026-09-20T23:57:59Z</time>
      </trkpt>
      <trkpt lat="34.83288191513039" lon="113.65677600066547">
        <ele>91.00048739369959</ele>
        <time>2026-09-20T23:58:02Z</time>
      </trkpt>
      <trkpt lat="34.83299254044579" lon="113.65675397204419">
        <ele>90.81016609072685</ele>
        <time>2026-09-20T23:58:08Z</time>
      </trkpt>
      <trkpt lat="34.83316650923293" lon="113.65675959027743">
        <ele>90.82600779179484</ele>
        <time>2026-09-20T23:58:17Z</time>
      </trkpt>
      <trkpt lat="34.83321694955369" lon="113.65677879745849">
        <ele>90.79590591508895</ele>
        <time>2026-09-20T23:58:20Z</time>
      </trkpt>
      <trkpt lat="34.83327834418914" lon="113.65673573435969">
        <ele>90.33131957426667</ele>
        <time>2026-09-20T23:58:23Z</time>
      </trkpt>
      <trkpt lat="34.83328501158626" lon="113.65638038530342">
        <ele>91.18665464967489</ele>
        <time>2026-09-20T23:58:38Z</time>
      </trkpt>
      <trkpt lat="34.83341541859246" lon="113.65635522418522">
        <ele>92.7433300903067</ele>
        <time>2026-09-20T23:58:44Z</time>
      </trkpt>
      <trkpt lat="34.83358475200262" lon="113.65636172381222">
        <ele>91.74323788192123</ele>
        <time>2026-09-20T23:58:53Z</time>
      </trkpt>
      <trkpt lat="34.833785148715315" lon="113.65625521938664">
        <ele>90.24126061331481</ele>
        <time>2026-09-20T23:59:03Z</time>
      </trkpt>
      <trkpt lat="34.83394324998107" lon="113.65619234401724">
        <ele>91.31880510319024</ele>
        <time>2026-09-20T23:59:11Z</time>
      </trkpt>
      <trkpt lat="34.83401768366013" lon="113.65614148086932">
        <ele>92.21511965990067</ele>
        <time>2026-09-20T23:59:15Z</time>
      </trkpt>
      <trkpt lat="34.834244173368404" lon="113.65592674137422">
        <ele>92.71667587663978</ele>
        <time>2026-09-20T23:59:27Z</time>
      </trkpt>
      <trkpt lat="34.83432099726721" lon="113.65569575448966">
        <ele>93.53760351333767</ele>
        <time>2026-09-20T23:59:39Z</time>
      </trkpt>
      <trkpt lat="34.8343323409026" lon="113.65560241083804">
        <ele>92.32504279725254</ele>
        <time>2026-09-20T23:59:42Z</time>
      </trkpt>
      <trkpt lat="34.83423676477553" lon="113.65523604406543">
        <ele>92.9963012188673</ele>
        <time>2026-09-20T23:59:57Z</time>
      </trkpt>
      <trkpt lat="34.83419745532677" lon="113.65508846479534">
        <ele>93.46966344490647</ele>
        <time>2026-09-21T00:00:03Z</time>
      </trkpt>
      <trkpt lat="34.83414647017078" lon="113.65501889632066">
        <ele>92.66651841253042</ele>
        <time>2026-09-21T00:00:06Z</time>
      </trkpt>
      <trkpt lat="34.83406463308813" lon="113.6549922136799">
        <ele>92.53581530693918</ele>
        <time>2026-09-21T00:00:09Z</time>
      </trkpt>
      <trkpt lat="34.83399466973032" lon="113.65494473382455">
        <ele>89.6047699758783</ele>
        <time>2026-09-21T00:00:15Z</time>
      </trkpt>
      <trkpt lat="34.83394991952326" lon="113.65488936313035">
        <ele>90.13439100328833</ele>
        <time>2026-09-21T00:00:18Z</time>
      </trkpt>
      <trkpt lat="34.833638605636146" lon="113.65478387133864">
        <ele>88.37188795115799</ele>
        <time>2026-09-21T00:00:33Z</time>
      </trkpt>
      <trkpt lat="34.833479817722086" lon="113.65481256411736">
        <ele>88.61334306560457</ele>
        <time>2026-09-21T00:00:42Z</time>
      </trkpt>
      <trkpt lat="34.8334219218916" lon="113.65485286213404">
        <ele>88.4870004504919</ele>
        <time>2026-09-21T00:00:45Z</time>
      </trkpt>
      <trkpt lat="34.83331371557715" lon="113.65489074758479">
        <ele>87.50750903878361</ele>
        <time>2026-09-21T00:00:51Z</time>
      </trkpt>
      <trkpt lat="34.833302361629045" lon="113.6549771907226">
        <ele>88.0569889349863</ele>
        <time>2026-09-21T00:00:54Z</time>
      </trkpt>
      <trkpt lat="34.83321148979255" lon="113.65514213646111">
        <ele>87.55369453132153</ele>
        <time>2026-09-21T00:01:03Z</time>
      </trkpt>
      <trkpt lat="34.83309544566223" lon="113.65524226489704">
        <ele>87.71824084129184</ele>
        <time>2026-09-21T00:01:10Z</time>
      </trkpt>
      <trkpt lat="34.83298397293937" lon="113.65528993424832">
        <ele>88.47793270461261</ele>
        <time>2026-09-21T00:01:16Z</time>
      </trkpt>
      <trkpt lat="34.83272779987484" lon="113.6552448171831">
        <ele>87.6955120768398</ele>
        <time>2026-09-21T00:01:29Z</time>
      </trkpt>
      <trkpt lat="34.832480036816946" lon="113.65507331187976">
        <ele>88.37753320019692</ele>
        <time>2026-09-21T00:01:41Z</time>
      </trkpt>
      <trkpt lat="34.83235958469043" lon="113.65499634148253">
        <ele>88.92843298520893</ele>
        <time>2026-09-21T00:01:47Z</time>
      </trkpt>
      <trkpt lat="34.83231393982568" lon="113.65501813545372">
        <ele>88.73723237216473</ele>
        <time>2026-09-21T00:01:50Z</time>
      </trkpt>
      <trkpt lat="34.83223817749147" lon="113.65517130645696">
        <ele>88.37969385180622</ele>
        <time>2026-09-21T00:01:56Z</time>
      </trkpt>
      <trkpt lat="34.83225936688709" lon="113.65532698765541">
        <ele>88.86093325167894</ele>
        <time>2026-09-21T00:02:02Z</time>
      </trkpt>
      <trkpt lat="34.832249266836854" lon="113.65539175411858">
        <ele>88.85250283498317</ele>
        <time>2026-09-21T00:02:08Z</time>
      </trkpt>
      <trkpt lat="34.83212087578971" lon="113.65547172924563">
        <ele>85.57813063170761</ele>
        <time>2026-09-21T00:02:17Z</time>
      </trkpt>
      <trkpt lat="34.832043096882565" lon="113.6556247481933">
        <ele>86.2194896703586</ele>
        <time>2026-09-21T00:02:23Z</time>
      </trkpt>
      <trkpt lat="34.83198757583889" lon="113.6558428714068">
        <ele>89.17857061792165</ele>
        <time>2026-09-21T00:02:29Z</time>
      </trkpt>
      <trkpt lat="34.83199189235749" lon="113.6559223633529">
        <ele>89.90181365888566</ele>
        <time>2026-09-21T00:02:32Z</time>
      </trkpt>
      <trkpt lat="34.832042319043055" lon="113.6560688907488">
        <ele>90.39426821563393</ele>
        <time>2026-09-21T00:02:38Z</time>
      </trkpt>
      <trkpt lat="34.832149277341614" lon="113.6561457973864">
        <ele>90.4607863696292</ele>
        <time>2026-09-21T00:02:44Z</time>
      </trkpt>
      <trkpt lat="34.832140531430575" lon="113.65622357997043">
        <ele>89.85717008914798</ele>
        <time>2026-09-21T00:02:53Z</time>
      </trkpt>
      <trkpt lat="34.83218803813396" lon="113.65642495520652">
        <ele>90.48608206771314</ele>
        <time>2026-09-21T00:02:59Z</time>
      </trkpt>
      <trkpt lat="34.832223136027025" lon="113.6565007317717">
        <ele>89.24028374813497</ele>
        <time>2026-09-21T00:03:02Z</time>
      </trkpt>
      <trkpt lat="34.83228908997965" lon="113.65655084848161">
        <ele>90.27670077700168</ele>
        <time>2026-09-21T00:03:05Z</time>
      </trkpt>
      <trkpt lat="34.83229652078226" lon="113.65675994142075">
        <ele>90.66324009746313</ele>
        <time>2026-09-21T00:03:15Z</time>
      </trkpt>
      <trkpt lat="34.83225978639146" lon="113.65694777467267">
        <ele>91.88761080987751</ele>
        <time>2026-09-21T00:03:27Z</time>
      </trkpt>
      <trkpt lat="34.8322881021319" lon="113.65703167850296">
        <ele>91.69187689013779</ele>
        <time>2026-09-21T00:03:31Z</time>
      </trkpt>
      <trkpt lat="34.832280760597776" lon="113.65738096352241">
        <ele>90.19939857255667</ele>
        <time>2026-09-21T00:03:44Z</time>
      </trkpt>
      <trkpt lat="34.83226419650109" lon="113.65760779845051">
        <ele>89.6444790745154</ele>
        <time>2026-09-21T00:03:53Z</time>
      </trkpt>
      <trkpt lat="34.83220758035408" lon="113.65753937760228">
        <ele>88.31875186413527</ele>
        <time>2026-09-21T00:03:59Z</time>
      </trkpt>
      <trkpt lat="34.83217446761426" lon="113.65739068946938">
        <ele>90.1222129277885</ele>
        <time>2026-09-21T00:04:05Z</time>
      </trkpt>
      <trkpt lat="34.832185669534965" lon="113.65731633280292">
        <ele>90.20232163835317</ele>
        <time>2026-09-21T00:04:08Z</time>
      </trkpt>
      <trkpt lat="34.83214601549469" lon="113.6572840973636">
        <ele>90.63739286363125</ele>
        <time>2026-09-21T00:04:11Z</time>
      </trkpt>
      <trkpt lat="34.832113790889125" lon="113.657229673703">
        <ele>90.56828843522817</ele>
        <time>2026-09-21T00:04:14Z</time>
      </trkpt>
      <trkpt lat="34.83206500956327" lon="113.6571999635646">
        <ele>90.53942193556577</ele>
        <time>2026-09-21T00:04:17Z</time>
      </trkpt>
      <trkpt lat="34.83201445167179" lon="113.65723530721922">
        <ele>90.70746512152255</ele>
        <time>2026-09-21T00:04:20Z</time>
      </trkpt>
      <trkpt lat="34.83186534647096" lon="113.65718756159498">
        <ele>90.24605462141335</ele>
        <time>2026-09-21T00:04:26Z</time>
      </trkpt>
      <trkpt lat="34.83181676582345" lon="113.65720812801823">
        <ele>91.14064030908048</ele>
        <time>2026-09-21T00:04:29Z</time>
      </trkpt>
      <trkpt lat="34.8316307728572" lon="113.65721474261147">
        <ele>90.84254616312683</ele>
        <time>2026-09-21T00:04:38Z</time>
      </trkpt>
      <trkpt lat="34.83150962203577" lon="113.65725776707376">
        <ele>90.11907709762454</ele>
        <time>2026-09-21T00:04:44Z</time>
      </trkpt>
      <trkpt lat="34.83144312291378" lon="113.65723659002613">
        <ele>90.5361678916961</ele>
        <time>2026-09-21T00:04:47Z</time>
      </trkpt>
      <trkpt lat="34.831394304600884" lon="113.65727124628856">
        <ele>90.52681345120072</ele>
        <time>2026-09-21T00:04:50Z</time>
      </trkpt>
      <trkpt lat="34.831176613627996" lon="113.6572722037038">
        <ele>90.90753321535885</ele>
        <time>2026-09-21T00:04:59Z</time>
      </trkpt>
      <trkpt lat="34.831054360889695" lon="113.65721172171241">
        <ele>91.15819984022528</ele>
        <time>2026-09-21T00:05:05Z</time>
      </trkpt>
      <trkpt lat="34.830993568533415" lon="113.65723648367981">
        <ele>91.18870258424431</ele>
        <time>2026-09-21T00:05:11Z</time>
      </trkpt>
      <trkpt lat="34.83085452413695" lon="113.65743716455991">
        <ele>93.02322394773364</ele>
        <time>2026-09-21T00:05:21Z</time>
      </trkpt>
      <trkpt lat="34.830875167541244" lon="113.65757960298065">
        <ele>93.30917298328131</ele>
        <time>2026-09-21T00:05:25Z</time>
      </trkpt>
      <trkpt lat="34.83098988833644" lon="113.65793825336655">
        <ele>91.12982708308846</ele>
        <time>2026-09-21T00:05:37Z</time>
      </trkpt>
      <trkpt lat="34.83098031595072" lon="113.6580202935173">
        <ele>91.21008139010519</ele>
        <time>2026-09-21T00:05:41Z</time>
      </trkpt>
      <trkpt lat="34.83104189968295" lon="113.65810487639426">
        <ele>91.00286552682519</ele>
        <time>2026-09-21T00:05:45Z</time>
      </trkpt>
      <trkpt lat="34.83116623908252" lon="113.65817006352835">
        <ele>90.94766787067056</ele>
        <time>2026-09-21T00:05:51Z</time>
      </trkpt>
      <trkpt lat="34.831214881978234" lon="113.65817167446588">
        <ele>91.548629055731</ele>
        <time>2026-09-21T00:05:54Z</time>
      </trkpt>
      <trkpt lat="34.83130397184727" lon="113.65824104335191">
        <ele>91.58118907548487</ele>
        <time>2026-09-21T00:06:00Z</time>
      </trkpt>
      <trkpt lat="34.83135192610491" lon="113.65831193014016">
        <ele>91.30680491030216</ele>
        <time>2026-09-21T00:06:03Z</time>
      </trkpt>
      <trkpt lat="34.83142417982019" lon="113.6583180735471">
        <ele>91.80196858383715</ele>
        <time>2026-09-21T00:06:06Z</time>
      </trkpt>
      <trkpt lat="34.83155242832348" lon="113.65829961431812">
        <ele>91.09071857109666</ele>
        <time>2026-09-21T00:06:12Z</time>
      </trkpt>
      <trkpt lat="34.83172276146289" lon="113.658411439137">
        <ele>91.2627408625558</ele>
        <time>2026-09-21T00:06:21Z</time>
      </trkpt>
      <trkpt lat="34.83179498084285" lon="113.65840862592334">
        <ele>91.10816913936287</ele>
        <time>2026-09-21T00:06:24Z</time>
      </trkpt>
      <trkpt lat="34.83182634439381" lon="113.65846410208381">
        <ele>91.88955174386501</ele>
        <time>2026-09-21T00:06:27Z</time>
      </trkpt>
      <trkpt lat="34.831833854083" lon="113.65854188795444">
        <ele>91.16093272063881</ele>
        <time>2026-09-21T00:06:30Z</time>
      </trkpt>
      <trkpt lat="34.831940861360444" lon="113.6587226259182">
        <ele>91.68457033112645</ele>
        <time>2026-09-21T00:06:39Z</time>
      </trkpt>
      <trkpt lat="34.83187045002401" lon="113.65882284596746">
        <ele>90.55482601933181</ele>
        <time>2026-09-21T00:06:45Z</time>
      </trkpt>
      <trkpt lat="34.83158484604294" lon="113.65883878223092">
        <ele>89.01237526163459</ele>
        <time>2026-09-21T00:07:06Z</time>
      </trkpt>
      <trkpt lat="34.83149396826272" lon="113.65890337056909">
        <ele>89.61008531507105</ele>
        <time>2026-09-21T00:07:09Z</time>
      </trkpt>
      <trkpt lat="34.83137466139001" lon="113.65893648351361">
        <ele>90.19548900518566</ele>
        <time>2026-09-21T00:07:12Z</time>
      </trkpt>
      <trkpt lat="34.83133718016215" lon="113.65898430678432">
        <ele>90.13294021505862</ele>
        <time>2026-09-21T00:07:15Z</time>
      </trkpt>
      <trkpt lat="34.83118872150364" lon="113.65902960245678">
        <ele>89.97530413977802</ele>
        <time>2026-09-21T00:07:21Z</time>
      </trkpt>
      <trkpt lat="34.83115264274672" lon="113.6590930267061">
        <ele>90.56811503414065</ele>
        <time>2026-09-21T00:07:24Z</time>
      </trkpt>
      <trkpt lat="34.83107683465917" lon="113.6591304200097">
        <ele>92.36624438129365</ele>
        <time>2026-09-21T00:07:28Z</time>
      </trkpt>
      <trkpt lat="34.83078558082927" lon="113.65910973970352">
        <ele>91.45614178758115</ele>
        <time>2026-09-21T00:07:48Z</time>
      </trkpt>
      <trkpt lat="34.830946773927714" lon="113.65876686667357">
        <ele>91.19943016394973</ele>
        <time>2026-09-21T00:07:54Z</time>
      </trkpt>
      <trkpt lat="34.830840141005744" lon="113.6586456145193">
        <ele>91.59309213608503</ele>
        <time>2026-09-21T00:08:00Z</time>
      </trkpt>
      <trkpt lat="34.83077904333491" lon="113.65860603196292">
        <ele>91.28117821831256</ele>
        <time>2026-09-21T00:08:03Z</time>
      </trkpt>
      <trkpt lat="34.83069733081568" lon="113.65840990508524">
        <ele>91.52761742286384</ele>
        <time>2026-09-21T00:08:15Z</time>
      </trkpt>
      <trkpt lat="34.83049912270238" lon="113.65819642835443">
        <ele>91.4268172737211</ele>
        <time>2026-09-21T00:08:24Z</time>
      </trkpt>
      <trkpt lat="34.83037015614611" lon="113.65825071281182">
        <ele>90.48392363358289</ele>
        <time>2026-09-21T00:08:27Z</time>
      </trkpt>
      <trkpt lat="34.83042708084609" lon="113.65825638469809">
        <ele>90.919463978149</ele>
        <time>2026-09-21T00:08:30Z</time>
      </trkpt>
      <trkpt lat="34.83031441818158" lon="113.65832495537659">
        <ele>91.82954190205783</ele>
        <time>2026-09-21T00:08:36Z</time>
      </trkpt>
      <trkpt lat="34.83021977090006" lon="113.6583601037257">
        <ele>93.32620859798044</ele>
        <time>2026-09-21T00:08:39Z</time>
      </trkpt>
      <trkpt lat="34.830182722327955" lon="113.65840949090476">
        <ele>93.12881214730442</ele>
        <time>2026-09-21T00:08:42Z</time>
      </trkpt>
      <trkpt lat="34.83008279515019" lon="113.65846505100534">
        <ele>92.51251751929522</ele>
        <time>2026-09-21T00:08:45Z</time>
      </trkpt>
      <trkpt lat="34.82999158763346" lon="113.65859576721904">
        <ele>93.55987150408328</ele>
        <time>2026-09-21T00:08:51Z</time>
      </trkpt>
      <trkpt lat="34.829979755570776" lon="113.65865553054306">
        <ele>93.36795069649816</ele>
        <time>2026-09-21T00:08:54Z</time>
      </trkpt>
      <trkpt lat="34.83003930336146" lon="113.65871840967806">
        <ele>93.58317464683205</ele>
        <time>2026-09-21T00:08:57Z</time>
      </trkpt>
      <trkpt lat="34.830084593469785" lon="113.65881464093806">
        <ele>93.71367141138762</ele>
        <time>2026-09-21T00:09:00Z</time>
      </trkpt>
      <trkpt lat="34.83009680690331" lon="113.65895070721123">
        <ele>94.00968732777983</ele>
        <time>2026-09-21T00:09:03Z</time>
      </trkpt>
      <trkpt lat="34.83017141960333" lon="113.65905221086918">
        <ele>92.30813615676016</ele>
        <time>2026-09-21T00:09:21Z</time>
      </trkpt>
      <trkpt lat="34.83019342171923" lon="113.65899326595631">
        <ele>92.1952848918736</ele>
        <time>2026-09-21T00:09:24Z</time>
      </trkpt>
      <trkpt lat="34.83005213388797" lon="113.65888419009377">
        <ele>91.98963862191886</ele>
        <time>2026-09-21T00:09:27Z</time>
      </trkpt>
      <trkpt lat="34.82996918682371" lon="113.65874180659608">
        <ele>92.43194606434554</ele>
        <time>2026-09-21T00:09:34Z</time>
      </trkpt>
      <trkpt lat="34.829988550366984" lon="113.6586533299452">
        <ele>91.79822344519198</ele>
        <time>2026-09-21T00:09:38Z</time>
      </trkpt>
      <trkpt lat="34.830077949858705" lon="113.65858616843914">
        <ele>92.57576114311814</ele>
        <time>2026-09-21T00:09:42Z</time>
      </trkpt>
      <trkpt lat="34.830117364829334" lon="113.65853289998093">
        <ele>92.69639281649143</ele>
        <time>2026-09-21T00:09:46Z</time>
      </trkpt>
      <trkpt lat="34.83012941155126" lon="113.65847864168887">
        <ele>93.6373349390924</ele>
        <time>2026-09-21T00:09:49Z</time>
      </trkpt>
      <trkpt lat="34.830110918636876" lon="113.65846120581944">
        <ele>91.5188127476722</ele>
        <time>2026-09-21T00:09:52Z</time>
      </trkpt>
    </trkseg>
  </trk>
</gpx>