<?xml version="1.0" encoding="UTF-8"?>
<gpx xmlns="http://www.topografix.com/GPX/1/1" xmlns:gpxtpx="http://www.garmin.com/xmlschemas/TrackPointExtension/v1" xmlns:xsi="http://www.w3.org/2001/XMLSchema-instance" xsi:schemaLocation="http://www.topografix.com/GPX/1/1 http://www.topografix.com/GPX/1/1/gpx.xsd" version="1.1" creator="gpx.py -- https://github.com/tkrajina/gpxpy">
  <trk>
    <name>gpx from keep</name>
    <type>Run</type>
    <trkseg>
      <trkpt lat="34.83035955532055" lon="113.65933730142359">
        <ele>95.10162353515625</ele>
        <time>2026-09-11T01:20:22Z</time>
      </trkpt>
      <trkpt lat="34.830297391603516" lon="113.65953853430706">
        <ele>100.52534218598157</ele>
        <time>2026-09-11T01:20:30Z</time>
      </trkpt>
      <trkpt lat="34.83025067114805" lon="113.65983923137004">
        <ele>101.47641433682293</ele>
        <time>2026-09-11T01:20:38Z</time>
      </trkpt>
      <trkpt lat="34.83026662684908" lon="113.65997487477239">
        <ele>101.37087319046259</ele>
        <time>2026-09-11T01:20:42Z</time>
      </trkpt>
      <trkpt lat="34.83032537908576" lon="113.66004968430084">
        <ele>99.87593977153301</ele>
        <time>2026-09-11T01:20:46Z</time>
      </trkpt>
      <trkpt lat="34.83047609134213" lon="113.6600041143597">
        <ele>99.50136177614331</ele>
        <time>2026-09-11T01:20:50Z</time>
      </trkpt>
      <trkpt lat="34.83057281145214" lon="113.66002050100462">
        <ele>100.71956028603017</ele>
        <time>2026-09-11T01:20:54Z</time>
      </trkpt>
      <trkpt lat="34.830872873905015" lon="113.66000906185143">
        <ele>101.93267570342869</ele>
        <time>2026-09-11T01:21:06Z</time>
      </trkpt>
      <trkpt lat="34.8311883819878" lon="113.66001737118333">
        <ele>98.31413767766207</ele>
        <time>2026-09-11T01:21:19Z</time>
      </trkpt>
      <trkpt lat="34.83152559594969" lon="113.66001042693294">
        <ele>99.60684119071811</ele>
        <time>2026-09-11T01:21:34Z</time>
      </trkpt>
      <trkpt lat="34.83180427756275" lon="113.6599894058731">
        <ele>99.72380861174315</ele>
        <time>2026-09-11T01:21:46Z</time>
      </trkpt>
      <trkpt lat="34.832011029862045" lon="113.65993622611954">
        <ele>96.22791406232864</ele>
        <time>2026-09-11T01:21:55Z</time>
      </trkpt>
      <trkpt lat="34.832059248789875" lon="113.65989045010399">
        <ele>94.54193243198097</ele>
        <time>2026-09-11T01:21:58Z</time>
      </trkpt>
      <trkpt lat="34.83208732599639" lon="113.65982383452939">
        <ele>92.85810258053243</ele>
        <time>2026-09-11T01:22:01Z</time>
      </trkpt>
      <trkpt lat="34.832100778991865" lon="113.65941561674808">
        <ele>90.13415442034602</ele>
        <time>2026-09-11T01:22:16Z</time>
      </trkpt>
      <trkpt lat="34.83211720310256" lon="113.65905199259997">
        <ele>90.18527453299612</ele>
        <time>2026-09-11T01:22:29Z</time>
      </trkpt>
      <trkpt lat="34.83217802262355" lon="113.6587188497642">
        <ele>89.4277681261301</ele>
        <time>2026-09-11T01:22:41Z</time>
      </trkpt>
      <trkpt lat="34.832171755808886" lon="113.65838627250375">
        <ele>89.9010304743424</ele>
        <time>2026-09-11T01:22:53Z</time>
      </trkpt>
      <trkpt lat="34.83215310276511" lon="113.65822106327987">
        <ele>90.01904355268925</ele>
        <time>2026-09-11T01:22:59Z</time>
      </trkpt>
      <trkpt lat="34.83215788119488" lon="113.658139688196">
        <ele>90.03917480353266</ele>
        <time>2026-09-11T01:23:02Z</time>
      </trkpt>
      <trkpt lat="34.8321381098999" lon="113.65807329551517">
        <ele>88.62223395425826</ele>
        <time>2026-09-11T01:23:05Z</time>
      </trkpt>
      <trkpt lat="34.832168649398604" lon="113.65789300852222">
        <ele>88.34450609888881</ele>
        <time>2026-09-11T01:23:11Z</time>
      </trkpt>
      <trkpt lat="34.83215359627608" lon="113.65757116373638">
        <ele>88.36465477477759</ele>
        <time>2026-09-11T01:23:23Z</time>
      </trkpt>
      <trkpt lat="34.8321832735606" lon="113.6575013615452">
        <ele>87.13868808932602</ele>
        <time>2026-09-11T01:23:26Z</time>
      </trkpt>
      <trkpt lat="34.83215644022217" lon="113.65745360829742">
        <ele>86.8134786374867</ele>
        <time>2026-09-11T01:23:29Z</time>
      </trkpt>
      <trkpt lat="34.83215352109899" lon="113.65731734768488">
        <ele>86.99349406547844</ele>
        <time>2026-09-11T01:23:35Z</time>
      </trkpt>
      <trkpt lat="34.83212589145061" lon="113.65726674543035">
        <ele>86.53949035424739</ele>
        <time>2026-09-11T01:23:38Z</time>
      </trkpt>
      <trkpt lat="34.83208730025384" lon="113.65723786714516">
        <ele>85.90691321901977</ele>
        <time>2026-09-11T01:23:41Z</time>
      </trkpt>
      <trkpt lat="34.83184660381771" lon="113.6572099486156">
        <ele>86.66294301766902</ele>
        <time>2026-09-11T01:23:53Z</time>
      </trkpt>
      <trkpt lat="34.831854053810936" lon="113.65701784879117">
        <ele>87.003472302109</ele>
        <time>2026-09-11T01:24:02Z</time>
      </trkpt>
      <trkpt lat="34.831784709167884" lon="113.65704087084383">
        <ele>89.3499610600993</ele>
        <time>2026-09-11T01:24:08Z</time>
      </trkpt>
      <trkpt lat="34.8317148798004" lon="113.65701547046834">
        <ele>90.24836060591042</ele>
        <time>2026-09-11T01:24:11Z</time>
      </trkpt>
      <trkpt lat="34.83151588586244" lon="113.65701806881977">
        <ele>90.80408156570047</ele>
        <time>2026-09-11T01:24:20Z</time>
      </trkpt>
      <trkpt lat="34.83146354642822" lon="113.65706272126518">
        <ele>91.0493982154876</ele>
        <time>2026-09-11T01:24:23Z</time>
      </trkpt>
      <trkpt lat="34.8314023648462" lon="113.65717235364308">
        <ele>88.71499814465642</ele>
        <time>2026-09-11T01:24:29Z</time>
      </trkpt>
      <trkpt lat="34.831329045668994" lon="113.65713674275916">
        <ele>87.50970600359142</ele>
        <time>2026-09-11T01:24:33Z</time>
      </trkpt>
      <trkpt lat="34.831071095951486" lon="113.65715963843472">
        <ele>88.119978684932</ele>
        <time>2026-09-11T01:24:45Z</time>
      </trkpt>
      <trkpt lat="34.830859937100364" lon="113.6571599499584">
        <ele>88.52775075286627</ele>
        <time>2026-09-11T01:24:55Z</time>
      </trkpt>
      <trkpt lat="34.83080260575345" lon="113.65713728558049">
        <ele>87.855384089984</ele>
        <time>2026-09-11T01:24:58Z</time>
      </trkpt>
      <trkpt lat="34.83067821666101" lon="113.65714436323853">
        <ele>87.15034502651542</ele>
        <time>2026-09-11T01:25:04Z</time>
      </trkpt>
      <trkpt lat="34.830568322129544" lon="113.6571248623493">
        <ele>87.5693703982979</ele>
        <time>2026-09-11T01:25:10Z</time>
      </trkpt>
      <trkpt lat="34.83044987170447" lon="113.65713502806727">
        <ele>87.99064724054188</ele>
        <time>2026-09-11T01:25:16Z</time>
      </trkpt>
      <trkpt lat="34.83034894559112" lon="113.65721713925758">
        <ele>87.0494409808889</ele>
        <time>2026-09-11T01:25:22Z</time>
      </trkpt>
      <trkpt lat="34.83033041783091" lon="113.65757509100789">
        <ele>85.79773116111755</ele>
        <time>2026-09-11T01:25:37Z</time>
      </trkpt>
      <trkpt lat="34.830344652694336" lon="113.65796347555751">
        <ele>86.89113726932555</ele>
        <time>2026-09-11T01:25:52Z</time>
      </trkpt>
      <trkpt lat="34.830334547198206" lon="113.65833436512163">
        <ele>85.39646275062114</ele>
        <time>2026-09-11T01:26:07Z</time>
      </trkpt>
      <trkpt lat="34.83030534744792" lon="113.65849760424281">
        <ele>85.30166289489716</ele>
        <time>2026-09-11T01:26:13Z</time>
      </trkpt>
      <trkpt lat="34.83030537011547" lon="113.65884733855252">
        <ele>86.6956599438563</ele>
        <time>2026-09-11T01:26:25Z</time>
      </trkpt>
      <trkpt lat="34.830301998858495" lon="113.65919183264481">
        <ele>85.7773321243003</ele>
        <time>2026-09-11T01:26:38Z</time>
      </trkpt>
      <trkpt lat="34.830302664376326" lon="113.6596134719296">
        <ele>86.89070404600352</ele>
        <time>2026-09-11T01:26:54Z</time>
      </trkpt>
      <trkpt lat="34.8302909372359" lon="113.65987863555343">
        <ele>88.75847432948649</ele>
        <time>2026-09-11T01:27:04Z</time>
      </trkpt>
      <trkpt lat="34.83032595754005" lon="113.65993022144292">
        <ele>87.7830780716613</ele>
        <time>2026-09-11T01:27:07Z</time>
      </trkpt>
      <trkpt lat="34.830383200373035" lon="113.65996549588228">
        <ele>87.82843935675919</ele>
        <time>2026-09-11T01:27:10Z</time>
      </trkpt>
      <trkpt lat="34.830696740151495" lon="113.65995539709955">
        <ele>87.05054580792785</ele>
        <time>2026-09-11T01:27:25Z</time>
      </trkpt>
      <trkpt lat="34.83082762456963" lon="113.65997262498117">
        <ele>89.44178382027894</ele>
        <time>2026-09-11T01:27:31Z</time>
      </trkpt>
      <trkpt lat="34.83093330057684" lon="113.65995243800491">
        <ele>90.91840173024684</ele>
        <time>2026-09-11T01:27:37Z</time>
      </trkpt>
      <trkpt lat="34.83100570264792" lon="113.65995755822189">
        <ele>91.46128092892468</ele>
        <time>2026-09-11T01:27:40Z</time>
      </trkpt>
      <trkpt lat="34.83104084785885" lon="113.65992106855444">
        <ele>89.65717624966055</ele>
        <time>2026-09-11T01:27:43Z</time>
      </trkpt>
      <trkpt lat="34.831062180122586" lon="113.6597906698455">
        <ele>85.94547676853836</ele>
        <time>2026-09-11T01:27:49Z</time>
      </trkpt>
      <trkpt lat="34.83110281291376" lon="113.65963416734354">
        <ele>85.43361488170922</ele>
        <time>2026-09-11T01:27:58Z</time>
      </trkpt>
      <trkpt lat="34.830984523393425" lon="113.65952107584488">
        <ele>85.17869621142745</ele>
        <time>2026-09-11T01:28:07Z</time>
      </trkpt>
      <trkpt lat="34.83103095329704" lon="113.65934470093124">
        <ele>84.31995296292007</ele>
        <time>2026-09-11T01:28:10Z</time>
      </trkpt>
      <trkpt lat="34.83110518722654" lon="113.65920128874379">
        <ele>88.72306068707258</ele>
        <time>2026-09-11T01:28:16Z</time>
      </trkpt>
      <trkpt lat="34.83122173602679" lon="113.65908302521346">
        <ele>91.56652613729239</ele>
        <time>2026-09-11T01:28:22Z</time>
      </trkpt>
      <trkpt lat="34.831281569393894" lon="113.65904550167306">
        <ele>91.83566235657781</ele>
        <time>2026-09-11T01:28:25Z</time>
      </trkpt>
      <trkpt lat="34.83134508718654" lon="113.65905443192443">
        <ele>91.98965769633651</ele>
        <time>2026-09-11T01:28:28Z</time>
      </trkpt>
      <trkpt lat="34.83142728457627" lon="113.65900112781823">
        <ele>91.88745866622776</ele>
        <time>2026-09-11T01:28:31Z</time>
      </trkpt>
      <trkpt lat="34.83162592987842" lon="113.65906693167162">
        <ele>89.03160264249891</ele>
        <time>2026-09-11T01:28:40Z</time>
      </trkpt>
      <trkpt lat="34.83179410296601" lon="113.65907589079328">
        <ele>89.33142138738185</ele>
        <time>2026-09-11T01:28:48Z</time>
      </trkpt>
      <trkpt lat="34.831740903431054" lon="113.65898040873292">
        <ele>90.62076217867434</ele>
        <time>2026-09-11T01:28:52Z</time>
      </trkpt>
      <trkpt lat="34.831681751050056" lon="113.65895872627544">
        <ele>83.18437857925892</ele>
        <time>2026-09-11T01:28:56Z</time>
      </trkpt>
      <trkpt lat="34.83186357039114" lon="113.65880035580759">
        <ele>83.53386015910655</ele>
        <time>2026-09-11T01:29:04Z</time>
      </trkpt>
      <trkpt lat="34.83194424921708" lon="113.65875169010951">
        <ele>83.56270602531731</ele>
        <time>2026-09-11T01:29:08Z</time>
      </trkpt>
      <trkpt lat="34.831992740621246" lon="113.65866543566547">
        <ele>83.81777358520776</ele>
        <time>2026-09-11T01:29:12Z</time>
      </trkpt>
      <trkpt lat="34.83214073122672" lon="113.65853760587642">
        <ele>85.73363198991865</ele>
        <time>2026-09-11T01:29:21Z</time>
      </trkpt>
      <trkpt lat="34.83217769039695" lon="113.65818748504996">
        <ele>86.20504202879965</ele>
        <time>2026-09-11T01:29:36Z</time>
      </trkpt>
      <trkpt lat="34.83216570422769" lon="113.65782518165139">
        <ele>83.58507860079408</ele>
        <time>2026-09-11T01:29:51Z</time>
      </trkpt>
      <trkpt lat="34.832152098841384" lon="113.65766902382684">
        <ele>84.198954728432</ele>
        <time>2026-09-11T01:29:57Z</time>
      </trkpt>
      <trkpt lat="34.83216609775789" lon="113.65758309484717">
        <ele>83.58932812977582</ele>
        <time>2026-09-11T01:30:00Z</time>
      </trkpt>
      <trkpt lat="34.83216037900495" lon="113.65731621507307">
        <ele>84.54151362087578</ele>
        <time>2026-09-11T01:30:12Z</time>
      </trkpt>
      <trkpt lat="34.83207413506944" lon="113.657255468942">
        <ele>83.18346629478037</ele>
        <time>2026-09-11T01:30:18Z</time>
      </trkpt>
      <trkpt lat="34.831857795307236" lon="113.65726054536509">
        <ele>82.84576985798776</ele>
        <time>2026-09-11T01:30:30Z</time>
      </trkpt>
      <trkpt lat="34.831864511542314" lon="113.65710561024851">
        <ele>83.21150469221175</ele>
        <time>2026-09-11T01:30:36Z</time>
      </trkpt>
      <trkpt lat="34.8318821004073" lon="113.65703713151164">
        <ele>83.4528075158596</ele>
        <time>2026-09-11T01:30:39Z</time>
      </trkpt>
      <trkpt lat="34.83195851130754" lon="113.65705729732957">
        <ele>84.1850143764168</ele>
        <time>2026-09-11T01:30:42Z</time>
      </trkpt>
      <trkpt lat="34.832240816920105" lon="113.65704873574575">
        <ele>86.195930310525</ele>
        <time>2026-09-11T01:30:56Z</time>
      </trkpt>
      <trkpt lat="34.83226047539039" lon="113.65694648567553">
        <ele>87.85404020175338</ele>
        <time>2026-09-11T01:31:00Z</time>
      </trkpt>
      <trkpt lat="34.83223816801119" lon="113.65684712589886">
        <ele>88.26221155095845</ele>
        <time>2026-09-11T01:31:04Z</time>
      </trkpt>
      <trkpt lat="34.832245428960796" lon="113.65676072112022">
        <ele>88.73456476163119</ele>
        <time>2026-09-11T01:31:07Z</time>
      </trkpt>
      <trkpt lat="34.832299137101586" lon="113.65670884126803">
        <ele>89.9352418910712</ele>
        <time>2026-09-11T01:31:10Z</time>
      </trkpt>
      <trkpt lat="34.83242456813625" lon="113.65671264250135">
        <ele>90.36907354928553</ele>
        <time>2026-09-11T01:31:16Z</time>
      </trkpt>
      <trkpt lat="34.83255029404813" lon="113.65673540961599">
        <ele>90.79241518117487</ele>
        <time>2026-09-11T01:31:22Z</time>
      </trkpt>
      <trkpt lat="34.83261598224422" lon="113.65671165040298">
        <ele>90.07799626141787</ele>
        <time>2026-09-11T01:31:25Z</time>
      </trkpt>
      <trkpt lat="34.832617052375134" lon="113.65677144458063">
        <ele>88.69269270077348</ele>
        <time>2026-09-11T01:31:31Z</time>
      </trkpt>
      <trkpt lat="34.83272265270969" lon="113.65677335552043">
        <ele>88.27119168639183</ele>
        <time>2026-09-11T01:31:34Z</time>
      </trkpt>
      <trkpt lat="34.83278853672039" lon="113.65680177355499">
        <ele>89.54141929373145</ele>
        <time>2026-09-11T01:31:37Z</time>
      </trkpt>
      <trkpt lat="34.832868816730794" lon="113.65677341617328">
        <ele>89.19976690318435</ele>
        <time>2026-09-11T01:31:40Z</time>
      </trkpt>
      <trkpt lat="34.833178074826385" lon="113.65675974867023">
        <ele>92.38159242644906</ele>
        <time>2026-09-11T01:31:52Z</time>
      </trkpt>
      <trkpt lat="34.83345068321842" lon="113.65676475910158">
        <ele>93.36756012309343</ele>
        <time>2026-09-11T01:32:04Z</time>
      </trkpt>
      <trkpt lat="34.83370862962019" lon="113.65671741365152">
        <ele>93.40914684999734</ele>
        <time>2026-09-11T01:32:16Z</time>
      </trkpt>
      <trkpt lat="34.83392990161836" lon="113.6565821698265">
        <ele>93.14930500090122</ele>
        <time>2026-09-11T01:32:28Z</time>
      </trkpt>
      <trkpt lat="34.83395682586423" lon="113.65651295851407">
        <ele>93.39186503738165</ele>
        <time>2026-09-11T01:32:31Z</time>
      </trkpt>
      <trkpt lat="34.83390544957055" lon="113.65644289825475">
        <ele>92.39127147570252</ele>
        <time>2026-09-11T01:32:34Z</time>
      </trkpt>
      <trkpt lat="34.83379161368435" lon="113.65633746710975">
        <ele>91.12105075083673</ele>
        <time>2026-09-11T01:32:40Z</time>
      </trkpt>
      <trkpt lat="34.833755511438106" lon="113.65627175269128">
        <ele>90.87398201040924</ele>
        <time>2026-09-11T01:32:43Z</time>
      </trkpt>
      <trkpt lat="34.83381545147745" lon="113.65620426051815">
        <ele>92.20079964585602</ele>
        <time>2026-09-11T01:32:46Z</time>
      </trkpt>
      <trkpt lat="34.83393134340024" lon="113.65615349996948">
        <ele>92.96913241408765</ele>
        <time>2026-09-11T01:32:52Z</time>
      </trkpt>
      <trkpt lat="34.834128168322536" lon="113.65599192508323">
        <ele>91.77523962315172</ele>
        <time>2026-09-11T01:33:03Z</time>
      </trkpt>
      <trkpt lat="34.83420971922495" lon="113.65585450709467">
        <ele>90.64673238154501</ele>
        <time>2026-09-11T01:33:10Z</time>
      </trkpt>
      <trkpt lat="34.83426916602895" lon="113.65562743115119">
        <ele>90.32392972707748</ele>
        <time>2026-09-11T01:33:19Z</time>
      </trkpt>
      <trkpt lat="34.83427134268949" lon="113.65546928653332">
        <ele>90.49633957073092</ele>
        <time>2026-09-11T01:33:25Z</time>
      </trkpt>
      <trkpt lat="34.83416227666692" lon="113.6551015255026">
        <ele>90.80581228621304</ele>
        <time>2026-09-11T01:33:40Z</time>
      </trkpt>
      <trkpt lat="34.83411564430854" lon="113.65504612947738">
        <ele>90.30855638999492</ele>
        <time>2026-09-11T01:33:43Z</time>
      </trkpt>
      <trkpt lat="34.83404761772986" lon="113.65503916254731">
        <ele>91.35732456017286</ele>
        <time>2026-09-11T01:33:46Z</time>
      </trkpt>
      <trkpt lat="34.833974014575105" lon="113.65492807946858">
        <ele>90.23496931605041</ele>
        <time>2026-09-11T01:33:52Z</time>
      </trkpt>
      <trkpt lat="34.83385985624106" lon="113.65484282624806">
        <ele>89.30395867768675</ele>
        <time>2026-09-11T01:33:58Z</time>
      </trkpt>
      <trkpt lat="34.83360549993158" lon="113.65479090396617">
        <ele>88.27587386406958</ele>
        <time>2026-09-11T01:34:10Z</time>
      </trkpt>
      <trkpt lat="34.833524197272716" lon="113.65479804133747">
        <ele>88.28095070272684</ele>
        <time>2026-09-11T01:34:13Z</time>
      </trkpt>
      <trkpt lat="34.83335146497774" lon="113.65488005279995">
        <ele>87.8104178328067</ele>
        <time>2026-09-11T01:34:19Z</time>
      </trkpt>
      <trkpt lat="34.83328676290876" lon="113.65496875579325">
        <ele>88.28683930821717</ele>
        <time>2026-09-11T01:34:22Z</time>
      </trkpt>
      <trkpt lat="34.83320678609524" lon="113.65516175890964">
        <ele>88.11792304180562</ele>
        <time>2026-09-11T01:34:28Z</time>
      </trkpt>
      <trkpt lat="34.833147438235045" lon="113.65522730780815">
        <ele>88.19636367913336</ele>
        <time>2026-09-11T01:34:31Z</time>
      </trkpt>
      <trkpt lat="34.83298741584047" lon="113.65530066302915">
        <ele>87.25763397384435</ele>
        <time>2026-09-11T01:34:37Z</time>
      </trkpt>
      <trkpt lat="34.83281530828975" lon="113.65528440833936">
        <ele>86.9812218695879</ele>
        <time>2026-09-11T01:34:43Z</time>
      </trkpt>
      <trkpt lat="34.83273256768017" lon="113.65525414874462">
        <ele>86.92251601628959</ele>
        <time>2026-09-11T01:34:46Z</time>
      </trkpt>
      <trkpt lat="34.83265413616532" lon="113.65517614786724">
        <ele>87.53979766741395</ele>
        <time>2026-09-11T01:34:49Z</time>
      </trkpt>
      <trkpt lat="34.83249677795957" lon="113.65509857339897">
        <ele>88.01002471521497</ele>
        <time>2026-09-11T01:34:55Z</time>
      </trkpt>
      <trkpt lat="34.83242618971262" lon="113.65509499510391">
        <ele>88.47002509608865</ele>
        <time>2026-09-11T01:34:58Z</time>
      </trkpt>
      <trkpt lat="34.83230225898207" lon="113.65517760945465">
        <ele>88.33239694405347</ele>
        <time>2026-09-11T01:35:05Z</time>
      </trkpt>
      <trkpt lat="34.832266635836675" lon="113.65525177442683">
        <ele>88.37170228920877</ele>
        <time>2026-09-11T01:35:08Z</time>
      </trkpt>
      <trkpt lat="34.83224322106499" lon="113.65536676537124">
        <ele>88.80136097967625</ele>
        <time>2026-09-11T01:35:12Z</time>
      </trkpt>
      <trkpt lat="34.832263666946965" lon="113.6554489488631">
        <ele>89.62154235132039</ele>
        <time>2026-09-11T01:35:15Z</time>
      </trkpt>
      <trkpt lat="34.832186850941504" lon="113.65561566207654">
        <ele>91.68860234785825</ele>
        <time>2026-09-11T01:35:22Z</time>
      </trkpt>
      <trkpt lat="34.83201783806467" lon="113.65573071923696">
        <ele>90.58899791073054</ele>
        <time>2026-09-11T01:35:31Z</time>
      </trkpt>
      <trkpt lat="34.83190684879747" lon="113.65598450022459">
        <ele>90.44259298127145</ele>
        <time>2026-09-11T01:35:46Z</time>
      </trkpt>
      <trkpt lat="34.831850727930814" lon="113.65599244904419">
        <ele>90.1403472609818</ele>
        <time>2026-09-11T01:35:49Z</time>
      </trkpt>
      <trkpt lat="34.83164565927304" lon="113.65618870611485">
        <ele>93.02321425732225</ele>
        <time>2026-09-11T01:36:07Z</time>
      </trkpt>
      <trkpt lat="34.83151294323824" lon="113.65622768972">
        <ele>92.256029849872</ele>
        <time>2026-09-11T01:36:16Z</time>
      </trkpt>
      <trkpt lat="34.83143608731525" lon="113.6562871227781">
        <ele>90.981225294061</ele>
        <time>2026-09-11T01:36:22Z</time>
      </trkpt>
      <trkpt lat="34.831355181750475" lon="113.65629122729135">
        <ele>90.09915965981781</ele>
        <time>2026-09-11T01:36:28Z</time>
      </trkpt>
      <trkpt lat="34.83128450021561" lon="113.65623695353405">
        <ele>89.68846694473177</ele>
        <time>2026-09-11T01:36:34Z</time>
      </trkpt>
      <trkpt lat="34.83120509639457" lon="113.65621591422061">
        <ele>89.9330196743831</ele>
        <time>2026-09-11T01:36:40Z</time>
      </trkpt>
      <trkpt lat="34.83111760428354" lon="113.65621894877418">
        <ele>90.40032443590462</ele>
        <time>2026-09-11T01:36:46Z</time>
      </trkpt>
      <trkpt lat="34.830957191548265" lon="113.65617651543003">
        <ele>88.89100832585245</ele>
        <time>2026-09-11T01:36:58Z</time>
      </trkpt>
      <trkpt lat="34.830878447921755" lon="113.65619985276797">
        <ele>88.6165784234181</ele>
        <time>2026-09-11T01:37:04Z</time>
      </trkpt>
      <trkpt lat="34.83079934338712" lon="113.65625775989497">
        <ele>89.50300825480372</ele>
        <time>2026-09-11T01:37:11Z</time>
      </trkpt>
      <trkpt lat="34.83073664130918" lon="113.6562582103884">
        <ele>89.73720675799996</ele>
        <time>2026-09-11T01:37:15Z</time>
      </trkpt>
      <trkpt lat="34.83064966514747" lon="113.65631966071214">
        <ele>89.66204244457185</ele>
        <time>2026-09-11T01:37:21Z</time>
      </trkpt>
      <trkpt lat="34.83055977312662" lon="113.6564598405872">
        <ele>88.17582510970533</ele>
        <time>2026-09-11T01:37:30Z</time>
      </trkpt>
      <trkpt lat="34.830570832801996" lon="113.65653348456809">
        <ele>89.63550395984203</ele>
        <time>2026-09-11T01:37:36Z</time>
      </trkpt>
      <trkpt lat="34.830538251055714" lon="113.65663080822743">
        <ele>89.8508679009974</ele>
        <time>2026-09-11T01:37:42Z</time>
      </trkpt>
      <trkpt lat="34.83049000524376" lon="113.65668813629188">
        <ele>89.8859566859901</ele>
        <time>2026-09-11T01:37:48Z</time>
      </trkpt>
      <trkpt lat="34.83044109573281" lon="113.65670238794958">
        <ele>89.17543744668365</ele>
        <time>2026-09-11T01:37:51Z</time>
      </trkpt>
      <trkpt lat="34.83026187044993" lon="113.65684082641891">
        <ele>89.1627053655684</ele>
        <time>2026-09-11T01:38:12Z</time>
      </trkpt>
      <trkpt lat="34.830218204851626" lon="113.65721269251442">
        <ele>90.21722341515124</ele>
        <time>2026-09-11T01:38:33Z</time>
      </trkpt>
      <trkpt lat="34.83019643051946" lon="113.65756549286795">
        <ele>90.09652143064886</ele>
        <time>2026-09-11T01:38:54Z</time>
      </trkpt>
      <trkpt lat="34.8302023014137" lon="113.65784309168806">
        <ele>90.24935152288526</ele>
        <time>2026-09-11T01:39:09Z</time>
      </trkpt>
      <trkpt lat="34.83020621300496" lon="113.65786123870161">
        <ele>93.53741251025349</ele>
        <time>2026-09-11T01:41:14Z</time>
      </trkpt>
    </trkseg>
  </trk>
</gpx>